Name,Address,City,State,Zip
1st Choice Trailers,19822 W. Hwy 54,Goddard,Kansas,67052
417 Coachworks,1551 W Skyline Ave,Ozark,Missouri,65721
417 RV,1801 Russland Rd,Vars,Ontario,K0A 3H0
4Z's RVs,1083 Industrial Parkway,Peru,Indiana,46970
83 RV,25514 North Highway 83,Mundelein,Illinois,60060
"A-Z Mobile RV, Inc.",32747 Lone Star rd,Paola,Kansas,66071
AC Nelsen RV World,6220 Highway 101 South,Shakopee,Minnesota,55379
AC Nelsen RV World,50304 Olive Street,Atlantic,Iowa,50022
AC Nelsen RV World,11818 L Street,Omaha,Nebraska,68137
Action Line Sales,751 N. Lake Havasu Ave,Lake Havasu City,Arizona,86403
Adventure RV,9310 Hutchins Drive,Cheyenne,Wyoming,82007
Adventure RV Group,350 Soscol Ave.,Napa,California,94559
Affinity RV,3197 Willow Creek Rd,Prescott,Arizona,86301
Affordable RV Sales and Rentals,9994 Hillview Road,Newcastle ,California,95658
Airstream Inland Empire,27969 Jefferson Ave,Temecula,California,92592
Airstream Las Vegas,5050 E. Russell Rd.,Las Vegas,Nevada,89122
Airstream Los Angeles,1212 East Las Tunas Drive,San Gabriel,California,91776
Airstream of Austin,15855 S. IH 35 Exit 220,Buda,Texas,78610
Airstream of Louisiana,13250 Millerville Greens Blvd.,Baton Rouge,Louisiana,70816
Airstream of South Carolina,242 Glassmaster Rd.,Lexington,South Carolina,29072
Airstream of South Florida,5270 Orange River Blvd,Fort Myers,Florida,33905
Airstream of Tampa,4654 McIntosh Rd.,Dover,Florida,33527
Airstream Orange County,15086 Beach Blvd,Midway City,California,92655
Alamo RV Truck Center,7023 Hwy 54-70,Alamogordo,New Mexico,88310
All Season's RV Center,1337 Colusa Hwy,Yuba City,California,95993
All Seasons RV,4701 AIRLINE RD,Muskegon,Michigan,49442
All Valley RV Center,1525 Sierra Hwy,Acton,California,93510
Allan Marsh Travel Center,4033 W Chinden,BOISE,Idaho,83714
Aloha RV,8212 Pan American Fwy,Albuquerque,New Mexico,87113
Aloha RV North,350 East Frontage Rd,Bernalillo,New Mexico,87004
Alpin Haus - Amsterdam,1863 Route 5S,Amsterdam,New York,12010
Alpin Haus - Oak Ridge,3143 Route 23N,Oak Ridge,New Jersey,07438
Alpin Haus - Port Jervis,36 Route 6,Port Jervis,New York,12771
Alpin Haus - Saratoga,30 Gordon Lane,Gansevoort,New York,12831
Always RV,9245 E. Main St.,Mesa,Arizona,85207
AmericaGoRV,2157 Manor Dr.,Seguin,Texas,78155
American Motorhome,1064 El Camino Ave,Sacramento,California,95815
Ancira RV,30500 IH 10 West,Boerne,Texas,78006
Annie's RVs,6506 NE Highway 99,Vancouver,Washington,98665
Ansley RV,1280 PA-764,Duncansville,Pennsylvania,16635
AOK RVsÂ®,621 North Main St,Laurie,Missouri,65037
Apache Camping Center - Everett,12517 S Hwy 99,Everett,Washington,98204
Apache Camping Center - Kitsap,19520 Viking Ave,Poulsbo,Washington,98370
Apache Camping Center - Portland,11021 SE 82nd Ave,Happy Valley,Oregon,97086
Apache Camping Center - Tacoma,9402 Pacific Ave,Tacoma,Washington,98444
"Apache Village R.V. Center, Inc",9001 Dunn Rd,Hazelwood,Missouri,63042
Appleway RV Liberty Lake,19605 East Cataldo Ave,Liberty Lake,Washington,99016
Appleway RV Pasco,1510 N Commercial Ave Suite A,Pasco,Washington,99301
Arizona Luxury Coach,"525 E. Pinnacle Peak Road, Suite 160",Phoenix,Arizona,85024
Arlington RV Supercenter,966 Quaker Lane,East Greenwich,Rhode Island,02818
Arrowhead Camper Sales,2574 State Route 58 East,Mayfield,Kentucky,42066
As-Is RV,11300 N Warren St,Hayden,Idaho,83835
Ashley Outdoors LLC - AL,12811 US 280 or 3141 Lee rd 179 ,Salem,Alabama,36874
Ashley Outdoors LLC - GA,1781 Box Road,Columbus,Georgia,31907
Atascocita RV Sales,3010 Atascocita Rd.,Humble,Texas,77396
Atlantic Marine & RV,657 North 2nd St.,Fort Pierce,Florida,34950
Auto Resource,1241 Evergreen Rd.,Woodburn,Oregon,97071
Autobank and RV's Sales,2518 White Horse Rd,Greenville,South Carolina,29611
Avelina Camper National,730 sterling drive,Boiling Springs,South Carolina,29316
Awesome RV,1001 SW Interstate Ave.,Chehalis,Washington,98532
AZ Auto RV,320 S. El Dorado Suite 4,Mesa,Arizona,85202
B & R Camper Sales,5606 Hwy 90 West,Theodore,Alabama,36582
Bailey Toliver RV - Brownfield,1294 US Highway 82,Brownfield,Texas,79316
Bailey Toliver RV - Stanton,3546 IH-20 East Frontage Rd,Stanton,Texas,79782
Ballard's Camping Center,5849 Southwestern Boulevard,Hamburg,New York,14075
Bankston Motor Homes - Albertville,450 E.R. Ballard Drive,Attalla,Alabama,35954
Bankston Motor Homes - Ardmore,30225 Bankston Road,Ardmore,Tennessee,38449
Bankston Motor Homes - Florence,3008 Florence Blvd,Florence,Alabama,35634
Bankston Motor Homes - Huntsville,2191 Jordan Lane NW,Huntsville,Alabama,35816
Bankston Motor Homes - Nashville,2588 Music Valley Drive,Nashville,Tennessee,37214
Bankston Motor Homes - Warrior,9694  Hwy 31 ,Warrior,Alabama,35180
Barry's Camper Sales,17 Lake wanda Rieta Rd,Summerville,Georgia,30747
Barry's RV Outlet,19637 Industry Parkway Drive,Bakersfield,California,93308
Barton Lake RV Sales,15 Lane 201 Barton Lake,Fremont,Indiana,46737
Bates RV,1018 U.S. 41 Bypass S,Venice,Florida,34285
Baydo's RV Center,4819 20th St E,Fife,Washington,98424
Beach Cities RV,15132 Beach Blvd.,Midway City,California,92655
Beaumont RV,910 Western Knolls Ave,Beaumont,California,92223
Becker Autos & Trailers,3008 US Hwy 24,Beloit,Kansas,67420
Bell Camper Sales,1005 NE Washington Blvd,Bartlesville,Oklahoma,74006
Bent's RV Albany,28215 Good Rd.,Albany,Louisiana,70711
Bent's RV Boutte,14412 Highway 90,Boutte,Louisiana,70039
Best Choice Trailers & RV,1449 Arona Rd.,Irwin,Pennsylvania,15642
Best Preowned RV,16042 Waverly Drive,Houston,Texas,77032
Best Preowned RV,6475 N Highway 17,Awendaw,South Carolina,29429
Best RV Center - Turlock,5340 Taylor Court,Turlock,California,95382
Best Value RV,11505 US Hwy 380 W,Krum,Texas,76249
Big State RV & Boat,8115 River Dr.,Houston,Texas,77017
Bill Plemmons RV World - Raleigh,4208 New Bern Avenue,Raleigh,North Carolina,27610
Bill Plemmons RV World - Winston,6725 University Parkway,Rural Hall,North Carolina,27045
Blackwell Rv Sales,1197 Jackson St,Red oak,Texas,75154
Blade RV Center,1100 Freeway Drive,Mt. Vernon,Washington,98273
Blue Dog RV Anderson,2461 Alexander Ave,Anderson ,California,96007
Blue Dog RV Bakersfield,5700 Wible Rd,Bakersfield,California,93313
Blue Dog RV Bend,181 NE Franklin Ave,Bend,Oregon,97701
Blue Dog RV Kalispell,3138 US Highway 2 E,Kalispell,Montana,59901
Blue Dog RV Las Vegas,5220 E Russell Rd,Las Vegas,Nevada,89122
Blue Dog RV Medford,3976 Crater Lake Ave,Medford,Oregon,97504
Blue Dog RV Pasco,1120 N 28th Ave.,Pasco,Washington,99301
Blue Dog RV Post Falls,714 W Seltice Way,Post Falls,Idaho,83854
Blue Dog RV Redmond,2910 S Hwy 97,Redmond,Oregon,97756
Blue Dog RV Spokane,19117 E. Broadway Ave.,Spokane Valley,Washington,99016
Blue Dog RV Troutdale,3265 SW Sundial Ave.,Troutdale,Oregon,97060
Blue Star RV,5755 143rd Ave,Holland,Michigan,49423
Blue Star RVs,7520 La Honda Way,Yucca Valley,California,92284
Bob's Auto Sales Inc,5826 SE  82nd ave,Portland,Oregon,97266
Bobby Waynes RV,45230 23rd St. West,Lancaster,California,93536
Bradford RV Center,1906 Main St.,Brockton,Massachusetts,02301
Bretz RV & Marine - Billings,2999 Old Hardin Rd.,Billings,Montana,59101
Bretz RV & Marine - Boise,4180 Broadway,Boise,Idaho,83705
Bretz RV & Marine - Missoula,4800 Grant Creek Rd,Missoula,Montana,59808
Bretz RV & Marine - Nampa,1608 Industrial Rd,Nampa,Idaho,83687
Brown's RV,9702 Hwy 53,Lower Lake,California,95457
Brown's RV Online,202 South Hwy 52,Guttenberg,Iowa,52052
Browns RV Superstore,30049 Hwy 151,McBee,South Carolina,29101
Bucars RV Centre,262109 Balzac Blvd.,Balzac,Alberta,T4B 2T3
Buddy Gregg RV & Motorhomes - Knoxville,11730 Snyder Rd,Knoxville,Tennessee,37932
Budget RVs of Texas,6680 Interstate 30,Royse City,Texas,75156
Bullyan RV,4956 Miller Trunk Hwy,Duluth,Minnesota,55811
Burdick's RV Center,8560 Brewerton Rd/Rt 11,Cicero,New York,13039
Bus Supply Company,2084 Highway 98E,McComb,Mississippi,39648
Buscher Bros RV,1015 N. Main St.,Algona,Iowa,50511
Butler RV Center and PreOwned RV's,196 Pittsburgh Rd.,Butler,Pennsylvania,16001
BuyRVSellRV.com,614 Vintage Rd. NW,Oronoco,Minnesota,55960
Camp Life RV,47571 New London Eastern Rd.,New London,Ohio,44851
Campbell RV,617 Cattlemen Road,Sarasota,Florida,34232
Camper Clinic II,15855 S IH-35,Buda,Texas,78610
Camper's Choice RV Chehalis,165 Hamilton Rd,Napavine,Washington,98565
Camper's Choice RV Sequim,259335 HWY 101,Sequim,Washington,98382
Camper's Corner,2354 US 441,Fruitland Park,Florida,34731
Campers & More ,6340 Moffett Rd,Mobile,Alabama,36618
Campers & More,18133 Hwy 49,Saucier,Mississippi,39574
"Campers Inn of Sewell, NJ (dba Dylans RV)",2190 Delsea Drive ,Sewell,New Jersey,08080
"Campers Inn RV of Acworth, GA",5961 Woodstock Road,Acworth,Georgia,30102
"Campers Inn RV of Bismarck, ND",1900 N. Industrial Dr,Bismarck,North Dakota,58501
"Campers Inn RV of Charleston, SC",1511 US 52,Moncks Corner,South Carolina,29461
"Campers Inn RV of Collinsville, IL",2020 Mall Street,Collinsville,Illinois,62234
"Campers Inn RV of Conway, SC",1302 US Hwy 501,Conway,South Carolina,29526
"Campers Inn RV of Davenport, IA",5120 N. Brady Street (Hwy. 61),Davenport,Iowa,52806
"Campers Inn RV of Fredericksburg, VA",1132 Jefferson Davis Highway,Stafford,Virginia,22405
Campers Inn RV of Jacksonville North,14590 Duval Place West,Jacksonville,Florida,32118
"Campers Inn RV of Jacksonville, FL",10626 General Ave,Jacksonville,Florida,32220
"Campers Inn RV of Kings Mountain, NC",615 Broadview Dr.,Kings Mountain,North Carolina,28086
"Campers Inn RV of Kingston, NH",146 Route 125 ,Kingston,New Hampshire,03848
"Campers Inn RV of Leesburg, FL",3230 US Hwy 441/27,Fruitland Park,Florida,34731
"Campers Inn RV of Macon, GA",125 Peachtree Parkway,Byron,Georgia,31008
"Campers Inn RV of Madison, AL",9311 Madison Blvd,Madison,Alabama,35758
"Campers Inn RV of Merrimack, NH",35 Robert Milligan Parkway,Merrimack,New Hampshire,03054
"Campers Inn RV of Minot, ND",3000 14th Ave SW,Minot,North Dakota,58701
"Campers Inn RV of Mocksville, NC",462 Interstate Dr.,Mocksville,North Carolina,27028
"Campers Inn RV of Myrtle Beach, SC",5837 South Kings Highway,Myrtle Beach,South Carolina,29575
"Campers Inn RV of Naperville, IL",9740 South Route 59,Naperville,Illinois,60564
"Campers Inn RV of Ocala, FL",7677 US 441,Ocala,Florida,34480
"Campers Inn RV of Philadelphia, PA",1651 Bethlehem Pike,Hatfield,Pennsylvania,19440
"Campers Inn RV of Pittsburgh, PA",1580 SR 65 South,Ellwood City,Pennsylvania,16117
"Campers Inn RV of Raleigh, NC",1501 Outlet Center Drive,Selma,North Carolina,27576
"Campers Inn RV of Raynham, MA",Rt 44 720 Church St.,Raynham,Massachusetts,02767
"Campers Inn RV of Richfield, WI",3284 Pioneer Rd.,Richfield,Wisconsin,53076
Campers Inn RV of Richmond Hill,250 Longwood Drive,Richmond Hill,Georgia,31324
Campers Inn RV of St. Augustine,2305 SR 16,Saint Augustine,Florida,32084
"Campers Inn RV of Toms River, NJ",2175 Route 9,Toms River,New Jersey,08701
"Campers Inn RV of Troy, OH",3500 S Co Rd 25A,Troy,Ohio,45373
"Campers Inn RV of Tucker, GA",1825 Tucker Industrial Rd.,Tucker,Georgia,30084
"Campers Inn RV of Union, CT",2 Mashapaug Rd.,Union,Connecticut,06076
Campervan North America,166 Briar Place,Belgrade,Montana,59714
Campinawe,110 W 3rd St,Bonner Springs,Kansas,66012
Candy's Family RV - Murfreesboro,4358 Shelbyville Pike,Murfreesboro,Tennessee,37127
Candy's Family RV - Scottsville,5905 Veterans Memorial HWY,Scottsville,Kentucky,42164
Carefree RV,4510-51 Ave NW,Edmonton,Alberta,T6B2W2
Carizona,1600 W. Main St,Mesa,Arizona,85201
Carmart South Sales,9201 Oak Ridge Hwy,Knoxville,Tennessee,37830
Carolina Coach & Camper,3300 Centennial Blvd.,Claremont,North Carolina,28610
Carolina RV,4722 S. Kings Hwy,Mrytle Beach,South Carolina,29575
Carson Pass RV,19226 Hwy 88,Lockeford,California,95237
Casa Grande RV Sales,5944 N. Pinal Ave,Casa Grande,Arizona,85122
Cascade RV,13320 Southwest Pacific Highway,Tigard,Oregon,97223
Casita Travel Trailers,5029 SE McKinney,Rice,Texas,75155
Cassone's RV,3032 E. Main St,Mesa,Arizona,85213
Castle Country RV - Helper,4732 N Hwy 6,Helper,Utah,84526
Castle Country RV - Logan,2015 N Main St.,Logan,Utah,84341
Cedar City RV,1102 Sparta Pike,Lebanon,Tennessee,37087
Centennial RV,2429 Highway 6 and 50,Grand Junction,Colorado,81505
Centerline RV Ltd.,4015 Mayor Magrath Dr. S,Lethbridge,Alberta,T1K 6Y7
Central Auto & RV Sales ,1311 Barstow,Clovis,California,93612
Central Florida Bus & Auto,2101 East Main,Lakeland,Florida,33801
Central Florida RV Center    ,2476 South Orange Blossom Trail,Apopka,Florida,32703
Central NH Trailers,612 Rt 106 N,Loudon,New Hampshire,03307
Central RV,2324 E Logan St,Ottawa,Kansas,66067
Chase Auto & RV,980 N Deadwood St.,Fort Pierre,South Dakota,57532
Clarks RV Center,1824 Alabama River Parkway,Millbrook,Alabama,36054
Classic Auto Mall,6180 Morgantown Rd.,Morgantown,Pennsylvania,19543
Classic Vans,25700 Mission Blvd,Hayward,California,94544
Clay's RV,207 Franklin Drive,West Monroe,Louisiana,71292
Clay's RV Sales,1260 South 500 West,Salt Lake City,Utah,84101
Clearwater Motorcoach,4455 Ulmerton Rd,Clearwater,Florida,33762
Cleveland RV,6287 129 S,Cleveland,Georgia,30528
Clickit RV - Milton-Freewater,53816 W Crockett Rd,Milton-Freewater,Oregon,97862
Clickit RV - Moses Lake,12976 N Frontage Rd,Moses Lake,Washington,99218
Clickit RV - Spokane,10606 N Newport Hwy,Spokane,Washington,99218
Clickit RV - Tri-Cities,3203 W. Marie St.,Pasco,Washington,99301
CMC Truck & RV,1724 Sidney Baker,Kerrville,Texas,78028
Coastal RV Center,6075 Savannah Hwy,Ravenel,South Carolina,29470
Cobb & Son RV,1706 Hwy 280 Bypass,Phenix City,Alabama,36867
Colaw RV Sales,10389 Cimarron Road,Carthage,Missouri,64836
Colerain Family RV - Cincinnati,3491 Struble Rd.,Cincinnati,Ohio,45251
Colerain Family RV - Columbus,5742 East State Route 37,Delaware,Ohio,43015
Colerain Family RV - Fort Wayne,3360 East Lincoln Way,Columbia City,Indiana,46725
Colerain Family RV - Indianapolis,5701 Elmwood Ave,Indianapolis,Indiana,46203
Colerain Family RV - New Carlisle,1775 S. Dayton Lakeview Rd.,New Carlisle,Ohio,45344
Collier RV Lake County,16125 Russell Road,Russell,Illinois,60075
Collier RV Super Center,7373 Harrison Ave,Rockford,Illinois,61112
Colman's Country Campers,#2 Fun Street,Hartford,Illinois,62048
Colman's RV,4600 Rising Moon Rd,Springfield,Illinois,62711
Colonia Del Rey RV,1122 South Padre Island Dr.,Corpus Christi,Texas,78416
Colonial Airstream & RV,595 State Route 33,Millstone Township,New Jersey,08535
Commonwealth RV,423 S Washington Hwy,Ashland,Virginia,23005
Como RV,1601 W. Main Street,Inverness,Florida,34450
Compass RV,500-D South Cumberland Street,Lebanon,Tennessee,37087
Conejo Wholesale Auto & RV,661 East Thousand Oaks Blvd,Thousand Oaks,California,91360
Consignment Group,,Hawthorne,Florida,32640
Consignment RV Sales,10385 Blackberry Road I-44 exit 22,Carthage,Missouri,64836
Copley's RV,9795 South US 1,Hobe Sound,Florida,33455
Cordelia RV Center,4850 Auto Plaza Ct,Fairfield,California,94534
Country Roads RV Center,2609 Enterprise Rd.,Lexington,North Carolina,27295
Country Tyme RV Center,4700 N IH-35,Georgetown,Texas,78626
"CountrySide RV Sales, LLC",9179 South US Hwy. 25,Corbin,Kentucky,40701
Cousins RV - Colorado Springs,3204 E Platte Ave,Colorado Springs,Colorado,80909
Cousins RV - Longmont,10683 W I-25 Frontage Rd,Longmont,Colorado,80537
Cousins RV - Loveland,900 E. Hwy 402,Loveland,Colorado,80537
Cousins RV - Wheat Ridge,4100 Youngfield St.,Wheat Ridge,Colorado,80033
Coyote RV Rentals & Sales,1203 E Thompson Blvd,Ventura,California,93001
Craig Smith RV Center,315 Gelsanliter Road,Galion,Ohio,44833
Crandell Motor Sports,7833 N Interstate 35 Service Rd,Denton,Texas,76207
"Cricket Mini Golf Carts, Inc.","506 Fentress Blvd, Suite R",Daytona Beach,Florida,32114
Cross RV Sales,1960 E 025 N,Lagrange,Indiana,46761
"Crossroads Trailer Sales, Inc.",1230 Harding Hwy,Newfield,New Jersey,08344
Crowley RV Center,9 Barber St.,Bristol,Connecticut,06010
Cruise America - Bay Area,5623 John Muir Dr.,Newark,California,94560
Cruise America - Denver,8950 N. Federal Blvd.,Federal Heights,Colorado,80260
Cruise America - Everett,12201 Highway 99 South,Everett,Washington,98204
Cruise America - Kissimmee,2915 N. Orange Blossom Tr.,Kissimmee,Florida,34744
Cruise America - Las Vegas,551 N Gibson Rd.,Las Vegas,Nevada,89011
Cruise America - Los Angeles,2233 E 223rd Street,Carson,California,90810
Cruise America - Manassas,8000 Wellingford Drive,Manassas,Virginia,20109
Cruise America - Mesa,11 West Hampton Ave.,Mesa,Arizona,85210
Cruise America - Salt Lake City,4125 South State Street,Salt Lake City,Utah,84107
CS Auto & RV,320 Winningham Road,St. George,South Carolina,29477
Cue's RV Sales,2501 W Whittier Blvd,La Habra,California,90631
Curtis Trailers - Beaverton,21525 TV Highway,Aloha,Oregon,97006
Curtis Trailers - Portland,10177 SE Powell Blvd,Portland,Oregon,97266
Custom RV Inc,10400 E Interstate 40,Amarillo,Texas,79118
Custom RV Inc. Sales and Service,21722 Verne Ave.,Hawaiian Gardens,California,90716
Custom Truck Accessories,3212 S. Carson Street,Carson City,Nevada,89701
D&D RV,3376 US E.,West Alexandria,Ohio,45381
D&D RV Center,806 Stanley Street,Helena,Montana,59601
D&H RV & Marine,31 Jordan Lake Commons Dr,Apex,North Carolina,27523
D&H Truck Camper Emporium,14476 Duval Place West,Jacksonville,Florida,32218
Dad's Camper Outlet - Gulfport,14101 Highway 49,Gulfport,Mississippi,39503
Dad's Camper Outlet - Hattiesburg,9271 US-98,Sumrall,Mississippi,39482
Dad's Camper Outlet - Lucedale,6172 HWY 63 South,Lucedale,Mississippi,39452
Dad's Camper Outlet - Picayune, 1380 South Haugh Ave,Picayune,Mississippi,39466
Day Bros RV Sales,3054 South Laurel Road,London,Kentucky,40744
"Day's RV/Auto Sales, LLC",1180 HWY 770,Corbin,Kentucky,40701
DC Storage & RV Services,4114 Ransom St,Hudsonville,Michigan,49426
DDRV - Boise,6560 West Targee St,Boise,Idaho,83709
DDRV - Southern California,5400 Garden Grove Blvd,Westminster,California,92683
Del Air Co. & R.V.,2334 Pollex Ave,Corpus Christi,Texas,78415
DeMartini RV Sales,625 Idaho-Maryland Rd.,Grass Valley,California,95945
Desert Life RV,840 W. Main St.,Quartzsite,Arizona,85346
Discount RV Inc.,10197 Riverford Road,Lakeside,California,92040
Discover RV,5860 West Banner St.,Lodi,California,95242
DRIFTER VANS,46903 HOUGHTON DR,Shelby twp,Michigan,48315
Duke's RV,614 S Market St,Lancaster,South Carolina,29720
Dunlap Family RV - Bowling Green,321 Corvette Drive,Bowling Green,Kentucky,42101
Dunlap Family RV - Knoxville,4214 Airport Hwy,Louisville,Tennessee,37777
Dunlap Family RV - Nashville,1010 Safari Camp Rd.,Lebanon,Tennessee,37087
Dunlap Family RV - Ringgold,360 Industrial Blvd.,Ringgold,Georgia,30736
"Durham Trailer Ranch, Inc",104 Dennis Road,Weatherford,Texas,76087
e4 Services Inc,7233 Spring CT,Boulder,Colorado,80303
Eagle's Pride RV Sales,98 Plantation Dr.,Titusville,Florida,32780
East Coast RV Specialists,7011 Lincoln Highway,Bedford,Pennsylvania,15522
El Monte RV - Dallas,3500 S. Central Expressway,McKinney,Texas,75070
El Monte RV - Dublin,6301 Scarlett Court,Dublin,California,94568
El Monte RV - Las Vegas,3800 Boulder Hwy,Las Vegas,Nevada,89121
El Monte RV - Orlando,3800 W Colonial Dr,Orlando,Florida,32808
El Monte RV - San Bernardino,565 E. Redlands Blvd.,San Bernardino,California,92408
El Monte RV - Santa Fe Springs,12818 Firestone Blvd.,Santa Fe Springs,California,90670
El Monte RV - Van Nuys,6323 Sepulveda Blvd.,Van Nuys,California,91411
Eldorado RV & Marine,11361 State Highway 56,Sherman,Texas,75090
Endless Roads RV,4977 HWY 23,Only,Tennessee,37140
Epic RV Liquidators,10130 Hwy 41,Madera,California,93636
Evans & Son RV,323 West Illinois St.,Petersburg,Indiana,47567
Expedition Motor Homes,23981 Craftsman Rd.,Calabasas,California,91302
Explore USA RV Supercenter - Beaumont,21833 I-10 ,Vidor,Texas,77662
Explore USA RV Supercenter - Beaumont North,1000 Highway 327 E,Silsbee,Texas,77656
Explore USA RV Supercenter - Boerne,31001 IH-10 W,Boerne,Texas,78006
Explore USA RV Supercenter - Canton,22719 IH-20,Canton,Texas,75169
Explore USA RV Supercenter - Corpus Christi,8045 IH 37,Corpus Christi,Texas,78409
Explore USA RV Supercenter - Dallas,4300 IH 30,Mesquite,Texas,75150
Explore USA RV Supercenter - Denton,4001 S. IH-35 East,Denton,Texas,76210
Explore USA RV Supercenter - Fort Worth,10600 South Freeway,Fort Worth,Texas,76140
Explore USA RV Supercenter - Houston,23538 West State Highway 6,Alvin,Texas,77511
Explore USA RV Supercenter - Katy,27809 Katy Freeway,Katy,Texas,77494
Explore USA RV Supercenter - Kyle,21320 IH-35,Kyle,Texas,78640
Explore USA RV Supercenter - Rockport,302 W Market St,Rockport,Texas,78382
Explore USA RV Supercenter - San Antonio,3115 SW Loop 410,San Antonio,Texas,78227
Explore USA RV Supercenter - Seguin,3654 IH-10 West,Seguin,Texas,78155
Explore USA RV Supercenter - Tyler,10926 US Hwy 69 N,Tyler,Texas,75706
EZ Camp RV Rentals and Sales,9300 County Rd.,Clarence,New York,14032
Factory Direct Marine & RV - Americus,1501 Felder Street,Americus,Georgia,31709
Factory Direct Marine & RV - Rockwood,2475 Westel Rd,Rockwood,Tennessee,37854
Factory Direct Marine & RV - Russiaville ,250 S West St,Russiaville ,Indiana,46979
Family RV,4935 Commercial St SE,Salem,Oregon,97302
Family RV,19380 Monterey Rd,Morgan Hill,California,95037
Family RV Center,1410 NW Georgia,Sweetwater,Texas,79556
FB Trailers,1076 Blanding Blvd.,Orange park,Florida,32065
Findlay Truck and RV Sales,1333 W Trenton Ave,Findlay,Ohio,45840
Florida RV Sales & Service,6895 State Road 60 West,Mulberry,Florida,33860
Florida RVs LLC,2060 US Hwy 441 S,Dublin,Georgia,31021
Floyd's Recreational Vehicle - Glenpool,17000 US-75,Glenpool,Oklahoma,74033
Floyd's Recreational Vehicle - Norman,912 N. Adkins Hill Rd.,Norman,Oklahoma,73072
Folsom Lake RV,11373 Folsom Blvd,Rancho Cordova,California,95742
Fountain Hills RV - Since 1997,11813 N. Saguaro Blvd.,Fountain Hills ,Arizona,85268
Fourwinds RV - East Peoria,3104 N. Main Street,East Peoria,Illinois,61611
Fourwinds RV - Maroa,15277 N. Wood Street,Maroa,Illinois,61756
Frank Risech's Autoworld,2042 Queenswood Drive,Tallahassee,Florida,32303
Freedom RV,3735 E. Irvington Rd,Tucson,Arizona,85714
Full Service Storage ,3490 W 1820 S,Salt Lake City,Utah,84104
Fuller RV,150 Shrewsbury St. Route 140,Boylston,Massachusetts,01505
Fun Town RV - Anna,1450 East Vienna Street,Anna,Illinois,62906
Fun Town RV at Winstar,11321 River Ridge Rd.,Thackerville,Oklahoma,73459
Fun Town RV Cleburne,2200 U.S. 67 East Business,Cleburne,Texas,76031
Fun Town RV Conroe,1505 Porter Rd,Conroe,Texas,77301
Fun Town RV Corsicana,3301 Corsicana Crossing Blvd,Corsicana,Texas,75109
Fun Town RV Dallas,2315 Interstate 30 ,Rockwall,Texas,75087
Fun Town RV Denton,7201 Interstate 35,Denton,Texas,76201
Fun Town RV Giddings,1906 W Austin St,Giddings,Texas,78942
Fun Town RV Houston,6767 US Hwy 59,Wharton,Texas,77488
Fun Town RV Orange,7415 Texas 62,Orange,Texas,77632
Fun Town RV San Angelo,1524 S. Bryant Blvd,San Angelo,Texas,76905
Fun Town RV Tyler,1212 S. Pacific St,Mineola,Texas,75773
Fun Town RV Waco,777 Enterprise Blvd,Waco,Texas,76643
Funtime RV - Klamath Falls,1405 Crater Lake Pkwy,Klamath Falls,Oregon,97603
Funtime RV - Sandy,38415 Proctor Blvd.,Sandy,Oregon,97055
Funtime RV - Tualatin,18605 SW Pacific Dr.,Tualatin,Oregon,97062
Gabriel Racing Inc.,170 Prescott st,Worcester,Massachusetts,01605
Gag's Camper Way,55151 210th Lane,Mankato,Minnesota,56001
Galaxy Campers,1033 West Holt Blvd.,Ontario,California,91762
Gansen Auto & RV Sales Inc.,104 E. Main,Riceville,Iowa,50466
Gatesville RV Service & Sales,225 W. Hwy 36 Bypass North,Gatesville,Texas,76528
General RV - Birch Run,12410 Dixie Hwy,Birch Run,Michigan,48415
General RV - Brownstown,17277 Racho Rd.,Brownstown,Michigan,48192
General RV - Chicago/Huntley,14000 Automall Dr.,Huntley,Illinois,60142
General RV - Clarkston,8665 Dixie Hwy,Clarkston,Michigan,48348
General RV - Elizabethtown,187 Merts Dr,Elizabethtown,Pennsylvania,17022
General RV - Jacksonville,1577 Wells Rd.,Orange Park,Florida,32073
General RV - Mt. Clemens,24583 N. River Rd.,Mt. Clemens,Michigan,48043
General RV - North Canton,3063 Greensburg Rd.,North Canton,Ohio,44720
General RV - Ocala,13150 SW 16th Ave,Ocala,Florida,34473
General RV - Richmond,12195 Harley Club Dr.,Ashland,Virginia,23005
General RV - Salt Lake City/Draper,14295 Minuteman Dr.,Salt Lake City,Utah,84020
General RV - Tampa,13396 E US Hwy 92,Dover,Florida,33527
General RV - West Michigan / Wayland,476 Reno Dr.,Wayland,Michigan,49348
General RV - Wixom,25000 Assembly Park Drive,Wixom,Michigan,48393
Genuine RV Store,2824 N.W. Stallings Drive,Nacogdoches,Texas,75964
Gerton Auto Sales,1335 E. 4th Street,Mount Vernon,Indiana,47620
Gerzeny's RV World - Bradenton,6120 S. R. 64 East,Bradenton,Florida,34208
Gerzeny's RV World - Fort Myers,5600 Enterprise Parkway,Fort Myers,Florida,33905
Gerzeny's RV World - Lakeland,940 Lakeland Park Center Drive,Lakeland,Florida,33809
Gerzeny's RV World - Nokomis,2110 N. Tamiami Trail,Nokomis,Florida,34275
Giant Recreation World - Daytona,280 Destination Daytona Lane,Ormond,Florida,32174
Giant Recreation World - Palm Bay,1355 Culver Drive NE,Palm Bay ,Florida,32907
Giant Recreation World - Winter Garden,13906 W Colonial Drive,Winter Garden,Florida,34787
Giant RV - Colton,1300 E. Santo Antonio Drive,Colton,California,92324
Giant RV - Downey,11111 Florence Ave,Downey,California,90241
Giant RV - Montclair,9150 Benson Ave,Montclair,California,91763
Giant RV - Murrieta,24700 Madison Avenue,Murrieta,California,92562
Giant RV - Storage Location,,Rancho Cucamonga,California,91730
Gib's RV Superstore,1845 Ocean Blvd NW,Coos Bay,Oregon,97420
Gina's Motorsports RV,25963 S Governors Hwy,Monee,Illinois,60449
"Glades RV, LLC",9300 Cloverleaf Court,Fort myers,Florida,33912
Gold Country RV,2855 Grass Valley Hwy,Auburn,California,95603
Good Life RV - Des Moines,602 East Hwy 92,Bevington,Iowa,50033
Good Life RV - Webster City,301 Closz Drive,Webster City,Iowa,50595
GQC Auto Sales,1605 East Baseline St.,San Bernardino,California,92410
Great Escapes RV Mountain Home,5750 Hwy 62W,Gassville,Arkansas,72635
Great Escapes RV Springfield,1099 E Evergreen St,Strafford,Missouri,65757
Great Escapes RV St. Louis,18155 Historic Rte 66,Eureka,Missouri,63025
Grove RV & Leisure,100 Saint Matthews Avenue,Spruce Grove,Alberta,T7X 3B4
Gull Boats & RV,2601 W. Broadway,Missoula,Montana,59808
Halesford Harbour Marine and RV,1089 Promised Land Road,Moneta,Virginia,24121
Halterman's RV,16520 Smokey Point Blvd,Arlington,Washington,98223
Hamilton's RV Outlet,1580 Tittabawassee Rd,Saginaw,Michigan,48604
Happy Campers RV Sales & Service,510 Veterans Memorial Pkwy E,Lafayette,Indiana,47905
Happy RV Life,5800 Boulder Highway,Las Vegas,Nevada,89122
Harper Camperland Great Bend,1200 E 10th ,Great Bend,Kansas,67530
Harper Camperland Park City,8550 N Harmon Arena Dr,Valley Center,Kansas,67147
Harrison RV,1200 North Elm Street,Jefferson,Iowa,50129
Haskell RV Center,635 County Rd 208,Haskell,Texas,79521
Havird Services LLC,630 Shackleburg Road,Anderson,South Carolina,29621
HelpSellMyRV.com,P.O. Box 1053 ,Jeffersonville,Indiana,47131
HelpSellRV LLC,10317 E. Apache Trail,Apache Junction,Arizona,85120
Heritage RV,"1227 N Fourth St, PO Box 219",Tomahawk,Wisconsin,54487
Hidden Mill RV ,7660 Black Horse Pike,Hammonton,New Jersey,08037
High River Autoplex & RV,102-24 Street SE,High River,Alberta,T1V 0B3
Holiday RV Sales & Service,1903 N Mulberry St,Jefferson,Iowa,50129
Holland Motor Homes,670 E 16th St.,Holland,Michigan,49423
Holland RV Centers - Palm Desert,77840 Varner Road,Palm Desert,California,92211
Holland RV Centers - San Marcos,251 Travelers Way,San Marcos,California,92069
Holland RV Centers - Santee,"11510 Woodside Avenue, Suite H",Santee,California,92071
Hometown RV, 110 E. North Ave,Carol Stream,Illinois,60188
Horizon RV Center Inc,7678 Hwy 70 W,La Grange,North Carolina,28551
Hufnagel & Majors Trailer Sales,265 Perry Hwy ,Harmony,Pennsylvania,16037
I-35 RV Center,4901 N. I-35,Denton,Texas,76207
I15 RV,11854 Mariposa Rd.,Hesperia,California,92345
Independence RV,12705 W. Colonial Drive,Orlando-Winter Garden,Florida,34787
Integrity RV,2323 East Main St,Mesa,Arizona,85213
J & J RV,14802 US Hwy 19 N,Hudson,Florida,34667
J.K. Mitchell Inc,308 N. Central Ave,Casey,Illinois,62420
Jacobs RVs,303 2nd St.,Saint Paul,Nebraska,68873
Jasper's RV,1333 Fontana Blvd.,Hazleton,Iowa,50641
Jerry's Camping Center,4506 E. Broadway,Madison,Wisconsin,53716
Jerry's Trailers & Campers,2601 South 13th St,Norfolk,Nebraska,68701
Jim Clark's Consignment Country,1630 Rouge River Hwy.,Grants Pass,Oregon,97527
JLH Coachworks,182 Emerson Circle,Rossville,Georgia,30741
Joe Curcio Auto Sales Inc.,4411 SE 53rd Ave,Ocala,Florida,34480
Joe's Campers,2417 S Broadway St,New Ulm,Minnesota,56073
John Doe's RV Paradise - Gotham,101,Kelowna,British Columbia,V1Y 9T1
Johns RV Sales and Service,165 Business Park Drive,Lexington,South Carolina,29072
Johnson RV - Fife,4105 Pacific Highway East,Fife,Washington,98424
Johnson RV - Gilroy,7900 Arroyo Cir.,Gilroy,California,95020
Johnson RV - Medford,2840 Crater Lake Hwy,Medford,Oregon,97504
Johnson RV - Sandy,41777 SE Hwy 26,Sandy,Oregon,97055
Josh McHugh,,West Phoenix,Arizona,85351
Jubilee RV Centre,1302 B Salish Road,Kamloops,British Columbia,V2H 1J9
Kamper Korner RV,1121 Maynard Way,Dewitt,Iowa,52742
KARV,16972 Palm Drive.,Desert Hot Springs,California,92240
Kay's RV,2107 W US Hwy 66,Moriaty,New Mexico,87035
Kenai Coach, 325 East 6th Ave,Junction City,Oregon,97448
Kennedale Camper Sales,429 W. Kennedale Pkwy.,Kennedale,Texas,76060
Kent Mitchell RV Sales - Hammond,45073 durbin rd,hammond,Louisiana,70401
Keystone RV Mega Center,15799 S. Young Rd,Greencastle,Pennsylvania,17225
Kirkland RV Sales,13111 Hwy 99 S,Everett,Washington,98204
Kitsap RV,1216 Bay St.,Port Orchard,Washington,98366
Kline's RV,2001 E 13 Mile Rd,Warren,Michigan,48092
Krenek RV Center,6542 Ryno,Coloma,Michigan,49038
Kris Willis RV,1108 North Outer Rd.,Dexter,Missouri,63841
Kuhn Truck & RV,240 OH 18 ,Sherwood,Ohio,43556
Kunes RV Destination,6131 Green Valley Rd,Neenah,Wisconsin,54956
Kunes RV Elkhorn ,9 Deere Road,Elkhorn,Wisconsin,53121
Kunes RV Fox Valley,2615 W American Dr.,Neenah,Wisconsin,54956
Kunes RV Freedom,825 Addison Rd.,Slinger,Wisconsin,53086
Kunes RV Green Bay,1751 Wildwood Drive,Suamico,Wisconsin,54173
Kunes RV La Crescent,1570 US Hwy.14-61 E,La Crescent,Minnesota,55947
Kunes RV LaCrosse,306 N Holmen Dr,Holmen,Wisconsin,54636
Kunes RV Lake Mills ,W7419 Country Road V,Lake Mills,Wisconsin,53551
Kunes RV Monmouth,1121 N.6th St,Monmouth,Illinois,61462
Kunes RV Sheboygan North,14369 Westview Rd.,Cleveland,Wisconsin,53015
Kunes RV Sheboygan South,8120 S. Frontage Rd.,Sheboygan,Wisconsin,53081
Kunes RV Sterling,2502 Locust St,Sterling,Illinois,61081
Kunes RV Stoughton,1431 US-51,Stoughton,Wisconsin,53589
Kunes RV Wisconsin Rapids,8410 State HWY 13,Wisconsin Rapids,Wisconsin,54494
La Mesa RV - Albuquerque,401 Cordero Mesa Drive NW,Albuquerque,New Mexico,87120
La Mesa RV - Ft Myers,9650 Kelly Tractor Drive,Ft. Myers,Florida,33905
La Mesa RV - Mesa,1740 South Mesa Drive,Mesa,Arizona,85210
La Mesa RV - Phoenix,7525 W. Mcdowell Rd,Phoenix,Arizona,85035
La Mesa RV - Port St. Lucie,8650 NW LTC Pkwy,Port St. Lucie,Florida,34986
La Mesa RV - Sacramento,1060 Riverside Parkway,West Sacramento,California,95605
La Mesa RV - San Diego,7430 Copley Park Place,San Diego,California,92111
La Mesa RV - Sanford,4441 Orange Blvd,Sanford,Florida,32771
La Mesa RV - Tucson,3255 East Irvington Road,Tucson,Arizona,85714
LA RV Center,1220 South Victory Blvd,Burbank,California,91502
Lake Country RV,2902 NE Hudson Rd.,Rogers,Arkansas,72756
Lake Tawakoni RV Center,301 E Hwy 276,West Tawakoni,Texas,75474
Lakeshore RV,4500 E. Apple Ave.,Muskegon,Michigan,49442
Lakeshore RV Sales,3404 US Hwy 92 East,Lakeland,Florida,33801
Lassen RV,1103 Price Rd. SE,Albany,Oregon,97322
Lazydays RV at The Villages,4505 Monaco Way,Wildwood,Florida,34785
Lazydays RV of Chicagoland,1171 Lions Drive,Burns Harbor,Indiana,46304
Lazydays RV of Denver,3640 Chambers Road,Aurora,Colorado,80011
Lazydays RV of Elkhart,1301 E. Sanford School Road,Elkhart,Indiana,46514
Lazydays RV of Houston,20103 Stokes Road,Waller,Texas,77484
Lazydays RV of Knoxville,835 Huckleberry Springs Road,Knoxville,Tennessee,37924
Lazydays RV of Loveland,4777 Marketplace Drive,Johnstown,Colorado,80534
Lazydays RV of Maryville,4037 Airport Hwy,Knoxville,Tennessee,37777
Lazydays RV of Milwaukee,390 S. Sylvania Avenue,Sturtevant,Wisconsin,53177
Lazydays RV of Minneapolis,3939 Chelsea Rd.,Monticello,Minnesota,55362
Lazydays RV of Nashville,1005 Beasie Rd.,Murfreesboro,Tennessee,37128
Lazydays RV of Phoenix - Mesa,2260 E. Main St,Mesa,Arizona,85213
Lazydays RV of Portland,16803 SE McLoughlin,Portland,Oregon,97267
Lazydays RV of Ramsey,8390 Highway 10 NW,Ramsey,Minnesota,55303
Lazydays RV of Tampa,6130 Lazy Days Boulevard,Seffner,Florida,33584
Lazydays RV of Tucson,3200 East Irvington Road,Tucson,Arizona,85714
Lazydays RV of Tulsa,24655 S Highway 66,Claremore ,Oklahoma,74017
Lazydays RV of Vancouver,1986 Atlantic Ave Woodland,Woodland,Washington,97267
Lee's Auto & RV Ranch,171 West Road Rte 83,Ellington ,Connecticut,06029
Legacy Coach Inc.,1750 E. Insterstate 30,Rockwall,Texas,75087
Legacy Outdoor,2906 Island Avenue,La Grande,Oregon,97850
Legacy Recreational Vehicles,1315 Althoff Ave,Effingham,Illinois,62401
Legacy RV Center,3711 S. State St.,Salt Lake City,Utah,84115
Legacy RV St. Louis,7072 Raider Road,Bonne Terre,Missouri,63628
Lemke RV - Citrus Heights,7650 Sunrise Blvd.,Citrus Heights,California,95610
Lemke RV - Rocklin,4410 Granite Drive,Rocklin,California,95677
Lewis RV,4640 Linden Ave.,Dayton,Ohio,45432
Liberty Outdoors,,Uniontown,Ohio,44685
Lichtsinn RV,505 Highway 9 East,Forest City,Iowa,50436
Lifestyle RV,9490 S Virginia St.,Reno ,Nevada,89511
Lifestyle RVs,1100 NW Pamela Blvd.,Grain Valley,Missouri,64029
Link RV Center,660 Hokah Street,Minong,Wisconsin,54859
"Little Dealer Little Prices - Mesa, AZ",2038 N. Country Club Dr.,Mesa,Arizona,85201
"Little Dealer Little Prices - Phoenix, AZ",2350 W Deer Valley Rd.,Phoenix,Arizona,85027
Little Dealer Little Prices - Prescott Valley ,2757 North Truwood Dr.,Prescott Valley,Arizona,86314
Lonestar RV Liquidators,6620 Storm Cat Ln,Burleson,Texas,76028
Long View RV Superstores,27 Lawnacre Road,Windsor Locks,Connecticut,06096
LongHaul Trailer Sales,1150 Wallace Ave North,Listowel,Ontario,N4W 1M5
Lowry's RV Center,3510 Hwy 180 E.,Silver City,New Mexico,88061
Lubbock Auto Inc.,8709 Hwy 87,Lubbock,Texas,79423
Luxury Auto Collection,"9160 EAST DEL CAMINO DR, B4",Scottsdale,Arizona,85260
Luxury Coach Sales & Service,1629 Cascade Drive,Marion,Ohio,43302
Luxury RV's of Arizona,2661 E. Main St,Mesa,Arizona,85213
M & K Sport Coach,1401 Harding Ct,Indianapolis,Indiana,46217
M&J's RV Sales,20638 Treetop Lane,Spring,Texas,77388
"Ma & Pa RV, LLC",9609 Central Ave NE,Albuquerque,New Mexico,87123
Mada Motorhomes Brokerage Inc,,Fort Myers,Florida,33901
Magic Touch RVs,3567 Oak Street,Tulare,California,93274
Magnum RV,15075 Kings Hwy,Montross,Virginia,22520
Major RV Sales,13774 Main St.,Hesperia,California,92345
Manteca Trailer & Motorhome,204 S. Vasconcellos Avenue,Manteca,California,95336
Maple Grove RV,13000 Hwy 99 ,Everett,Washington,98204
Marathon Coach,91333 Coburg Industrial Way,Coburg,Oregon,97408
Marathon Coach,11623 Corporate Lake Blvd.,San Antonio,Florida,33576
Marathon Coach,1175 Post and Paddock Lane,Grand Prairie,Texas,75050
Marion RV,8273 W Interstate 10,Seguin,Texas,78155
Marlin Ingram RV,4504 Troy Highway,Montgomery,Alabama,36116
Mason Motors,2453 East Main St.,Mesa,Arizona,85213
Mattas Marine & RV,2308 Highway 6 and 50,Grand Junction,Colorado,81505
McClain's RV Superstore - Denton,5601 S I-35E Exit 460,Corinth,Texas,76210
McClain's RV Superstore - Ft. Worth,10100 South Freeway,Ft. Worth,Texas,76140
McClain's RV Superstore - Longhorn,13037 Interstate 35,Sanger,Texas,76266
McClain's RV Superstore - Oklahoma City,"I - 40W, Exit 143",Oklahoma City,Oklahoma,73127
McClain's RV Superstore - Rockwall,"I - 30E, Exit 73",Rockwall,Texas,75087
McKee RV,400 1st St.,Perry,Iowa,50220
McKeever RV & Marine,451 New Highway 68,Sweetwater,Tennessee,37874
Meridian RV - Port Coquitlam,1690 Coast Meridian Rd.,Port Coquitlam,British Columbia,V3C 3T8
Mesquite Ford Lincoln & RV,76 Auto Mall Circle,Mesquite,Nevada,89027
Metro RV,160 W Olive Ave,Burbank,California,91502
Meyer's Bay RV,1005 Pulaski Hwy,Joppa,Maryland,21085
Meyer's Mentor RV,145 RW Parkway,Madison,Ohio,44057
Meyer's RV Superstore - Mt Morris,102 Free Soil Road,Mount Morris,Pennsylvania,15349
Meyer's RV Superstores - Apollo,4616 PA-66 #8512,Apollo,Pennsylvania,15613
Meyer's RV Superstores - Bath,500 West Morris St.,Bath,New York,14810
Meyer's RV Superstores - Branchville,109 US-206,Branchville,New Jersey,07826
Meyer's RV Superstores - Farmington,6200 NY-96,Farmington,New York,14425
Meyer's RV Superstores - Harrisburg,7301 Allentown Blvd.,Harrisburg,Pennsylvania,17112
Meyer's RV Superstores - Rochester,3342 State Rd.,Caledonia,New York,14423
Meyer's RV Superstores - Syracuse,8575 Brewerton Rd.,Cicero,New York,13039
Michigan RV Broker USA,7540 Whitmore Lake Rd,Brighton,Michigan,48116
Mid America RV,5439 S Garrison,Carthage,Missouri,64836
Mid-State RV,131 Peachtree Parkway,Byron,Georgia,31008
Midtown RV,310 Industrial Ave. W.,Penticton,British Columbia,V2A 9B3
Midway Auto & RV,1547 US Hwy 212S,Laurel,Montana,59044
Midway RV Center,5590 Division Avenue South,Grand Rapids,Michigan,49548
Midwest Motors & More ,2500 2nd Avenue North ,Moorhead,Minnesota,56560
Midwest RV Center,6200 Heimos Industrial Park Drive,St. Louis,Missouri,63129
"Midwest RV, LLC",3332 Nebraska Rd.,Ottawa,Kansas,66067
Mig RV & Marine,650 S Main St,Bellefontaine,Ohio,43311
Mike Thompson's RV Super Stores - Cathedral City,68318 Palm Canyon (Hwy 111),Cathedral City,California,92234
Mike Thompson's RV Super Stores - Colton,902 RV Center Drive,Colton,California,92324
Mike Thompson's RV Super Stores - Fountain Valley,18240 Ward St,Fountain Valley,California,92708
Mike Thompson's RV Super Stores - Santa Fe Springs,13940 E. Firestone Blvd,Santa Fe Springs,California,90670
Mile High Wholesale Motorhomes,,Denver,Colorado,80004
Miles RV Center,6056 Ashville Hwy,Hendersonville,North Carolina,28791
Millennium Luxury Coaches,1601 Dolgner Place,Sanford,Florida,32771
Millers RV,12912 Florida Blvd,Baton Rouge,Louisiana,70815
Millers Service Center Inc.,1990 Horseshoe Pike,Honey Brook,Pennsylvania,19344
Modern Coachworks,1700 West Main Street,Mesa,Arizona,85203
Moffitt's RV,819 SE Marshall St.,Boone,Iowa,50036
Monaco Montreal,"13500, Henri-Fabri",Mirabel,Quebec,J7N 0A6
Motor Home Specialist,5411 S I-35W,Alvarado,Texas,76009
Motorhome Finders,,Dade City,Florida,
Motorhomes 2 Go,7303 Division Ave S,Grand Rapids,Michigan,49548
Motorhomes of California - Santa Ana,1415 N. Harbor Blvd.,Santa Ana,California,92703
Mount Comfort RV,5935 West 225 North,Greenfield,Indiana,46140
Mr. Motorhome,9517 E Stockton Blvd,Elk Grove,California,95624
National Indoor RV Centers NIRVC.com - AZ,11280 N Solar Canyon Way,Surprise,Arizona,85379
National Indoor RV Centers NIRVC.com - DC,9515 Contractors Court,Manassas,Virginia,20109
National Indoor RV Centers NIRVC.com - GA,1350 Hurricane Shoals RD NE,Lawrenceville,Georgia,30043
National Indoor RV Centers NIRVC.com - NV,4640 Nexus Way,North Las Vegas,Nevada,89115
National Indoor RV Centers NIRVC.com - TN,1205 Bridgestone Pkwy,La Vergne,Tennessee,37086
National Indoor RV Centers NIRVC.com - TX,498 E. State Hwy. 121,Lewisville,Texas,75057
National RV Detroit ,44700 N I-94 Service Dr.,Belleville,Michigan,48111
National Vehicle,4819 South 107th Ave,Omaha,Nebraska,68127
Nelson RV,4060 N. Flowing Wells Rd.,Tucson,Arizona,85705
Nichols RV & Truck Center,2900 Kurt St.,Eustis,Florida,32726
Niemeyers Trailer Sales - Albertville,10176 65th St. NE,Albertville,Minnesota,55301
Niemeyers Trailer Sales - Elko,10405 E 260th St.,Elko,Minnesota,55020
"No Reins Equine, LLC",2262 E. C 478,Webster,Florida,33597
Nohr's RV Center,2450 Toste Rd,Tracy,California,95377
North Bay Ford & RV,1999 Soquel Avenue,Santa Cruz,California,95062
North Trail RV Center,5270 Orange River Blvd,Fort Myers,Florida,33905
Northern Michigan RV,277 Expressway Crt.,Gaylord,Michigan,49735
Northern RV Center,W 7081 Hwy US 2,Quinnesec,Michigan,49876
Northgate RV Center - Alcoa,3332 Wrights Ferry Road,Louisville,Tennessee,37777
Northgate RV Center - Ringgold,442 Candy Lane,Ringgold,Georgia,30736
Northside Family RV,1630 N Broadway,Lexington,Kentucky,40505
NTS RV,23687 IH 10,Rose City,Texas,77662
NW Adventure Rentals,7321 E Nora Ave.,Spokane valley,Washington,99212
NW Boat & RV,12802 E. Indiana Ave.,Spokane,Washington,99216
Ocean Breeze RV,121 Lafayette Road,North Hampton,New Hampshire,03862
Olstrom Custom Coach LLC,8300 E VALENCIA RD UNIT 4,Tucson,Arizona,85747
Olympia Luxury Coaches,4228 Northstar Dr,Murfreesboro,Tennessee,37129
Opelika RV Center,6752 Hwy. 280 East,Opelika,Alabama,36804
Open Roads Complete RV - Acworth,316 Northpoint Pkwy,Acworth,Georgia,30102
Open Roads Complete RV - Jasper,1050 GA 515,Jasper,Georgia,30143
Open Roads Complete RV - White,3003 US-411,White,Georgia,30184
Optimum RV - Bushnell,2540 W CR 48,Bushnell,Florida,33513
Optimum RV - Corpus Christi,4460 US-77 Business,Robstown,Texas,78380
Optimum RV - Muskegon,3555 East Apple Ave ,Muskegon,Michigan,49442
Optimum RV - Ocala,7400 S. US Hwy 441,Ocala,Florida,34480
Optimum RV - Philadelphia,1809 W High St.,Pottstown,Pennsylvania,19464
Optimum RV - Spartanburg,9600 Asheville Hwy,Inman,South Carolina,29349
Optimum RV - Titusville,2764 US-1 S,Mims,Florida,32754
Optimum RV - Zephyrhills,3334 Paul S. Buchman Hwy,Zephyrhills,Florida,33540
Orange County Motors,2045 Placentia Ave #B,Costa Mesa,California,92627
Orangewood RV Center,11449 W. Bell Road,Surprise,Arizona,85374
Oregon West RV,83319 Hoagland Lane.,Creswell,Oregon,97426
Ottawa Camping Trailers,4815 Bank Street South,Ottawa,Ontario,K1X 1G6
Outlet Recreation - Clearwater,2088 202nd ST E,Clearwater,Minnesota,55320
Outlet Recreation - Crosslake,31956 Country Road 3,Crosslake,Minnesota,56442
Outlet Recreation - Detroit Lakes,1015 Highway 59 S,Detroit Lakes,Minnesota,56501
Owasco RV Centre,570 Rundle Road,Clarington,Ontario,L1E 0L4
Paradise Coach/Paradise RV,1333 47th Ave,Sweet Home,Oregon,97386
Paradise RV Sales & Rentals,7960 DORCHESTER RD STE B,North Charleston,South Carolina,29418
Paradise RV's,138 Colt Industrial Dr,Mount Hope,West Virginia,25880
Park Model Homes,15813 E Sprague,Spokane,Washington,99212
Parkview RV Center,5511 DuPont Parkway,Smyrna,Delaware,19977
Parkway RV Center,5568 Battlefield Parkway,Ringgold,Georgia,30736
Parris RV Murray North,4360 South State Street,Murray,Utah,84107
Parris RV Murray South,5545 South State,Murray,Utah,84107
Parris RV Payson,425 East 920 North,Payson,Utah,84651
Parris RV Pocatello,5240 Yellowstone Ave,Chubbuck,Idaho,82302
Paul's Trailer & RV Center,3213 Mill Road,Morrison,Wisconsin,54126
Pedata Resales Inc,4933 S. Outlet Center Dr.,Tucson ,Arizona,85706
Performance RV Sales,5468 Cristland Hill Rd.,Thornville,Ohio,43076
Petite Auto & RV,38251 N Sheridan RD,Beach Park,Illinois,60087
Pharr RVs,320 N Loop 289,Lubbock,Texas,79403
Phillips RV,1400 Locke Drive,Bourbonnais,Illinois,60914
Pierce RV Supercenter - Billings,3800 Pierce Parkway,Billings,Montana,59106
Pierce RV Supercenter - Great Falls,4200 10th Avenue South,Great Falls,Montana,59405
Pine Acres RV,80 Commerce St.,Moncton,New Brunswick,E1H 0A5
Pink Flamingo RV,83407 Hwy 111 Suite 2,Indio,California,92201
Planet RV,2051 Griffin Road,Dania Beach,Florida,33312
Pontiac RV,15481 E. 2000 N. Rd./  Interstate 55 @Rt23 Exit#201,Pontiac,Illinois,61764
Pop RVs,5717 Bessie Drive,Sarasota,Florida,34233
Porter's R.V.s,971 S. Broadway,Coos Bay,Oregon,97420
Porter's RV Sales,10 Red Fox Blvd.,Williamston,South Carolina,29697
Poulsbo RV - Everett,12218 Highway 99 S,Everett,Washington,98204
Poulsbo RV - Fife,2950 Pacific Hwy E,Fife,Washington,98424
Poulsbo RV - Kent,23051 Military Rd. South,Kent,Washington,98032
Poulsbo RV - Mt. Vernon,510 Eleanor Lane,Mount Vernon,Washington,98273
Poulsbo RV - Sumner, 2006 136th Avenue East,Sumner,Washington,98390
Premier RV,11145 E US Hwy 24,Falcon,Colorado,80831
Premium and Exotic Wholesale,5109 N STATE ROAD 37 BUSINESS ,Bloomington,Indiana,47404
Premium Coach Group ,378 S Hamilton Court,Gilbert,Arizona,85233
PRO RV,1809 John McCain Rd.,Colleyville,Texas,76034
Public Wholesale,7508 Deering Ave,Canoga Park,California,91303
Quality Motor Coach,2091 Sprint Blvd,Apopka,Florida,32703
Quality RV,309 E. Valley Drive,Linn Creek,Missouri,65052
R.V. Kountry,5236 Orange River Blvd,Fort Myers,Florida,33905
R.V. World Inc.,14900 US Highway 19 North,Clearwater,Florida,33764
Range RV,11626 Mariposa Road,Hesperia,California,92345
Ray's RV Sales & Service,4500 W. Ramsey St,Banning,California,92220
Re-Fleet,,Lincoln Park,New Jersey,07035
Recreation RV Sales LLC,12771 South Minuteman DR,Draper,Utah,84020
Recreation USA,1801 Hwy 9W,Longs,South Carolina,29568
Recreation USA - Myrtle Beach,5031 Dick Pond Rd,Myrtle Beach,South Carolina,29588
Red 10 RV,1920 Glenn Street,Norfolk,Nebraska,68701
Reed's Trailer Sales,5500 Old Redwood Hwy,Petaluma,California,94954
Register RV Center,14240 Cortez Blvd.,Brooksville,Florida,34613
Rendel RV,2400 S.W. McKinney St,Rice,Texas,75155
"RentForFun RV Rentals, Repair, Parts & Sales",814 Rising Sun Dr,Nampa,Idaho,83686
Rialta Heaven,31650 Dunlap Blvd,Yucaipa,California,92399
Richards Boat & RV Center,45500 23rd St. West,Lancaster,California,93536
Ride Now RV Motors,5001 Two Notch RD,Colombia,South Carolina,29204
Ridge Quality Motors,23598 US Hwy 27,Lake Wales,Florida,33859
Right Side Up RV Sales,1515 South 400 West,Salt Lake City,Utah,84115
Riley's RV World,2018 State Route 45 North,Mayfield,Kentucky,42066
River City RV,1581 Redwood Ave.,Grants Pass,Oregon,97527
Robert Crist & Company,2025 East Main Street,Mesa,Arizona,85213
Robinson Motorsports,406 16th St Ste 104B,Ramona,California,92065
Rocky's Auto & RV,1001 East Slaton Rd,Lubbock,Texas,79404
Ron Hoover RV & Marine,4500 S I-35,Georgetown,Texas,78626
Ronnie Bock's Kerrville RV,1600 Sidney Baker,Kerrville,Texas,78028
Roy Robinson RV Center,15855 Smokey Point Boulevard,Marysville,Washington,98271
Royal RV & Auto Center,14441 US HWY 20 ,Middlebury,Indiana,46540
Ruff's RV Center,140 Blackbrook Road,Painesville Twp,Ohio,44077
RV Arizona Consignment Specialists,12495 NW Grand Ave,El Mirage,Arizona,85335
RV Canada - Ottawa,2098 Prince of Wales Drive,Ottawa,Ontario,K2E 7A5
RV Center Montana,490 Alaska Frontage Rd,Belgrade,Montana,59714
RV City,2095 N State Highway 90,Huachuca City,Arizona,85616
RV City,18925 I-30,Benton,Arkansas,72015
RV Connections - Dothan,4281 South Oates St.,Dothan,Alabama,36301
RV Connections Super Center ,3926 East 15th St,Panama City,Florida,32404
RV Depot,4319 N Main St,Cleburne,Texas,76033
RV Direct America,1012 S Hopkins Ave,Titusville,Florida,32780
RV Dynasty,10001 S US Highway 31,Bunker Hill,Indiana,46914
RV Kountry - North Fort Myers,1660 North Tamiami Trail,North Fort Myers,Florida,33903
RV Leaders & Camping Outlet,555 Edna Rd #264,Adamsburg,Pennsylvania,15611
RV Liquidation Center,984 W Shaw Ave,Clovis,California,93612
RV One Superstores Albany,48 Rensselaer Ave,Latham,New York,12110
RV One Superstores Atlanta North,4707 Friendship Rd,Buford,Georgia,30519
RV One Superstores Auburn Hills,2375 N Opdyke Rd,Auburn Hills,Michigan,48326
RV One Superstores Buffalo,1200 Southwestern Blvd.,West Seneca,New York,14224
RV One Superstores Charleston,691 Treeland Drive,Ladson,South Carolina,29456
RV One Superstores Charlotte,5051 Davidson Hwy,Concord,North Carolina,28027
RV One Superstores Connecticut,201 S Main Street,Newtown,Connecticut,06470
RV One Superstores Des Moines,1400 Northridge Circle,Altoona,Iowa,50009
RV One Superstores Fleetwood,14035 Kutztown Rd,Fleetwood ,Pennsylvania,19522
RV One Superstores Fort Myers,16065 S Tamiami Trail,Fort Myers,Florida,33908
RV One Superstores Gainesville,12380 NW US Hwy 441,Alachua,Florida,32615
RV One Superstores Greensboro,8510 Norcross Rd.,Colfax,North Carolina,27235
RV One Superstores Jacksonville,8281 Merrill Road,Jacksonville,Florida,32277
RV One Superstores Midland,1983 East Airport Road,Midland,Michigan,48642
RV One Superstores Myrtle Beach,5500 S Kings Highway #17,Myrtle Beach,South Carolina,29575
RV One Superstores New Hampshire,2060 Dover Road,Epsom,New Hampshire,03234
RV One Superstores Orlando,485 SR 436,Casselberry,Florida,32707
RV One Superstores Raleigh,805 Old Roberts Rd.,Benson,North Carolina,27504
RV One Superstores Sarasota,6914 S. Tamiami Trial,Sarasota,Florida,34231
RV One Superstores St. Augustine,6775 US 1 South,St. Augustine,Florida,32086
RV One Superstores Tampa,4656 McIntosh Rd.,Dover,Florida,33527
RV One Superstores Vermont,1498 US Route 2,East Montpellier,Vermont,05651
RV Outlet USA,2049 Highway 9 West,Longs (North Myrtle Beach),South Carolina,29568
RV Outlet USA,4170 South Boston Hwy.,Ringgold (Danville),Virginia,24586
RV Ready ,17999 Collier Ave,Lake Elsinore,California,92530
RV Resources,,Fort Myers,Florida,33907
RV Roadway - Calera,1405 Highway 87,Calera,Alabama,35040
RV Roadway - Opelika,1201 S Foxrun Parkway,Opelika,Alabama,36801
RV Sales of New Mexico,2109 West US Rte 66,Moriarty,New Mexico,87035
RV Specialist Goshen,1905 Ardmore Court,Goshen,Indiana,46526
RV Station - Bryan/College Station,4520 State Highway 6 South ,College Station,Texas,77845
RV Station - Colbert/Dallas,411 Sherrard Street,Colbert,Oklahoma,74733
RV Station - Donna,214 W Expressway 83,Donna,Texas,78537
RV Station - Houston/Cleveland,870 Hwy 59 South,Cleveland,Texas,77327
RV Station - Katy,27725 Katy Freeway,Katy,Texas,77494
RV Station - Nacogdoches,1104 NW Stallings Drive,Nacogdoches,Texas,75964
RV Station - Tyler,11020 US Hwy 69 N ,Tyler,Texas,75706
RV Station - Victoria,1945 Garcitas Creek Rd,Inez,Texas,77968
RV Station - Waco,11031 South I-35,Lorena,Texas,76655
RV SuperCenter,27941 Jefferson Ave.,Temecula,California,92590
RV Swap Shop,14400 S. US Highway 441,Summerfield,Florida,34491
RV Value Mart - Bath,7514 Beth Bath Pike,Bath,Pennsylvania,18014
RV Value Mart - Lititz,647 East 28th Div Hwy,Lititz,Pennsylvania,17543
RV Value Mart - Manheim,3152 Lebanon Rd ,Manheim ,Pennsylvania,17545
RV Value Mart - Willow Street,47 Lancaster Pike N,Willow Street,Pennsylvania,18014
RV Warehouse,615 N Back River Road,Hampton,Virginia,23669
RV Wheelator,,Tucson,Arizona,85745
RV Wholesale Superstore,5080 West Alexis Road,Sylvania,Ohio,43560
RV World,7405 US Hwy 10,Ramsey,Minnesota,55303
RV World LLC ,925 Lone Tree Ln ,Nunn ,Colorado,80648
RV's and More LLC,1203 West Lake Hamilton Drive,Winter Haven,Florida,33881
RVAZ Corral,3350 E Main St.,Mesa,Arizona,85213
RVMAX.US,By appointment Only Please!,Greenville,South Carolina,29607
RVs For Less,8035 Rutledge Pike,Knoxville,Tennessee,37924
RVs of America,2995 W 600 N,Lindon,Utah,84042
RVs of America - South Carolina ,233 E Victor Hill Rd,Duncan,South Carolina,29334
RVâs 4 You,19231 Sycamore Glen Dr,Trabuco Canyon,California,92679
Ryan's RV Town,12715 Hwy 99 S,Everett,Washington,98204
S & M Wheelestate Sales,4044 Hwy 70 West,Princeton,North Carolina,27569
Safari RV,2747 Chamberland St,Rockland,Ontario,K4K 1B2
San Antonio RVs - Seguin,4144 IH-10 West,Seguin,Texas,78155
San Antonio RVs - Spring Branch,8383 Hwy 281 N,Spring Branch,Texas,78070
San Diego RV Center,9398 Bond Ave,El Cajon,California,92021
Santa Paula RV,126 Hallock Dr.,Santa Paula,California,93060
SCATT Recreation - Roseville,824 Atlantic St.,Roseville,California,95678
Scenic Roads RV Center,378 Expressway Dr,Manchester,Tennessee,37355
Scott's Recreation - Manchester,"746 Western Ave, Route 202",Manchester,Maine,04351
Scott's Recreation - Turner,2239 Auburn Rd.,Turner,Maine,04282
Scott's RV,115 SE Ellsworth Rd,Vancouver,Washington,98662
Second Chance RVs,1114 North Service Road,Union,Missouri,63084
Seguin RV,4040 IH 10 West,Seguin ,Texas,78155
Seven O's RV Sales,7917 Devaul Rd,Kirkville,New York,13082
Sewell Motor Coach,2118 Danville Rd,Harrodsburg,Kentucky,40330
SGH RV,13606 Hwy 8 Business,Lakeside,California,92040
Shabbona Creek RV,17982 E. 2350 St,Atkinson,Illinois,61235
Shady Maple RV,160 Ewell Rd,East Earl,Pennsylvania,17519
Shafer's Truck & RV Sales,3293 County Rd 10,Delta,Ohio,43515
Sharp Auto Sales,710 Tennessee Boulevard,Lebanon,Tennessee,37087
Show Me RV,148 NW HWY 7,Clinton,Missouri,64735
Sicard RV,7526 Regional Rd 20,Smithville,Ontario,L0R 2A0
Sierra RV,1010 S 1700 W,Marriott-Slaterville,Utah,84404
SLS Houston ,17701 Telge Rd,Cypress,Texas,77429
Smitty's Auto Sales & Leasing,1113 W Maumee Street,Angola,Indiana,46703
Sonny's Camp-N-Travel - Concord,304 Executive Park Dr.,Concord,North Carolina,28025
Sonny's Camp-N-Travel - Duncan,333 Frontage Rd,Duncan,South Carolina,29334
Sonny's RV,5000 East Yellowstone Hwy,Evansville,Wyoming,82636
Sonoma RV,8020 Old Redwood Highway,Cotati,California,94931
South Texas Camper-James,2800 Telephone Rd,Houston,Texas,77023
South Texas Camper-Tony,3600 Gulf Fwy,Lamarque,Texas,77568
South Texas RV,502 Southmore Ave,Pasadena,Texas,77502
Southaven RV & Marine,5645 Pepperchase Drive,Southaven,Mississippi,38671
Southern Marine & RV Sales,6061 Hamilton DR,Fort Myers,Florida,33905
Southland RV,1327 Lafayette Pkwy,LaGrange,Georgia,30241
Southland RV,1794 Bolton Circle,Norcross,Georgia,30071
Southwest Luxury Coach Sales,2432 W. Peoria Ave. Suite 1074,Phoenix,Arizona,85029
Specialty RV,1254 W Broadway Rd.,Mesa,Arizona,85202
Speedway Motors,726 E. Route 66,Glendora,California,91740
SportTruck RV - Arizona,1230 South Akimel Lane,Chandler,Arizona,85226
SportTruck RV - California,10150 Cherry Ave,Fontana,California,92335
Sprad's RV,10000 S Virginia St,Reno,Nevada,89511
Stagecoach RV Sales,2589 S Business 31,Peru,Indiana,46970
Stahmann Sales Company,2021 FM 78,Seguin,Texas,78155
Steinbring Motorcoach,7390 County Rd 82  ,Garfield,Minnesota,56332
Stellhorn RV & Camping Center,3116 West Boulevard,Kokomo,Indiana,46902
Steve's RVs,2095 Hwy 441S.,Dublin,Georgia,31021
Stoltzfus RV's & Marine,1335 Wilmington Pike,West Chester,Pennsylvania,19382
Stream RV,171 Village Ct,Creedmoor,North Carolina,27522
Summerland RV Center,1720 Wharf St.,Summerland,British Columbia,V0H 1Z9
Summit Adventures RV,10765 Turner Blvd.,Longmont,Colorado,80504
Sumner RV,4309 East Valley Hwy,Sumner,Washington,98390
Sun Camper RV - Fort Pierce,3462 N. US Hwy 1,Fort Pierce,Florida,34946
Sun Camper RV - Okeechobee,4558 US Hwy 441 SE,Okeechobee,Florida,34950
Sun City RV,9045 NW Grand Ave.,Peoria,Arizona,85345
Sun Valley RV,24114 PTH 3,Stanley,Manitoba,R6P 0A9
Sundance RV Center,50 Southeast Brewer Rd,Shelton,Washington,98584
Sunland Sales RV,4700 W Glendale Ave,Glendale,Arizona,85301
Sunny Island RV,3442 Merchandise Drive,Rockford,Illinois,61109
Sunnyside RV Sales & Service,4018 N. Expressway,Sunny Side,Georgia,30284
Sunrise RVs,1004 Koala Drive,Omak,Washington,98841
Sunset RV,1018 Elm St.,Forest Grove,Oregon,97116
Sunshine State RVs,3202 N Main St.,Gainesville,Florida,32609
Super Deals RV Inc. - Alabama,32 Bobo Lane,Anniston,Alabama,36207
Super Deals RV Inc. - Georgia,931 Carrollton Street,Temple,Georgia,30179
Superior RV,21351 US Hwy 431,Guntersville,Alabama,35976
Sylvan Lake RV,3 Erickson Drive,Sylvan Lake,Alberta,T4S 1P5
TAC RV Center,126 Caratoke Hwy. ,Moyock,North Carolina,27958
Terry's RV Center,20450 South La Grange Road,Frankfort,Illinois,60423
TerryTown RV Superstore,7145 S. Division Ave.,Grand Rapids,Michigan,49548
Texas Best RV,17760 Hwy 59 N,Houston,Texas,77396
Texas RV Guys,1128 Blue Mound Rd W Ste 100,Haslet,Texas,76052
Texas RV Outlet Superstore,5050 Frontage Rd South,Willow Park,Texas,76087
The Great Outdoors RV,11521 21st St.,Greeley,Colorado,80634
The Motorcoach Store,"3231 59th Drive East, Unit 102",Bradenton,Florida,34203
The Motorhome Brokers,710 Friar Tuck Lane,Salisbury,Maryland,21804
The RV Guys,13239 South Interstate 35,Valley view,Texas,76272
The RV Shop,14340 S. Choctaw Ext.,Baton Rouge,Louisiana,70819
Three T Motors,1175 Broadway,El Cajon,California,92021
Thurston Auto & RV Sales,13537 Granville Ave Suite 3,Clermont,Florida,34711
Tiara RV Sales,3260 Cassopolis St.,Elkhart,Indiana,46514
Tiger Adventure Vehicles,4837 Edmund Hwy,West columbia,South Carolina,29170
Tilbury Auto Sales & RV,20600 Regional Road 42,Tilbury,Ontario,N0P 2L0
Timber View RV Center,21730 S. La Grange Rd,Frankfort,Illinois,60423
Tom Lindstrom RV,500 W. Los Angelos Ave.,Moorpark,California,93021
Tom Stinnett's Campers Inn RV,520 Marriott Drive,Clarksville,Indiana,47129
Tom's Camperland - Mesa,1301 W. Broadway,Mesa,Arizona,85202
Tom's Camperland - Phoenix,10501 W Papago Fwy,Avondale,Arizona,85323
Tom's Camperland - Surprise,11611 West Bell Road,Surprise,Arizona,85378
Tom's Camperland - Tucson,5101 N La Canada DR,Tucson,Arizona,85704
Top Choice RV,4611 Spring Cypress Rd,Spring,Texas,77388
Topline RV and Marine,512 E Redlands Blvd,San Bernardino,California,92408
Toscano RV Center,2531 E. Pacheco,Los Banos,California,93635
Town & Country RV Center,909 W McPherson Hwy,Clyde,Ohio,43410
Trades OK Inc,90599 Coburg Rd,Coburg,Oregon,97408
Tradewinds Coach,1995 Edison Dr.,DeLand,Florida,32724
Tradewinds RV Center,4325 W Vienna Rd,Clio,Michigan,48420
Trailer Hitch RV,215 N Frontage Road,Nipomo,California,93444
"Trailer World Denver, LLC",7930 E Colfax Ave,Denver,Colorado,80220
Trailers of the East Coast,418 Interstate Dr.,Mocksville,North Carolina,27028
Travel Land RV Center,2424 W. Houghton Lake Dr,Houghton Lake,Michigan,48629
Travelcamp of Orange Park South,1150 Blanding Blvd,Orange Park,Florida,32065
Travelcamp RV of Atlanta,2539 N Expressway,Griffin,Georgia,30223
Travelcamp RV of Brooksville,15265 Cortez Blvd,Brooksville,Florida,34613
Travelcamp RV of Dallas,1212 N Stemmons Fwy,Lewisville,Texas,75067
Travelcamp RV of Greenville,2320 NE Greenville Blvd,Greenville,North Carolina,27858
Travelcamp RV of Jacksonville,9012 Beach Blvd,Jacksonville,Florida,32216
Travelcamp RV of Melbourne,1115 Sarno Rd,Melbourne,Florida,32935
Travelcamp RV of Ocala,"13866 S, US 441",Summerfield,Florida,34491
Travelcamp RV of Orange Park,7605 Blanding Blvd.,Jacksonville,Florida,32244
Travelcamp RV of Pinellas Park,8000 Park Blvd N,Pinellas Park,Florida,33781
Travelcamp RV of Rock Hill,982 N Anderson Rd,Rock Hill,South Carolina,29730
Travelcamp RV of Savannah,5918 Ogeechee Rd STE # 2,Savannah,Georgia,31419
Trawick Luxury Coaches,10600 E. Hurst Blvd,Fort Worth,Texas,76053
Ultimate Toys,Glendale Milford Rd,Cincinnati,Ohio,45140
US Remarketing,904 S Mohawk Dr,Erwin,Tennessee,37650
USA RV & Marine Inc.,951 N. Lake Havasu Avenue,Lake Havasu,Arizona,86403
Uwharrie RV,138 Highway 740 Bypass East,Albemarle,North Carolina,28001
Vacation To Go RVs,900 belton hwy,williamston,South Carolina,29697
Vacationland Inc,47W529 US Route 30,Big Rock,Illinois,60511
Van City RV - Colorado Springs,1426 Selix Grove,Colorado Springs,Colorado,80915
Van City RV - Missouri,3100 Telegraph Rd,St. Louis,Missouri,63125
Van City RV - Montana,3850 US 93 S.,Kalispell,Montana,59901
Van City RV - Nevada,6385 S. Arville St.,Las Vegas,Nevada,89118
Victory Lane Outdoors,1117 North Old Route 66,Litchfield,Illinois,62056
Village RV,12101 S US Hwy 441,Belleview,Florida,33420
Vogt RV Centers - Airstream,109 N. Chandler Dr.,Fort Worth,Texas,76111
Vogt RV Centers - Motorized,5301 Airport Freeway,Fort Worth,Texas,76117
Vogt RV Centers - Towable Center,5301 Airport Freeway,Fort Worth,Texas,76117
Voyager RV,9250 Hwy 97,Winfield,British Columbia,V4V 1P9
Vulcan Autoplex Marine & RV,517 Service Road North,Vulcan,Alberta,T0l 2B0
"Wagers Trailer Sales, Inc.",3282 Silverton Road NE,Salem,Oregon,97301
Waits RV Center,3954 Byron Drive,West Palm Beach,Florida,33404
Wally Boys RV,17643 N 25th Ave,Phoenix,Arizona,85023
Waterdog RV,3190 SE Dayton Bypass ,Dayton,Oregon,97114
Watertown Ford Chrysler,1600 9th Avenue SE,Watertown,South Dakota,57201
We Are Airstream,1375 S Arizona Avenue,Chandler,Arizona,85286
Welcome Back RV Outlet,4453 St Hwy 31 East,Athens,Texas,75752
West Coast Motorsports Of California,1551 W Park Ave,Redlands,California,92373
Wheels RV Sales,1358 W. Henri De Tonti Blvd,Springdale,Arkansas,72762
White Horse RV Center - Galloway,920 W. White Horse Pike (Rt. 30),Egg Harbor City,New Jersey,08215
Wildcat RV Sales,141 West Cumberland Gap Pkwy,Corbin,Kentucky,40701
Wilder RV,1011 Clark St.,Clinton,Missouri,64735
Wilkins RV - Bath,7520 State Rte 415,Bath,New York,14810
Wilkins RV - Rochester,111 S. Main St.,Churchville,New York,14428
Wilkins RV - Syracuse,8534 Brewerton Rd.,Cicero,New York,13039
Wilkins RV - Victor,7447 State Route 96,Victor,New York,14564
Winnebago Motor Homes,6841 Auburn Road,Rockford,Illinois,61101
Woodard RV,8907 Highway 22,Spruce Pine,Alabama,35585
Woody's Automotive Group,310 South Washington Street,Chillicothe,Missouri,64601
Woody's RV World - Abbotsford,2102 Peardonville Rd.,Abbotsford,British Columbia,V2T 6J8
Woody's RV World - Calgary,11700 - 29th Street SE,Calgary,Alberta,T2Z 3W9
Woody's RV World - Edmonton,14510 Mark Messier Trail NW,Edmonton,Alberta,T6V 1H5
Woody's RV World - Grande Prairie,14320 100 Street,Grande Prairie,Alberta,T8V 7C7
Woody's RV World - Leduc,8012 Sparrow Crescent,Leduc,Alberta,T9E 7G1
Woody's RV World - Red Deer,71 Burnt Park Drive,Red Deer,Alberta,T4P 0J7
Woody's RV World - Saskatoon,3630 Idylwyld Drive N,Saskatoon,Saskatchewan,S7L 6G3
World Wide RV,4660 E Main St.,Mesa,Arizona,85205
Xtreme Outdoors Boat & RV,596 Industrial Rd,Checotah,Oklahoma,74426
Xxiss Corp.,,Fort Lupton,Colorado,80621
Yonak's Inc,46293 Belmont Cent Rd,Belmont,Ohio,43718
"Ziegler's RV, Inc.",440 Lehigh St.,Allentown,Pennsylvania,18103
Zoomers RV of Illinois,3757 State Highway 148,Mulkeytown,Illinois,62865
Zoomers RV of Indiana,2503 E. State Rd. 524,Wabash,Indiana,46992
Zoomers RV of Iowa,210 S Spruce Dr,Lamoni,Iowa,50140
