name,address,city,state,zip,lat,lng,site
1000 Islands RV Centre,409 2,Gananoque,Ontario,K7G 2V4,44.336825,-76.120745,RVT
3R RV,7819 State Hwy 47,Union,Missouri,63084,38.4219,-91.019289,RVT
A & L RV Sales - Johnson City,4503 Bristol Hwy,Johnson City,Tennessee,37601,36.338162,-82.318108,RVT
A & L RV Sales - Murfreesboro,130 Capital Way,Christiana,Tennessee,37037,35.703083,-86.351238,RVT
A & L RV Sales - Sevierville,3269 Winfield Dunn Pkwy,Kodak,Tennessee,37764,35.970376,-83.616621,RVT
A & M RV Centre,6820 Arctic Blvd,Anchorage,Alaska,99518,61.159577,-149.884627,RVT
A Great Outdoor RV Center,23360 I-20 Frontage Rd,Canton,Texas,75169,32.703269,-95.994666,RVT
A to Z Motors,28908 Co Rd 87D,Winters,California,95694,38.568866,-122.079781,RVT
A to Z Motors-CA ,28908 Co Rd 87D,Winters,California,95694,38.568866,-122.079781,RVT
A to Z Motors-NC,975 Walnut St # 300F,Knightdale,North Carolina,27511,35.763414,-78.788528,RVT
A&M Services,1594 US-1,Kittrell,North Carolina,27544,36.19973,-78.446559,RVT
A.S. Levesque Inc.,430 Rue Couture,Ste-Helene,Quebec,J0H 1M0,45.780544,-72.751872,RVT
A1 Motors,2619 N Telegraph Rd,Monroe,Michigan,48162,41.960425,-83.429323,RVT
A1 RV Sales,2050 Glendale Ave,Sparks,Nevada,89431,39.540398,-119.749111,RVT
Aaron RV,959 Sayre Dr,Indianapolis,Indiana,46143,39.59586,-86.116319,RVT
ABC RV Sales,8103 Old Seward Hwy,Anchorage,Alaska,99518,61.159577,-149.884627,RVT
Abe Thompson I-70 RV Sales,1001 SW 1st St,Oak Grove,Missouri,64075,38.999631,-94.145273,RVT
Abel RV Center,1180 W Lake St,Bartlett,Illinois,60103,41.980546,-88.204761,RVT
Aberdeen RV,21191 US-45 ALT,Aberdeen,Mississippi,39730,33.843635,-88.565615,RVT
Aberdeen The RV Place,755 Rothesay Ave,Saint John,New Brunswick,E2H 2H6,45.3221944,-66.0239987,RVT
Access RV,550 S Redwood Rd,North Salt Lake City,Utah,84054,40.838866,-111.917284,RVT
Acres Outdoors,1800 US-59,Livingston,Texas,77351,30.717792,-94.817231,RVT
Acres RV,1800 US-59,Livingston,Texas,77351,30.717792,-94.817231,RVT
Action Trailers,4728 Egremont Dr,Strathroy,Ontario,N7G 3H3,43.004744,-81.608019,RVT
Admiralâ€™s Anchor RV,4000 Utica Pike,Jeffersonville,Indiana,47130,38.332696,-85.696419,RVT
Advance Camping Sales,6606 W Layton Ave,Milwaukee,Wisconsin,53220,42.965203,-87.991364,RVT
Advanced RV Repair LLC,Clifton Park,Clifton Park,New York,12065,42.852284,-73.785597,RVT
Adventure Auto & RV,3252 88th Ave,Zeeland,Michigan,49464,42.844801,-85.984794,RVT
Adventure Camper Sales,230 Victory Ln,Almo,Kentucky,42020,36.692634,-88.289872,RVT
Adventure Camper Sales in Kentucky,230 Victory Ln,Almo,Kentucky,42020,36.692634,-88.289872,RVT
Adventure Motors Marine & RV,238 Archimedes St,New Glasgow,Nova Scotia,B2H 2T9,45.5860077,-62.6448775,RVT
Adventure RV,299 Thompson Rd W,Waterford,Ontario,N0E 1Y0,42.934711,-80.292693,RVT
Adventure RV,11090 Chicory Ridge Way,Jefferson,Wisconsin,61073,42.423732,-88.993797,RVT
Adventure RV & Powersports of Hayward,15619 US Hwy 63,Hayward,Wisconsin,54843,46.023604,-91.293027,RVT
Adventure RV Center,1220 Main Ave W,West Fargo,North Dakota,58078,46.8625,-96.924088,RVT
Adventure Sales & Service,451 James Blvd,Gander,Newfoundland,A1V 1W8,48.963168,-54.626506,RVT
Adventure Sports Ltd.,802 Main St,Dartmouth,Nova Scotia,B2W 3V1,44.698206,-63.491365,RVT
Affinity RV - Prescott Valley,6850 AZ-69,Prescott Valley,Arizona,86314,34.62599,-112.306211,RVT
"Affordable RV Rentals, Inc.",9994 Hillview Rd,Callahan,Florida,95658,38.881183,-121.169014,RVT
Affordable RVs,768 Hickory Tree Rd,Welcome,North Carolina,27127,36.020708,-80.279817,RVT
Affordable Trailer Sales,Highway # 1 West,Regina,Saskatchewan,S4P 3C2,50.326449,-104.583516,RVT
Affordable Truck & RV,324 Redwood Hwy,Grants Pass,Oregon,97527,42.37114,-123.413622,RVT
After The Fact RV Center,5229 M-80,Kincheloe,Michigan,49788,46.265348,-84.465049,RVT
Airport Motor Homes,2327 Dundas St,London,Ontario,N5V 1R4,43.007794,-81.16487,RVT
Airstream of Mississippi,11063 US 49,Gulfport,Mississippi,39503,30.474612,-89.152878,RVT
Airstream of Utah,3131 W 2210 S,Salt Lake City,Utah,84119,40.700258,-111.946425,RVT
Airstream Of Virginia,10300 NorthLake Park Dr,Thornburg,Virginia,23005,37.759696,-77.48187,RVT
Akins Trailer Sales,640 OR-99E,Harrisburg,Oregon,97446,44.260727,-123.054648,RVT
Al's Trailer Mart Inc.,1234 Leonard St NW,Grand Rapids,Michigan,49504,42.981579,-85.7107,RVT
Al's Trailer Sales of Woodburn,1220 N Pacific Hwy,Woodburn,Oregon,97071,45.134191,-122.826487,RVT
Alan's RV Center,39494 133rd St,Bath,South Dakota,57427,45.480547,-98.318576,RVT
Alaska Recreational Rentals,241 N Aspen Dr,Soldotna,Alaska,99669,60.36015,-151.017884,RVT
Albany RV,48 Rensselaer Ave,Albany,New York,12110,42.750578,-73.776118,RVT
Alco Sports Inc.,2380 Mnt Masson,Laval,Quebec,H7B 0B2,45.6650126,-73.6344124,RVT
"Alec's Truck, Trailer & RV",17110 S Dixie Hwy,Miami,Florida,33157,25.606126,-80.343496,RVT
Alex RV,609 N Nokomis St,Alexandria,Minnesota,56308,45.878391,-95.386055,RVT
All Play Motor Sports Inc,240 N Frontage Rd,Centerville,Utah,84014,40.932087,-111.884033,RVT
All RV Needs - Medford North,3800 S Pacific Hwy,Medford,Oregon,97501,42.265992,-122.900842,RVT
All RV Needs - Medford South,3800 S Pacific Hwy,Medford,Oregon,97501,42.265992,-122.900842,RVT
All Seasons RV,9043 OH-14,Streetsboro,Ohio,44241,41.242586,-81.347721,RVT
All Star RV,137 Turbo Dr,Sherwood Park,Alberta,T8H 2J6,53.570997,-113.285306,RVT
All Stars RV,5989 Main St,Louviers,Colorado,80125,39.485069,-105.052316,RVT
All-Pro RV,1680 Freshley Ave NE,Alliance,Ohio,44601,40.918593,-81.128745,RVT
Allan Dale RVs & Trailers,3 Queens Dr,Red Deer,Alberta,T4P 0K1,52.29958,-113.821093,RVT
Allan Dale Trailers & RVs,11755 231 St,Edmonton,Alberta,T5S 2C5,53.541457,-113.712179,RVT
Allied Auto,4545 W Bethany Rd,North Little Rock,Arkansas,72117,34.769847,-92.145446,RVT
Alma Homes & Campers Ltd.,2657 Westville Rd,New Glasgow,Nova Scotia,B2H 5C6,45.631208,-62.690795,RVT
Almond RV,1165 Almond Boat Park Rd,Memphis,Tennessee,28713,35.373495,-83.495989,RVT
America's RV Superstore,1278 S Ferdon Blvd,Crestview,Florida,32536,30.763783,-86.591616,RVT
American Auto Brokers,10750 Iota Dr,San Antonio,Texas,78217,29.538074,-98.415198,RVT
American Auto:  RV Sales ,1915 Washington Blvd,Wilmington,North Carolina,45714,39.316984,-81.614345,RVT
American Dream Vacations,10777 S Hwy 183,Austin,Texas,78747,30.126966,-97.739969,RVT
American Dream Vacations,1519 E Expressway 83,Mission,Texas,78572,26.229223,-98.37545,RVT
"American River RV, Inc",5060 Chiles Rd,Davis,California,95618,38.543211,-121.6815,RVT
American RV Wholesalers,530 N Main St,Corona,California,43331,40.517943,-83.921643,RVT
AMU Services,16046 Old Greensboro Rd,Moundvile,Alabama,35474,32.940566,-87.5912,RVT
AMV Trading LLC,2606 N Ventura Ave,Ventura,California,93001,34.03734,-119.800786,RVT
Anderson RV Center ,5050 SW Topeka Blvd,Topeka,Kansas,66609,38.978236,-95.660737,RVT
Anthem RV & Boat Outlet Center - Phoenix,44019 N Black Canyon Hwy,Phoenix,Arizona,85087,33.924598,-112.126882,RVT
Anthem RV & Boat Outlet Center - Sun City,10801 Grand Ave,Sun City,Arizona,85351,33.605791,-112.28406,RVT
Anthony RV,Next to Wet-N-Wild,Anthony,Texas,79821,31.980053,-106.598777,RVT
Apollo Camper - Las Vegas,5837 Boulder Hwy,Las Vegas,Nevada,89122,36.106432,-115.040286,RVT
Apollo Camper - Los Angeles,13820 Hawthorne Blvd,Hawthorne,California,90250,33.914775,-118.348083,RVT
Apollo Camper - San Francisco,14273 Washington Ave,San Leandro,California,94578,37.706137,-122.12555,RVT
Appleway RV,19605 E Cataldo Ave,Spokane Valley,Washington,99016,47.597285,-117.121042,RVT
Archer RV,10711 Southwest Fwy,Houston,Texas,77074,29.687947,-95.515725,RVT
Arctic RV,3013 Peger Rd,Fairbanks,Alaska,99709,64.862968,-148.164072,RVT
Arizona Classic Car Sales,2010 W Parkside Ln #118,Phoenix,Arizona,85027,33.679761,-112.092529,RVT
Arizona Northwest RV,4050 Stockton Hill Rd,Kingman,Arizona,86409,35.461006,-114.01806,RVT
Arizona Route 66 RVs,11840 W Rte 66 Suite A,Bellemont,Arizona,86015,35.231565,-111.84021,RVT
Arizona RV Supercenter,256 E Main St,Mesa,Arizona,85201,33.433545,-111.8504,RVT
Arrkann Trailer - Calgary,729 Highfield Gate,Calgary,Alberta,T0M 0N0,51.5654144287109,-114.104629516602,RVT
Arrkann Trailer - Carstairs,729 Highfield Gate,Carstairs,Alberta,T0M 0N0,51.5654144287109,-114.104629516602,RVT
Arrkann Trailer - Edmonton,1904 80 Ave NW,Edmonton,Alberta,T6P 1N2,53.516194,-113.372852,RVT
Arrkann Trailer - Edmonton North,1904 80 Ave NW,Edmonton,Alberta,T6P 1N2,53.516194,-113.372852,RVT
Arrkann Trailer - Medicine Hat,1153 Trans Canada Way S E,Medicine Hat,Alberta,T1B 1H9,50.002724,-110.652532,RVT
Arrotta's AutoMax RV,6623 N Division St,Spokane,Washington,99208,47.788172,-117.480897,RVT
Arrow RV Sales,2892 Gulf to Bay Blvd,Clearwater,Florida,33759,27.975284,-82.701482,RVT
"Arrowhead Camper Sales, Inc.",2574 KY-58 East,Mayfield,Kentucky,42066,36.732532,-88.639882,RVT
Arrowhead RV,438 Alan Rd,Powell,Wyoming,82435,44.810459,-108.915036,RVT
Arrowhead RV Sales,2574 KY-58 East,Marianna,Florida,42066,36.732532,-88.639882,RVT
Art's RV Sales & Service,21W700 North Ave,Glendale Heights,Illinois,60137,41.865213,-88.061479,RVT
Artic RV & Interior Topper,3013 Peger Rd,Fairbanks,Alaska,99709,64.862968,-148.164072,RVT
Ashley Chevrolet & Cadillac,145 Willow Ave,Honesdale,Pennsylvania,18431,41.61651,-75.257698,RVT
Athens RV Sales,4031 TX-31,Athens,Texas,75752,32.244008,-95.807608,RVT
Atkins RV,6144 Corunna Rd,Flint,Michigan,48532,43.011068,-83.794875,RVT
Atlanta Classic Cars,1705 Boggs Rd NW,Duluth,Georgia,30096,33.974292,-84.145426,RVT
Atlantic Motor Company Inc,5261 US-431,Albertville,Alabama,35950,34.24975,-86.261097,RVT
Atwood Trailer,5071 New Cumberland Rd NE,Mineral City,Ohio,44656,40.569013,-81.334817,RVT
Augusta RV,405 Kesco Dr,Bristol,Indiana,46507,41.720973,-85.818067,RVT
Ault's Motorhome Rentals Inc.,360 Travelers Rd,York,Pennsylvania,16637,40.341102,-78.467242,RVT
Auto & RV Center,38251 N Sheridan Rd,Beach Park,Illinois,60087,42.403085,-87.850836,RVT
Auto Boss Inc RV Sales,7921 E Main St,Mesa,Arizona,85207,33.454586,-111.637972,RVT
Autobest Motors,3234 SE Powell Blvd,Portland,Oregon,97202,45.482541,-122.643935,RVT
Autoland Outlets,13156 Love Rd,Roscoe,Illinois,61073,42.423732,-88.993797,RVT
AutoMarine Inc.,1821 Old US Hwy 1,Fort Pierce,Florida,34946,27.503294,-80.36048,RVT
Automotion Motors & RV,7225 Dallas Dr,Kamloops,British Columbia,V2C 4S9,50.663144,-120.133158,RVT
Automotive Management Services Inc,7600 SE Johnson Creek Blvd,Milwaukie ,Oregon,97206,45.482433,-122.598605,RVT
Autoplex Recreation Inc.,3037 Rue Principale,Tiacadie-Sheila,New Brunswick,E1X 1A2,47.545259,-64.915615,RVT
AutoSource Motors,2023 S 625 W,Woods Cross,Utah,84087,40.884929,-111.932247,RVT
Avalon RV,1604 Medina Rd,Medina,Ohio,44256,41.139872,-81.860559,RVT
Avenue Sales,1620 Quarry Rd,Floyd,Iowa,50435,43.158039,-92.767049,RVT
"B & D Motors, Inc.",885 Main St,Margaretville,New York,12455,42.140733,-74.659478,RVT
B & J Trailer Sales & Service,362 County Road 2,Belle River,Ontario,N0R 1A0,42.290315,-82.728973,RVT
B & K RV Sales,83407 CA-111,Indio,California,92201,33.710984,-116.204844,RVT
B & L RV of Sacramento,11 Quinta Ct,Sacramento,California,95823,38.474099,-121.443454,RVT
B&B RV,21715 NE 72nd Ave,Battle Ground,Washington,98604,45.805747,-122.510777,RVT
"B&B RV, Inc.",8101 E 40th Ave,Denver,Colorado,80207,39.762298,-104.916613,RVT
B&D RV Center,1570 US-40,Vernal,Utah,84078,40.627601,-109.480061,RVT
B-K Trailer & RV Sales,2115 2nd Loop Rd,Florence,South Carolina,29501,34.205933,-79.82626,RVT
"Babrich Motors & RV, LLC",1200 N Superior Ave,Tomah,Wisconsin,54660,43.982544,-90.494405,RVT
Back Country RV,1402 38th Ave E,Meridian,Mississippi,39301,32.273648,-88.580363,RVT
BaissLine RV,9610 E,Tampa,Florida,33610,27.998214,-82.378016,RVT
Baldyga RV,104 W State St,Springfield,Massachusetts,01033,42.244949,-72.500143,RVT
Balzannas RV Store,805 Main St,Delta,Pennsylvania,17314,39.755506,-76.326301,RVT
Bama RV,5276 Montgomery Hwy,Dothan,Alabama,36303,31.266568,-85.401317,RVT
Banning RV,2424 W Ramsey St,Banning,California,92220,33.948948,-116.832362,RVT
Bannister Cadillac Buick GMC - Kelowna,2727 BC-97,Kelowna,British Columbia,V1X 4J8,49.901196,-119.408961,RVT
Bannister Chevrolet Buick GMC - Edson,214 58 St,Edson,Alberta,T7E 1R8,53.573725,-116.457782,RVT
Bannister Chevrolet Buick GMC - Vernon,4703 27 St,Vernon,British Columbia,V1T 4Y8,50.278883,-119.266684,RVT
Bannister Honda,6425 BC-97,Vernon,British Columbia,V1B 3R4,50.30333,-119.251529,RVT
Barrett RV & Rentals,674 Quaker Rd,Queensbury,New York,12804,43.340954,-73.685911,RVT
Barrington Motor Sales RV,3825 Commerce Dr,Bartlett,Illinois,60174,41.930652,-88.298614,RVT
"Basden's American RV, Inc.",600 E Baseline Rd,Evansville,Indiana,47725,38.106329,-87.524939,RVT
Bates RV - Tampa 1,4656 McIntosh Rd,Dover,Florida,33527,27.973749,-82.212806,RVT
Bates RV - Tampa 2,1018 US-41 BYP,Dover,Florida,34285,27.094564,-82.440895,RVT
Bates RV - Tampa 3,1018 US-41 BYP,Dover,Florida,34285,27.094564,-82.440895,RVT
Battlefield RV Sales & Sports Center,1958 Emmitsburg Rd,Gettysburg,Pennsylvania,17325,39.826258,-77.227606,RVT
Bay RV Sales,34397 US-98,Lillian,Alabama,36549,30.410999,-87.455589,RVT
Bay RV Supercenter,1800 Barksdale Blvd,Clearwater,Florida,71111,32.572857,-93.696982,RVT
Baydo's RV of Chehalis,296 SW Interstate Ave,Chehalis,Washington,98532,46.62629,-123.052671,RVT
BCRV Sales Inc,40990 Yale Road West,Chilliwack,British Columbia,V2R 4J2,49.125724,-122.090323,RVT
BCRV Sales Inc.,40990 Yale Road West,Chilliwack,British Columbia,V2R 4J2,49.125724,-122.090323,RVT
BDR RV,4480 Pacific St STE B,Rocklin,California,95677,38.791075,-121.234854,RVT
Beach Express Autoplex ,20550 Oakdale Dr,Robertsdale,Alabama,36567,30.623536,-87.55696,RVT
Beach Roamer,1555 NJ-37 Suite 4,Tom's River,New Jersey,08755,40.008533,-74.221768,RVT
Bear Creek RV ,17481 Raystown Rd,James creek,Pennsylvania,16657,40.324864,-78.180282,RVT
Beaver Coach Sales & Service,62955 Boyd Acres Rd,Bend,Oregon,97701,44.112338,-121.20634,RVT
"Beaver Motors, Inc",19689 US-522,Beaver springs,Pennsylvania,17812,40.740534,-77.22791,RVT
Beckleys Camping Center,11109 Angleberger Rd,Thurmont,Maryland,21788,39.589979,-77.413861,RVT
"Beggs RV Center, LLC",3063 Greensburg Rd,Canton,Ohio,44720,40.903454,-81.433282,RVT
Beilstein's RV & Auto,7165 Hwy Mm,Palmyra,Missouri,63461,39.790536,-91.568855,RVT
Belistein Camper Sales,28248 327th Ave,La Grange,Missouri,63448,40.024661,-91.557038,RVT
Bell's RV,Fouke,Fouke,Arkansas,71837,33.254898,-93.845308,RVT
Bellingham RV Land,3939 Bennett Dr,Bellingham,Washington,98225,48.75094,-122.501286,RVT
Bemidji Total RV Center,602 S Railroad St SE,Bemidji,Minnesota,56601,47.507374,-94.863994,RVT
Ben's RV,1590 Whiteford Rd,Canton,Missouri,17402,39.958485,-76.65866,RVT
Ben's RV Center,1590 Whiteford Rd,York,Pennsylvania,17402,39.958485,-76.65866,RVT
Bennett's Camping Center,2708 E,East Granbury,Texas,76049,32.460255,-97.706784,RVT
Bent's RV - Boutte,14412 US-90,Boutte,Louisiana,70039,29.886943,-90.389006,RVT
Bent's RV - Metairie,8057 Airline Dr,Metairie,Louisiana,70003,30.001164,-90.209724,RVT
Berglund Outdoors,2590 Lee Hwy,Troutville,Virginia,24175,37.427996,-79.939687,RVT
Beric Sport Inc.,50 3e Avenue,"Val d""Or",Quebec,J9P 1R2,48.1001037,-77.7686314,RVT
"Best Buy RVs, Inc.",3720 National Rd E,Richmond,Indiana,47374,39.832079,-84.889699,RVT
Best Camper Sales,20488 8 Mile Rd,Big Rapids,Michigan,49346,43.594885,-85.421128,RVT
Best Time RV - Las Vegas,6590 Boulder Hwy,Las Vegas,Nevada,89122,36.106432,-115.040286,RVT
Bestway RV,14151 Quail Ln,Forney,Texas,75160,32.758408,-96.301323,RVT
"Beyers RV World, Inc.",2225 US Hwy 41,Evansville,Indiana,47711,38.015301,-87.536743,RVT
Bid-2-Buy,Buffalo,Buffalo,Minnesota,55313,45.174664,-93.851455,RVT
Big Boy's Toys,1421 Island Hwy E,Nanoose Bay,British Columbia,V9P 9A3,49.263679,-124.204112,RVT
Big Boy's Toys Ltd.,1421 Island Hwy E,Nanoose Bay,British Columbia,V9P 9A3,49.263679,-124.204112,RVT
Big Country RV,1150 Wallace Ave N,Listowel,Ontario,N4W 1M6,43.741444,-80.945174,RVT
Big Country RV - Bend,63500 N Hwy 97,Bend,Oregon,97701,44.112338,-121.20634,RVT
Big Country Wholesale RVs,2765 S Kansas Expy,Springfield,Missouri,65807,37.167533,-93.324773,RVT
Big Daddy RV's,325 County Farm Rd,London,Kentucky,40741,37.136791,-84.127273,RVT
Big Island Campers,670 Piilani St,Hilo,Hawaii,96720,19.65981,-155.232473,RVT
Big Moose RV,495 NH-16,Ossipee,New Hampshire,03864,43.689928,-71.103444,RVT
Big Red's Equipment ,4111 Weatherford Hwy,Granbury,Texas,76049,32.460255,-97.706784,RVT
Bill Eads RV,4415 Granite Dr Suite 200,Rocklin,California,95677,38.791075,-121.234854,RVT
Bill Howich RV,1632 Coulter Rd,Cambell River,British Columbia,V9W 7M1,50.045009,-125.265408,RVT
Bill Thomas Camper Sales,101 Thomas RV Way,Wentzville,Missouri,63385,38.796985,-90.857245,RVT
Bill's Happy Camper RV,15 N Water St,Mill Hall,Pennsylvania,17751,41.153528,-77.54479,RVT
Bill's Vacation Trailers Inc.,185 Travis St,Lindenhurst,New York,11757,40.68901,-73.373328,RVT
Billion Auto Group,524 E 1st St,Santa Anna,California,92701,33.74822,-117.858473,RVT
"Bird Connection, Llc",1005 E Clarksville Rd,Marshall,Illinois,62441,39.397619,-87.697612,RVT
"Bish's RV - Billings, MT",6708 S Frontage Rd,Billings,Montana,59101,45.613054,-108.390305,RVT
"Bish's RV - Bozeman, MT",8466 Huffine Ln, Bozeman,Montana,59718,45.576265,-111.118089,RVT
"Bish's RV - Cheyenne, WY",2621 Granite Peak Dr,Cheyenne,Wyoming,82007,41.080998,-104.698483,RVT
"Bish's RV - Coldwater, MI",891 E Chicago St,Coldwater,Michigan,49036,41.90548,-85.031277,RVT
"Bish's RV - Davenport, IA",2000 E Le Claire Rd,Eldridge,Iowa,52748,41.665776,-90.554924,RVT
"Bish's RV - Grand Rapids, MI",1291 W Randall St,Coopersville,Michigan,49404,43.063438,-85.952185,RVT
"Bish's RV - Great Falls, MT",3928 Tri Hill Frontage Rd,Great Falls,Montana,59404,47.631766,-111.32887,RVT
"Bish's RV - Idaho Falls, ID",3855 N 5th E,Idaho Falls,Idaho,83401,43.542409,-111.877936,RVT
Bish's RV - Longview,5009 Judson Rd,Longview,Texas,75605,32.582243,-94.725529,RVT
"Bish's RV - Meridian, ID",1300 W Overland Rd,Meridian,Idaho,83642,43.568006,-116.404411,RVT
Bishop GMC Cadillac Ltd,400 Mackinaw Ave,Cheboygan,Michigan,49721,45.582257,-84.460476,RVT
Bishop Mobile Center Inc.,1122 S Padre Island Dr,Corpus Christi,Texas,78416,27.752024,-97.436507,RVT
Bison RV Center,1200 E 1st St,Clovis,New Mexico,88101,34.499384,-103.275272,RVT
Bizy Bees Outlet,17422 NE US Hwy 301,Waldo,Florida,32694,29.807872,-82.144393,RVT
Blair's I-5 RVS,5910 Ivan Way SW,Rochester,Washington,98579,46.788202,-123.125481,RVT
Blake Trailers Inc.,10836 W State St,Star,Idaho,83669,43.724538,-116.48881,RVT
"Blanchard Trailer Sales, Inc.",6632 Airline Hwy,Baton Rouge,Louisiana,70805,30.488923,-91.158261,RVT
Blue Crick RV & Truck,19117 E Broadway Ave,Airway Heights,Washington,99016,47.597285,-117.121042,RVT
Blue Lake Auto and RV Sales,2650 Fairview Pkwy,Fairview,Oregon,97024,45.546622,-122.442346,RVT
Blue Mountain RV,1930 S Main St,Lehighton,Pennsylvania,84511,37.585845,-109.4078,RVT
Bluegrass RV - Ashland,7405 US-60,Ashland,Kentucky,41102,38.427628,-82.730185,RVT
Bluegrass RV - Lexington,1675 N Broadway,Lexington ,Kentucky,40505,38.060653,-84.457238,RVT
Bluenose RV,163 Cook's Ln,Cookville,Nova Scotia,B4V 4H2,44.3982461,-64.532055,RVT
Boardman RV,36 N Dynamics Dr,Pueblo West,Colorado,81007,38.360042,-104.773198,RVT
Boat & RV World,401 Sycamore Dr,Edmond,Oklahoma,29936,32.482042,-80.971987,RVT
"Boat House & RV Center, The",3909 Pleasant View Rd,Ponca City,Oklahoma,74601,36.702158,-97.148862,RVT
BOAT N RV,20 Industrial Dr,Hamburg,Pennsylvania,19526,40.547158,-75.99657,RVT
BOAT N RV MEGASTORE,2475 Westel Rd,Midtown,Tennessee,37854,35.880918,-84.720011,RVT
Boat N RV Superstore,20 Industrial Dr,Hamburg,Pennsylvania,19526,40.547158,-75.99657,RVT
Boat-N-RV,2475 Westel Rd,Rockwood,Tennessee,37854,35.880918,-84.720011,RVT
Boat-N-RV Superstore,20 Industrial Dr,Hamburg,Pennsylvania,19526,40.547158,-75.99657,RVT
BOAT-N-RV WAREHOUSE,1751 US-9 Rear,Clifton Park,New York,12065,42.852284,-73.785597,RVT
Boatland RV Inc.,3730 Concession Rd 8,Orono,Ontario,L0B 1M0,43.991992,-78.622352,RVT
Bob Ledford's Adventure Motorhomes,198 Bob Ledford Dr,Greer,South Carolina,29651,35.02383,-82.279564,RVT
Bob Miller RV,1463 E 6th St,Beaumont,California,92223,33.948255,-116.987839,RVT
"Bob's Camper & RV, Inc.",2810 Hancock Rd,Williamstown,Massachusetts,01267,42.671617,-73.246981,RVT
Bob's RV Center,5929 Old Greenlee Rd,Nampa,Idaho,28752,35.709599,-82.035573,RVT
Bob's Travel Center,4156 Santa Rosa Ave,Santa Rosa,California,95407,38.3933,-122.745048,RVT
Bobby Combs RV Center - Caldwell,5816 Cleveland Blvd,Caldwell ,Idaho,83607,43.709411,-116.750541,RVT
Bobby Combs RV Center - Coeur D' Alene,1212 West Appleway Ave.,Coeur D'Alene,Idaho,83814,47.685687,-116.627768,RVT
Bobby Combs RV Center - El Cajon,1405 E Main St,El Cajon,California,92021,32.838798,-116.869956,RVT
Bobby Combs RV Center - Hayden,10789 N HWY 95,Hayden,Idaho,83835,47.79695,-116.660251,RVT
Bobby Combs RV Center - Mesa,3335 E Main St,Mesa,Arizona,85213,33.448733,-111.769015,RVT
Born Free RV,1505 13th St N,Humboldt,Iowa,50548,42.714769,-94.225325,RVT
"Boulevard Trailers, Inc.",2 Oriskany Blvd,Whitesboro,New York,13492,43.114604,-75.33768,RVT
"Bourbon RV Center, Inc.",133 Old Springfield Rd,Bourbon,Missouri,65441,38.09638,-91.159022,RVT
Bowling Motors & RV,14270 Sycamore Rd,Ottumwa,Iowa,52501,41.035705,-92.43137,RVT
Boyer RV Center,8495 Peach St,Erie,Pennsylvania,16509,42.060022,-80.038141,RVT
Bozeman Ford,2900 N 19th Ave,Bozeman,Montana,59718,45.576265,-111.118089,RVT
"Bradco Industries, Inc.",80 Old Mls Rd,Park,Pennsylvania,18848,41.751057,-76.454741,RVT
"Brambilla's, Inc.",550 Valley Park Dr S,Shakopee,Minnesota,55379,44.753976,-93.514608,RVT
Braun's Fun Time Campers,9702 Pendleton Pike,Indianapolis,Indiana,46236,39.895722,-85.967501,RVT
"Breezy Bend RV Center, Inc.",418 Pine St,Leicester,Massachusetts,01524,42.249603,-71.919217,RVT
Brockman's RV Sales,226 E Frontage Rd N,Jerome,Idaho,83338,42.725104,-114.431903,RVT
Brooks Campers,1028 Memorial Blvd,Connelsville,Pennsylvania,15425,40.029709,-79.54884,RVT
Brooks Ramsey RV Center,11345 Pulaski Hwy,White Marsh,Maryland,21162,39.390116,-76.405582,RVT
Brown's Camping Sales,9726 Tara Blvd,Jonesboro,Georgia,30236,33.524478,-84.325439,RVT
Brown's Leisure World,SK-10,Yorkton,Saskatchewan,S3N 3Z4,51.214673,-102.462339,RVT
Browns Chevrolet Buick GMC,12109 8th St,Dawson Creek,British Columbia,V1G 5A5,55.739417,-120.224636,RVT
Browns Motorcars,330 NW 49th Pl,Des Moines,Iowa,50313,41.654477,-93.62418,RVT
Bruce Griffon's Trailer Town,10 E Woodlawn Dr,Leadington,Missouri,63601,37.824047,-90.544546,RVT
Bruce's RV,2730 Gershaw Dr SW,Medicine Hat,Alberta,T1B 4P8,50.02579,-110.70974,RVT
Bruce's RV Parts & Service,2730 Gershaw Dr SW,Medicine Hat,Alberta,T1B 4P8,50.02579,-110.70974,RVT
Brunk's RV,10460 S Salem-Warren Rd,Salem,Ohio,44460,40.899324,-80.870171,RVT
Bryant's RV,4255 Memorial Hwy,Dallas,Pennsylvania,18612,41.346088,-75.98638,RVT
Buckeye RV,7671 OH-73,Wilmington,Ohio,45177,39.460731,-83.844295,RVT
Bud's Trailer Center,1268 N Belsay Rd,Burton,Michigan,48509,43.023941,-83.604709,RVT
Budget Car Truck Rental,2904 S Cooper St,Arlington,Texas,76015,32.692186,-97.133304,RVT
Budget RV,218 SE 82nd Ave,Portland,Oregon,97216,45.513887,-122.558403,RVT
"Budget RV, Inc.",5200 Gateway Dr,Grand Forks,North Dakota,58203,47.970477,-97.16549,RVT
Buff's Discount Center,2085 US-67,Festus,Missouri,63028,38.137919,-90.392182,RVT
Buffalo RV,6511 Seneca St,Elma,New York,14059,42.833552,-78.634046,RVT
Bumgarner Camping Center,2206 Hickory Blvd,Hudson,North Carolina,28645,35.978845,-81.547834,RVT
Bunkhouse Conversion RV of Alabama,315 Hospital Rd,Red Bay,Alabama,35582,34.4868,-88.112899,RVT
Bunkley RV Superstore,5606 US-90,Mobile,Alabama,36582,30.509877,-88.173001,RVT
Burdette Camping Center,13501 Winfield Rd,Winfield,West Virginia,25213,38.512666,-81.913305,RVT
Burton Campers,320 Co Rd 304,Calera,Alabama,35040,33.102967,-86.728894,RVT
Busenbark Trailer Sales,220 Busenbark Dr,Farmington,Missouri,63640,37.754674,-90.380562,RVT
Butler Auto & RV Centre,142 Tranquille Rd,Kamloops,British Columbia,V2B 3G1,50.684587,-120.352983,RVT
Buyers RV Mart,681 W La Cadena Dr,Riverside,California,92501,33.99504,-117.373184,RVT
Byerly RV,295 E 5th St,Eureka,Missouri,63025,38.48753,-90.620119,RVT
Byerly RV Center,295 E 5th St,Eureka,Missouri,63025,38.48753,-90.620119,RVT
C & L Camper Sales,7202 Lee Hwy,Radford,Virginia,24141,37.096142,-80.568655,RVT
C & R RV Sales,5035 W. Powerline Rd,Tremonton,Utah,84337,41.765101,-112.317414,RVT
C & T Trailer Supply/Service,27612 Norris Rd,Bozeman,Montana,59718,45.576265,-111.118089,RVT
C3RV,26111 Ynez Rd Suite C 12,Murrieta,California,92591,33.535277,-117.104791,RVT
Cabin Creek Campground,3200 Wilmington Hwy,Jacksonville,North Carolina,28540,34.754982,-77.503794,RVT
Cabin Creek RV,441915 US-60,Vinita,Oklahoma,74301,36.677726,-95.224726,RVT
Cache River RV,943 Shawnee College Rd,Ullin,Illinois,62992,37.280117,-89.165805,RVT
CactusRV.com,5374 N Casa Grande Hwy,Tucson,Arizona,85743,32.302273,-111.181848,RVT
Cain Camper Sales,38 Brentwood Rd,Brooksfield,Nova Scotia,B0N 1C0,45.263092,-63.097746,RVT
California Coach Company LLC,3030 Pullman St STE B,Costa Mesa,California,92626,33.679591,-117.908531,RVT
"Call of the Wild, Inc.",848 Main St,Oxford,Maine,04270,44.117335,-70.527478,RVT
"Camp Inn, Inc.",8800 Thomas Dr,Sale Creek,Tennessee,32408,30.142185,-85.732678,RVT
Camp Site RV,10036 Valley Ave,Cresco,Iowa,52136,43.374077,-92.111673,RVT
"Camp USA, Inc.",2851 Hammondville Rd,Pompano Beach,Florida,33069,26.23583,-80.1571,RVT
Camp-A-Rama,481 US-68,Benton,Kentucky,42025,36.856924,-88.334714,RVT
"Camp-A-Rama, Inc.",481 US-68,Chesapeake,Virginia,42025,36.856924,-88.334714,RVT
"Camp-Out, Inc.",23905 SW 132nd Ave,Miami,Florida,33032,25.531517,-80.3908,RVT
Camp-R-Cruise,7129 Sashabaw Rd,Farmington Hills,Michigan,48348,42.768594,-83.404451,RVT
CampAmerica RV Centre,11053 Watertower Ct,Holland,Michigan,49424,42.843818,-86.134355,RVT
Campbell's RV Sales,16922 US-431,Headland,Alabama,36345,31.366306,-85.310372,RVT
Camper & Trailer Outlet,1204 Broadway,El Cajon,California,92021,32.838798,-116.869956,RVT
Camper Capitol USA,4233 Forest Ln,Garland,Texas,75042,32.911702,-96.674838,RVT
Camper Care,3143 OH-14,Edinburg,Ohio,44272,41.089759,-81.180523,RVT
Camper City,4707 Friendship Rd,Buford,Georgia,30519,34.087437,-83.944991,RVT
Camper Club of America,8291 Clough Pike,Cincinnati,Ohio,45244,39.114249,-84.326468,RVT
Camper Coaches RVs,1701 Texas 289 Loop Frontage Rd,Lubbock,Texas,79423,33.439976,-101.855463,RVT
Camper Corral,1922 Co Rd MM,Fitchburg,Wisconsin,53575,42.933063,-89.390551,RVT
Camper Corral,381 Distribution Dr,Madison,Mississippi,39110,32.504199,-90.147242,RVT
Camper Country,5500 S Kings Hwy #17,Myrtle Beach,South Carolina,29575,33.629132,-78.970412,RVT
Camper Dan's RV Sales,5950 Lamar Rd,Paris,Texas,75462,33.624551,-95.490113,RVT
Camper Depot RV,12657 Tamiami Trail,Punta Gorda,Florida,33955,26.816404,-81.993627,RVT
Camper Fixers LLC,568 Flippin Rd,Lowgap,North Carolina,27024,36.519237,-80.841179,RVT
Camper Kingdom - Florence,4018 US 49,Florence,Mississippi,39073,32.102431,-90.135817,RVT
Camper Liquidators,417 John Fitch Blvd,South Windsor,Connecticut,06074,41.83809,-72.577836,RVT
Camper Liquidators,171 Washington St,Plainville,Massachusetts,02762,42.0128,-71.336602,RVT
Camper Liquidators,4016 Williston Rd,South Burlington,Vermont,05403,44.444866,-73.173468,RVT
Camper Liquidators ,500 W Lincoln Hwy Hwy,Schererville,Indiana,46375,41.491818,-87.448746,RVT
Camper's Corner RV Superstore,933 A W Old Hickory Blvd,Madison,Tennessee,37115,36.253847,-86.69553,RVT
Camper's World RV Sales & Service,1621 Victoria St N,Kitchener,Ontario,N2B 3E6,43.4743135,-80.4340505,RVT
Campers Paradise LLC,9370 US-441,Ocala,Florida,34480,29.102401,-82.096588,RVT
Campers Unlimited,15475 AL-74,Attalla,Alabama,35954,34.089754,-86.057449,RVT
Campeurs Frederic Inc.,4615 Mnt Gagnon,Terrebonne,Quebec,J6Y 0G7,45.7206309,-73.8185014,RVT
Camping In Style,7725 Baldwin St N,Whitby,Ontario,L1M 1Y5,43.9812365,-78.9628002,RVT
Camping USA,815 Bedford St #18,East Bridgewater,Massachusetts,02333,42.037278,-70.940459,RVT
Camping World RV - Akron,1005 Interstate Pkwy,Akron,Ohio,44312,41.01412,-81.443701,RVT
Camping World RV - Albuquerque,14303 Central Ave NW,Albuquerque,New Mexico,87121,35.08917,-106.871772,RVT
Camping World RV - Alvarado,5201 N Pkwy Dr,Alvarado,Texas,76009,32.414937,-97.200076,RVT
Camping World RV - Amarillo,10300 W Interstate Hwy 40,Amarillo,Texas,79124,35.26692,-101.958417,RVT
Camping World RV - Asheville,2918 N Rugby Rd,Hendersonville,North Carolina,28791,35.356104,-82.508181,RVT
Camping World RV - Avondale,10255 Papago Fwy,Avondale,Arizona,85323,33.419233,-112.326866,RVT
Camping World RV - Bakersfield,5500 Wible Rd,Bakersfield,California,93313,35.16319,-119.046322,RVT
Camping World RV - Berkley,137 Myricks St,Berkley,Massachusetts,02779,41.838061,-71.077615,RVT
Camping World RV - Biloxi,12020 Shriners Blvd,Biloxi,Mississippi,39532,30.493085,-88.964318,RVT
Camping World RV - Birmingham,730 George Roy Pkwy,Calera,Alabama,35040,33.102967,-86.728894,RVT
Camping World RV - Boise,1580 W Overland Rd,Boise,Idaho,83642,43.568006,-116.404411,RVT
Camping World RV - Bossier City,3625 Industrial Dr,Bossier City,Louisiana,71112,32.453017,-93.620859,RVT
Camping World RV - Bowling Green,725 Bluegrass Farms Blvd,Bowling Green,Kentucky,42104,36.876864,-86.45119,RVT
Camping World RV - Bridgeport,602 Heron Dr,Swedesboro,New Jersey,08085,39.761129,-75.32406,RVT
Camping World RV - Buffalo,5533 Camp Rd,Hamburg,New York,14075,42.712657,-78.834708,RVT
Camping World RV - Burlington,1535 Walton Dr,Burlington,Washington,98233,48.500911,-122.345655,RVT
Camping World RV - Caldwell,5500 Cleveland Blvd,Caldwell,Idaho,83607,43.709411,-116.750541,RVT
Camping World RV - Cedar Falls,7805 Ace Pl,Cedar Falls,Iowa,50613,42.53138,-92.485808,RVT
Camping World RV - Charleston,8155 Rivers Ave,Charleston,South Carolina,29406,32.937267,-80.035245,RVT
Camping World RV - Chattanooga,6728 Ringgold Rd,Chattanooga,Tennessee,37412,34.997526,-85.22743,RVT
Camping World RV - Chicago,27794 N Darrell Rd,Island Lake,Illinois,60084,42.269669,-88.140911,RVT
Camping World RV - Cocoa,4700 W King St,Cocoa,Florida,32926,28.388697,-80.818152,RVT
Camping World RV - Colfax,8615 Triad Dr,Colfax,North Carolina,27235,36.089272,-80.012545,RVT
Camping World RV - Colorado Springs,6830 Bandley Dr,Fountain,Colorado,80817,38.63858,-104.686472,RVT
Camping World RV - Columbia,3634 Fernandina Rd,Columbia,South Carolina,29210,34.046162,-81.10658,RVT
Camping World RV - Concord,6700 Bruton Smith Blvd,Concord,North Carolina,28027,35.406991,-80.685957,RVT
Camping World RV - Conway,1571 E Main St,Center Conway,New Hampshire,03813,44.127402,-71.060836,RVT
Camping World RV - Davenport,14040 110th Ave,Davenport,Iowa,52804,41.532458,-90.681249,RVT
Camping World RV - Denver,16000 W Colfax Ave,Golden,Colorado,80401,39.718726,-105.236031,RVT
Camping World RV - El Paso,8805 N Desert Blvd,Anthony,Texas,79821,31.980053,-106.598777,RVT
Camping World RV - Eugene,90855 Roberts Rd,Coburg,Oregon,97408,44.142995,-123.058241,RVT
Camping World RV - Fayetteville,5117 US-301,Hope Mills,North Carolina,28348,34.914974,-78.92702,RVT
Camping World RV - Fort Myers,4681 Waycross Rd,Fort Myers,Florida,33905,26.667872,-81.760927,RVT
Camping World RV - Fresno,3672 S Maple Ave,Fresno,California,93725,36.627211,-119.731888,RVT
Camping World RV - Georgetown,151 Wahland Hall Path,Georgetown,Kentucky,40324,38.24538,-84.550241,RVT
Camping World RV - Grand Rapids,201 76th St SW,Grand Rapids,Michigan,49548,42.870454,-85.662605,RVT
Camping World RV - Greenville,111 Red Banks Rd,Greenville,North Carolina,27858,35.53175,-77.283888,RVT
Camping World RV - Hampton Roads,11963 Jefferson Ave,Newport News,Virginia,23606,37.064408,-76.521638,RVT
Camping World RV - Hanover,2100 Baltimore Pike,Hanover,Pennsylvania,17331,39.78969,-76.977984,RVT
Camping World RV - Harrisburg,7501 Allentown Blvd,Harrisburg,Pennsylvania,17112,40.373101,-76.776511,RVT
Camping World RV - Hermantown,4275 Haines Rd,Hermantown,Minnesota,55811,46.842463,-92.221917,RVT
Camping World RV - Hillsboro,6503 SE Alexander St,Hillsboro,Oregon,97123,45.440165,-122.980083,RVT
Camping World RV - Houston,27905 Katy Fwy,Katy,Texas,77494,29.740677,-95.829652,RVT
Camping World RV - Idaho Falls,Pancheri Drive,Idaho Falls,Idaho,83402,43.534886,-112.174467,RVT
Camping World RV - Indianapolis,303 Sheek Rd,Greenwood,Indiana,46143,39.59586,-86.116319,RVT
Camping World RV - Jackson,4601 I-55 South Frontage Rd,Jackson,Mississippi,39212,32.243261,-90.280351,RVT
Camping World RV - Jacksonville,10101 Interstate Center Dr,Jacksonville,Florida,32218,30.487775,-81.667141,RVT
Camping World RV - Kansas City,3001 NE Jefferson St,Grain Valley,Missouri,64029,39.005925,-94.216381,RVT
Camping World RV - Kaysville,780 N Kays Dr,Kaysville,Utah,84037,41.027605,-111.950941,RVT
Camping World RV - Kenosha,6802 118th Ave,Kenosha,Wisconsin,53142,42.518443,-87.982635,RVT
Camping World RV - Kingston,124 Onteora Trail,Kingston,New York,12401,41.987541,-74.010273,RVT
Camping World RV - Kissimmee,5175 W Irlo Bronson Memorial Hwy,Kissimmee,Florida,34746,28.238826,-81.445346,RVT
Camping World RV - Knoxville,4223 Airport Hwy,Louisville,Tennessee,37777,35.826849,-84.054192,RVT
Camping World RV - Lafayette,Rees Street Extension,Lafayette,Louisiana,70517,30.298246,-91.83357,RVT
Camping World RV - Lake City,530 SW Florida Gateway Dr,Lake City,Florida,32024,30.092008,-82.730993,RVT
Camping World RV - Las Vegas,13175 S Las Vegas Blvd,Las Vegas,Nevada,89044,35.902434,-115.178912,RVT
Camping World RV - Little Rock,9801 Diamond Dr,Little Rock,Arkansas,72117,34.769847,-92.145446,RVT
Camping World RV - Longmont,14504 E I-25 Frontage Rd,Longmont,Colorado,80504,40.163388,-105.030087,RVT
Camping World RV - Lubbock,1701 Texas 289 Loop Frontage Rd,Lubbock,Texas,79423,33.439976,-101.855463,RVT
Camping World RV - Macon,225 W.E. Green Jr. Pkwy,Macon,Georgia,31008,32.665346,-83.785924,RVT
Camping World RV - Manassas,10850 Balls Ford Rd,Manassas,Virginia,20109,38.793641,-77.531024,RVT
Camping World RV - Memphis,8150 Craft Rd,Olive Branch,Mississippi,38654,34.933929,-89.81628,RVT
Camping World RV - Mesa,2222 E Main St,Mesa,Arizona,85213,33.448733,-111.769015,RVT
Camping World RV - Mesquite,2764 I-30 Frontage Rd,Mesquite,Texas,75150,32.817399,-96.630416,RVT
Camping World RV - Mid Missouri,8877 Interstate 70 Dr NE,Columbia,Missouri,65202,39.02037,-92.296535,RVT
Camping World RV - Milwaukee,800 E Green Bay Ave,Saukville,Wisconsin,53080,43.405793,-87.98633,RVT
Camping World RV - Minneapolis,3801 Chelsea Rd,Monticello,Minnesota,55362,45.292082,-93.838711,RVT
Camping World RV - Nashville,2618 Music Valley Dr,Nashville,Tennessee,37214,36.162189,-86.670867,RVT
Camping World RV - New Hampshire,165 Dover Rd,Chichester,New Hampshire,03258,43.265259,-71.408835,RVT
Camping World RV - New Jersey,1359 River Ave,Lakewood,New Jersey,08701,40.077041,-74.200383,RVT
Camping World RV - New Port Richey,2112 US-19,Holiday,Florida,34691,28.198023,-82.816078,RVT
Camping World RV - Northern Michigan,2735 W Houghton Lake Dr,Houghton Lake,Michigan,48629,44.312238,-84.784698,RVT
Camping World RV - NW Arkansas,317 N 6th Pl,Lowell,Arkansas,72745,36.246524,-94.102609,RVT
Camping World RV - Oakwood,4696 Smithson Blvd,Oakwood,Georgia,30566,34.236212,-83.89521,RVT
Camping World RV - Ocala,14200 US-441,Summerfield,Florida,34491,28.995627,-82.055143,RVT
Camping World RV - Omaha,2802 S 21st St,Council Bluffs,Iowa,51501,41.227277,-95.878439,RVT
Camping World RV - Panama City,4100 W 23rd St,Panama City,Florida,32405,30.202068,-85.667403,RVT
Camping World RV - Pasco,9420 Sandifur Pkwy,Pasco,Washington,99301,46.379233,-118.953781,RVT
Camping World RV - Pittsburgh,537 PA-356,Apollo,Pennsylvania,15613,40.546577,-79.561663,RVT
Camping World RV - Portland,24000 NE Sandy Blvd,Wood Village,Oregon,97060,45.531327,-122.36909,RVT
Camping World RV - Poteau,34203 US-59,Poteau,Oklahoma,74953,35.04344,-94.61042,RVT
Camping World RV - Raleigh,2300 US-70 BUS,Garner,North Carolina,27529,35.655625,-78.584906,RVT
Camping World RV - Rapid City,10400 Recreational Dr,Summerset,South Dakota,57718,44.170732,-103.368194,RVT
Camping World RV - Redding,3700 Automall Dr,Anderson,California,96007,40.458029,-122.27783,RVT
Camping World RV - Richmond,2250 Williamsburg Pike,Richmond,Indiana,47374,39.832079,-84.889699,RVT
Camping World RV - Rockford,6135 All World Way,Roscoe,Illinois,61073,42.423732,-88.993797,RVT
Camping World RV - Sacramento,1039 Orlando Ave,Roseville,California,95661,38.741074,-121.247693,RVT
Camping World RV - Salt Lake City,13153 Minuteman Dr,Salt Lake City,Utah,84020,40.500154,-111.869576,RVT
Camping World RV - San Antonio,3891 IH 35 S,New Braunfels,Texas,78130,29.693556,-98.07285,RVT
Camping World RV - Savannah,129 Continental Blvd,Savannah,Georgia,31322,32.109885,-81.255465,RVT
Camping World RV - Sherman,2005 S Sam Rayburn Fwy,Sherman,Texas,75090,33.604131,-96.550405,RVT
Camping World RV - Sioux Falls,1601 E Robur Dr,Sioux Falls,South Dakota,57104,43.604785,-96.707425,RVT
Camping World RV - South Alabama,21282 AL-59,Robertsdale,Alabama,36567,30.623536,-87.55696,RVT
Camping World RV - Spartanburg,114 Best Dr,Spartanburg,South Carolina,29303,34.995627,-81.9604,RVT
Camping World RV - Spokane,19651 E Cataldo Ave,Liberty Lake,Washington,99016,47.597285,-117.121042,RVT
Camping World RV - Springfield,373 E Evergreen Rd,Strafford,Missouri,65757,37.282791,-93.099771,RVT
Camping World RV - Springfield,2371 Chuckwagon Dr,Springfield,Illinois,62711,39.765466,-89.729326,RVT
Camping World RV - St. George,1500 S Auto Mall Dr,St. George,Utah,84770,37.185988,-113.609694,RVT
Camping World RV - St. Louis,2200 E Pitman Ave,Wentzville,Missouri,63385,38.796985,-90.857245,RVT
Camping World RV - Syracuse,7030 Interstate Island Rd,Syracuse,New York,13209,43.068502,-76.224251,RVT
Camping World RV - Tallahassee,31300 Blue Star Highway Hwy,Midway,Florida,32343,30.478483,-84.504652,RVT
Camping World RV - Tampa,4811 McIntosh Rd,Dover,Florida,33527,27.973749,-82.212806,RVT
Camping World RV - Toledo,28000 Sportsman's Dr,Rossford,Ohio,43460,41.601192,-83.564999,RVT
Camping World RV - Tucson,4700 S Palo Verde Rd,Tucson,Arizona,85714,32.167395,-110.950864,RVT
Camping World RV - Tulsa,9005 E Skelly Dr,Tulsa,Oklahoma,74129,36.126019,-95.871602,RVT
Camping World RV - Tyler,11271 US Hwy 69 N,Tyler,Texas,75706,32.469555,-95.307879,RVT
Camping World RV - Vacaville,5065 Quinn Rd,Vacaville,California,95688,38.408571,-122.022775,RVT
Camping World RV - Valdosta,5244 Jewell Futch Rd,Lake Park,Georgia,31636,30.730986,-83.111372,RVT
Camping World RV - Valencia,24901 Pico Canyon Rd,Santa Clarita,California,91381,34.384697,-118.647244,RVT
Camping World RV - Woodstock,505 Phillip Landrum Memorial Hwy,Woodstock,Georgia,30188,34.123528,-84.457649,RVT
Campkin's RV Centre,9760 Baldwin St N,Myrtle Station,Ontario,L0B 1A0,44.028553,-79.001546,RVT
Camptown RV,1346 Bankfield Rd,Manotick,Ontario,K4M 1A7,45.138781,-75.626465,RVT
Can Am RV,5130 Portage Ave,Headingley,Manitoba,R4H 1E1,49.877754,-97.400264,RVT
Can-Am RV Centre,6068 Colonel Talbot Rd,London,Ontario,N6P 1R1,42.912032,-81.303252,RVT
Canada West Truck and RV Centre,3750 Idylwyld Dr N,Saskatoon,Saskatchewan,S7L 6G3,52.187826,-106.670154,RVT
Canadian Leisure RV Inc.,8415 31 St SE,Calgary,Alberta,T2C 4S8,50.978185,-113.988837,RVT
CanaDream - Calgary,292154 Crosspointe Dr,Calgary,Alberta,T4A 0V2,51.282387,-113.987384,RVT
CanaDream - Halifax,196 Park Rd,Dartmouth,Nova Scotia,B2S 0G2,45.006853,-63.523461,RVT
CanaDream - Montreal,14569 Bd du CurÃ©-Labelle #101,Mirabel,Quebec,J7J 1M2,45.709133,-73.935007,RVT
CanaDream - Toronto,33 West Dr,Brampton,Ontario,L6T 4A1,43.703959,-79.726423,RVT
CanaDream - Vancouver,8223 92 St,Delta,British Columbia,V4G 0A4,49.1345934,-123.0005476,RVT
Candan RV Center,20529 Langley Bypass,Langley,British Columbia,V3A 5E8,49.103873,-122.64265,RVT
Canopy Country RV Center,2904 Main St,Yakima,Washington,98903,46.543655,-121.023317,RVT
Cape Breton Trailer Sales,1663 Trans-Canada Hwy,Bras D''Or,Nova Scotia,B1Y 3Y6,46.25746,-60.294232,RVT
Capital One Auto,3780 Recycle Rd #2,Rancho cordova,California,95742,38.577783,-121.201788,RVT
Caps & Campers Inc.,7843 NY-414,Cicero,New York,14521,42.676642,-76.805003,RVT
Caravane 185 Inc.,86 Rue Principale,St-Antonin,Quebec,G0L 2J0,47.761074,-69.483266,RVT
Caravane Horizon Inc.,1161 Chem. des Petites Terres,Trois-Rivieres,Quebec,G9B 7H1,46.31879,-72.682232,RVT
Caravane Joubert Inc.,3055 Rte 132,St-Ulric,Quebec,G0J 3H0,48.79899,-67.634569,RVT
Caravanes De La Petite Nation,102 Ch des Fabriques,Gatineau,Quebec,J8L 0A9,45.577509,-75.411875,RVT
Carbon Emery RV,4590 US-6,Helper,Utah,84526,39.739526,-110.936463,RVT
Carl's Acres of Trailers,2556 S Euclid Ave,Ontario,California,91762,34.05941,-117.674011,RVT
Carlson Sports RV Center Ltd.,11 Couchie Industrial Rd,North Bay,Ontario,P0H 1P0,46.356492,-79.412743,RVT
Carlton Camping Center,15775 Oakley Rd,Chesaning,Michigan,48616,43.191074,-84.11346,RVT
Carlyle RV & Leisure,SK-9,Carlyle,Saskatchewan,S0C 0R0,49.833321,-102.298359,RVT
Carnes & Sons Trailer World,26894 US-54,Pittsfield,Illinois,62363,39.590496,-90.769665,RVT
Carpenter's Campers,8450 Pensacola Blvd,Pensacola,Florida,32534,30.528939,-87.281718,RVT
Carson RV,4550 N Carson St,Carson City,Nevada,89706,39.222699,-119.701535,RVT
Carson Trailer - Bakersfield,3960 Saco Rd,Bakersfield,California,93308,35.621087,-118.789677,RVT
Carson Trailer - Beaumont,1375 E 6th St,Beaumont,California,92223,33.948255,-116.987839,RVT
Carson Trailer - Chehalis,1393 Rush Rd,Chehalis,Washington,98532,46.62629,-123.052671,RVT
Carson Trailer - Corona,2222 Frontage Rd,Corona,California,92882,33.840451,-117.601961,RVT
Carson Trailer - Eaton,17945 WCR 76,Eaton,Colorado,80615,40.545658,-104.645698,RVT
Carson Trailer - El Cajon,1667 E Main St,El Cajon,California,92021,32.838798,-116.869956,RVT
Carson Trailer - Fontana,9905 Cherry Ave,Fontana,California,92335,34.085972,-117.464597,RVT
Carson Trailer - Fresno,2670 S East Ave,Fresno,California,93706,36.652065,-119.906591,RVT
Carson Trailer - Gardena,14800 S Maple Ave,Gardena,California,90248,33.878432,-118.284104,RVT
Carson Trailer - Gilroy,6380 Automall Pkwy,Gilroy,California,95020,37.018419,-121.554249,RVT
Carson Trailer - Henderson,4073 Las Vegas Blvd N,Henderson,Nevada,89115,36.25364,-115.041052,RVT
Carson Trailer - Hesperia,11494 Mariposa Rd,Hesperia,California,92345,34.376159,-117.294397,RVT
Carson Trailer - Lancaster,45320 23rd St W,Lancaster,California,93536,34.74739,-118.369249,RVT
Carson Trailer - Las Vegas,4073 Las Vegas Blvd N,Las Vegas,Nevada,89115,36.25364,-115.041052,RVT
Carson Trailer - Norco,491 Sixth St,Norco,California,92860,33.925519,-117.551958,RVT
Carson Trailer - Phoenix,22018 N 23rd Ave,Phoenix,Arizona,85027,33.679761,-112.092529,RVT
Carson Trailer - Tucson,2640 N Stone Ave,Tucson,Arizona,85705,32.271329,-110.993712,RVT
Carstairs RV Centre,729 Highfield Gate,Carstairs,Alberta,T0M 0N0,51.5654144287109,-114.104629516602,RVT
Carter Ave Auto,3331 Carter Ave,Brandon,Iowa,52210,42.334017,-91.992953,RVT
Carvista,1201 Regent Ave W,Winnipeg,Manitoba,R2C 3B2,49.895372,-97.035573,RVT
Cary Moving Center,500 E Chatham St,Cary,North Carolina,27511,35.763414,-78.788528,RVT
Cascade RV Sales & Rentals,20529 Langley Bypass,Langley,British Columbia,V3A 5E8,49.103873,-122.64265,RVT
Cass Trailer Sales Inc.,8907 Baltimore Ave,College Park,Maryland,20740,39.002745,-76.931721,RVT
Castle Rock RV - Evanston,225 Bear River Dr,Evanston,Wyoming,82930,41.016132,-110.64493,RVT
Castle Rock RV - West Valley City,4615 W 3500 S,West Valley City,Utah,84120,40.697476,-112.00124,RVT
Caswell RV,260 S Dexter St,Ionia,Michigan,48846,42.986125,-85.057887,RVT
"Cecil Caudill Trailer Sales, Inc.",6679 Gallia Pike,Portsmouth,Ohio,45629,38.657569,-82.815894,RVT
Cecil's RV,2640 S Ridgewood Ave,Edgewater,Florida,32141,28.928953,-80.919135,RVT
Center Valley RV,5050 PA-309,Center Valley,Pennsylvania,18034,40.546353,-75.415278,RVT
Central Washington RV,913 S 18th St,Yakima,Washington,98901,46.722625,-120.406039,RVT
Centre de Camping D'Amos,1221 Quebec Rte 111,Amos,Quebec,J9T 3A1,48.590672,-78.110776,RVT
Centre Du Camping Remillard Inc.,1290 Bd Saint-Luc,St-Jean-sur-Richelie,Quebec,J2Y 1A5,45.380972,-73.381634,RVT
Century RV,10400 E I-25 Frontage Rd,Longmont,Colorado,80504,40.163388,-105.030087,RVT
Certified Auto Outlet,5244 NY-23,Oneonta,New York,13820,42.483456,-75.036874,RVT
Certified Auto Plaza,6344 MN-29,Alexandria,Minnesota,56308,45.878391,-95.386055,RVT
Champion Chevrolet Buick GMC,2880 Highway Dr,Trail,British Columbia,V1R 2T3,49.097888,-117.678467,RVT
Chances Creek RV,6805 Chances Creek Rd,Fancy Gap,Virginia,24328,36.645356,-80.700836,RVT
Charest Expert Inc.,2315 Bd Thibeau,Trois-RiviÃ¨res,Quebec,G8T 1G1,46.415452,-72.580618,RVT
Charlie Obaugh RV,213 Rolling Thunder Ln,Staunton,Virginia,24401,38.134387,-79.085564,RVT
"Charlie's Camping Center, Inc.",10100 Liberty Rd,Randallstown,Maryland,21133,39.373505,-76.815284,RVT
Charlies Garage & Camper Sales,5495 Bethania Rd,Bethania,North Carolina,27106,36.14391,-80.323157,RVT
Charlotte RV Center,23180 Harper Ave suite a,Punta Gorda,Florida,33980,26.983504,-82.043606,RVT
Chattanooga Camper Sales  ,5911 Ringgold Rd,Chattanooga,Tennessee,37412,34.997526,-85.22743,RVT
Cheek & Shockley RV's,2602 Mechanicsville Turnpike,Richmond,Virginia,23223,37.557767,-77.378886,RVT
Chegus RV Sales,101 SK-6,Watson,Saskatchewan,S0K 4V0,52.264773,-104.280527,RVT
Chemo RV Sales & Service Ltd.,3057 Cariboo Hwy 97 S,Williams Lake,British Columbia,V0K 2G0,52.170082,-122.066692,RVT
Chesapeake Motors Inc. & RV's,1501 E Patrick St,Chester,Maryland,21701,39.443557,-77.332934,RVT
"Chesapeake Recreation, Inc.",713 Dover Rd #4012,Easton,Maryland,21601,38.79365,-76.081602,RVT
Chesapeake RV Solutions,3360 S Battlefield Blvd,Chesapeake,Virginia,23322,36.618712,-76.227046,RVT
Chief's RV Center,1120 N 28th Ave,Pasco,Washington,99301,46.379233,-118.953781,RVT
Chinook RV,6014 64 St,Taber,Alberta,T1G 1Z3,49.80057,-112.128335,RVT
Chippewa Valley RV,990 118th St,Chippewa Falls,Wisconsin,54729,44.945626,-91.392954,RVT
Chisolm Trail RV,12020 Central Ave SE,Albuquerque,New Mexico,87123,35.067584,-106.470746,RVT
Christie's RV,9 Trout Lake Rd,Sault Ste Marie,Ontario,P6A 0E4,46.51326,-84.303806,RVT
"Christy's Auto, Inc.",21 Sunnyside Ave,Johnston,Rhode Island,02919,41.82744,-71.519879,RVT
Chuck's RV Sales,3301 Linwood Dr,Paragould,Arkansas,72450,36.079546,-90.51644,RVT
Cite Caravane,170 R. Dubois,Saint-Eustache,Quebec,J7P 4W9,45.5714166,-73.9114148,RVT
City Auto Sales & RV,2 McDonough Rd,Claremont,New Hampshire,03773,43.371345,-72.202789,RVT
"Citywide RV, Inc.",2727 Minnehaha Ave E,Saint Paul,Minnesota,55119,44.937421,-93.007402,RVT
CJs RV Town,9795 SE Federal Hwy,Hobe Sound,Florida,33455,27.053143,-80.161232,RVT
Clare-Mar Lakes RV Sales & Service,47675 New London Eastern Rd,Wellington,Ohio,44851,41.109175,-82.391572,RVT
Clarksville RV,1270 Tylertown Rd,Clarksville,Tennessee,37040,36.522633,-87.334932,RVT
Classic Adventures RV,2802 Kietzke Ln,Reno,Nevada,89502,39.491314,-119.743845,RVT
Classic RV,770 US-40,Monroeville,New Jersey,08343,39.636316,-75.167607,RVT
Classic Trailers,4285 Portage Ave,Headingley,Manitoba,R4H 1C6,49.87546,-97.39868,RVT
Clay's RV,207 Franklin Dr,North Canton,Ohio,71292,32.396678,-92.214764,RVT
Clear Choice Motors Inc.,847 E Valley Blvd,Colton,California,92324,34.02452,-117.289255,RVT
Clear Creek RV Center - Chehalis,165 Hamilton Rd,Napavine,Washington,98532,46.62629,-123.052671,RVT
Clear Creek RV Center - Puyallup,16625 Meridian Ave E,Puyallup,Washington,98375,47.103181,-122.333406,RVT
Clear Creek RV Center - Sequim,261293 US-101,Sequim,Washington,98382,48.023189,-123.106245,RVT
"Clearview RV, Inc.",17104 WA-9,Snohomish,Washington,98296,47.840783,-122.101084,RVT
Clem's RV & Trailer Sales,1580 PA-65,Ellwood City,Pennsylvania,16117,40.871835,-80.256207,RVT
Clem's RV & Trailer Sales,5807 Mallard Rd,Stafford,Virginia,22580,38.109182,-77.445683,RVT
Cliff Jones RV,1629 S Circle St,Sealy,Texas,77474,29.780109,-96.181158,RVT
Clippership Motorhome Rentals,5401 Old Seward Hwy,Anchorage,Alaska,99518,61.159577,-149.884627,RVT
"Coach Corral Industry, Inc.",3906 Cedardale Rd,Elkhart,Indiana,98274,48.348771,-122.145467,RVT
"Coachlight RV Sales, Inc.",5327 S Garrison Ave,Carthage,Missouri,64836,37.189255,-94.279255,RVT
Coachworks Trailer & RV Ltd.,1701 Sparrow Dr,Leduc,Alberta,T9E 8A7,53.334235,-113.5395,RVT
Coast RV Sales & Service Ltd.,1458 Industrial Way,Parksville,British Columbia,V9P 1W3,49.30917,-124.269388,RVT
Coast to Coast Marine,24441 N River Rd,Mt. Clemens,Michigan,48043,42.598055,-82.881506,RVT
Coates RV - Hugo,14025 W Freeway Dr,Hugo,Minnesota,55038,45.174163,-92.980823,RVT
Cody RV & Trailers,13663 US-75,Van Alstyne,Texas,75495,33.439195,-96.546841,RVT
Cold Springs RV Corporation,530 S Stark Hwy,Weare,New Hampshire,03281,43.078057,-71.703708,RVT
Colerain Family RV - Muncie,9825 IN-67,Albany,Indiana,47320,40.271703,-85.272799,RVT
"Colonia del Rey RV Sales, LLC",1122 S Padre Island Dr,Corpus christi,Texas,78416,27.752024,-97.436507,RVT
Colony RV Sales & Service,595 NJ-33 Suite B,Warwick,Rhode Island,08535,40.244447,-74.431604,RVT
Color Country RV,1551 W State St,Hurricane,Utah,84737,37.044712,-113.206012,RVT
Colorado's Ride The West RV Rentals,4040 S Clay St,Sheridan,Colorado,80110,39.645936,-105.011368,RVT
Colton RV - North Tonawanda,3122 Niagara Falls Blvd,North Tonawanda,New York,14120,43.079317,-78.842654,RVT
Colton RV - Orchard Park,3443 Southwestern Blvd,Orchard Park,New York,14127,42.752803,-78.739697,RVT
Commuter Imports,911 B 8th St S,Beiseker,Alberta,S0K 0A2,52.2801666259766,-106.665603637695,RVT
"Complete RV Parts  & Service, Inc",2 NH-125,Kingston,New Hampshire,03848,42.913731,-71.073595,RVT
Conley RV ,800 Cortez Rd W,Bradenton,Florida,34207,27.438677,-82.579674,RVT
Consignment RV,9525 Ulmerton Rd,Largo,Florida,33771,27.906822,-82.758784,RVT
Consignment Sales Of Idaho,2417 Caldwell Blvd,Nampa,Idaho,83651,43.587749,-116.620338,RVT
Cooleys RVs,22307 Diesel Dr,McCalla,Alabama,35111,33.284352,-87.094878,RVT
Corinth RV,1511 Highway 72 W,Corinth,Mississippi,38834,34.917111,-88.571777,RVT
Cornwall Camping Centre Inc.,2525 Brookdale Ave,Cornwall,Ontario,K6J 5X9,45.041205,-74.763748,RVT
Corral Sales RV Superstore,617 6th Ave SE,Mandan,North Dakota,58554,46.742723,-100.9353,RVT
Coulee Region RV Center,W3262 County Rd B,West Salem,Wisconsin,54669,43.911245,-91.083899,RVT
Council Cup Trailer Sales,175 Ruckle Hill Rd,Wapwallopen,Pennsylvania,18660,41.097733,-76.062014,RVT
Country Camper - East Montpelier,1498 U.S. Rte 2,East Montpelier,Vermont,05651,44.282307,-72.489262,RVT
Country Camper - Epsom,2060 Dover Rd,Epsom,New Hampshire,03234,43.204812,-71.348563,RVT
Country Camper Sales Ltd.,699 Route 505,Stainte Anne-de Kent,New Brunswick,E4S 1J9,46.417061,-64.924143,RVT
Country Campers,County Road V,Lake Mills,Wisconsin,53551,43.081815,-88.91565,RVT
Country Camping RV,3101 10 Ave SW,Salmon Arm,British Columbia,V1E 3K1,50.692666,-119.32943,RVT
Country Creek RV Center,7696 US 49,Hattiesburg,Mississippi,39402,31.333704,-89.419175,RVT
Country Line Campers,12131 Bernard Pkwy,Gulfport,Mississippi,39503,30.474612,-89.152878,RVT
Country Road RV,106 Main Ave E,Sundre,Alberta,T0M 1X0,51.642298,-114.781683,RVT
Country Roads Recreation,1651 NV-160,Pahrump,Nevada,89048,36.165343,-116.003323,RVT
Country Roads Recreation,5020 S Jetty Rd,Florence,Oregon,97439,44.090182,-124.048338,RVT
"Country Roads RV Sales & Service, LLC",7531 University Blvd E,Cottondale,Alabama,35453,33.163776,-87.389459,RVT
Country RV,12665 Co Hwy B,Chippewa Falls,Wisconsin,54729,44.945626,-91.392954,RVT
Country RV Service and Sales,38189 Co Rd 36,Seguin,Texas,80728,40.644866,-102.873872,RVT
Country Wide RV,6880 E Noyes St,Austin,Texas,85629,31.917849,-111.019049,RVT
Countryside RV,8061 N 19th Ave W,Colfax,Iowa,50054,41.690374,-93.233338,RVT
Countryside RV Sales,9618 US-271,Gladewater,Texas,75647,32.514634,-94.953287,RVT
Courtenay Car Centre Ltd.,12 5th St,Courtenay,British Columbia,V9N 3N7,49.69384,-124.992792,RVT
"Courtesy RV, Inc.",1921 NW 6th St,Redmond,Oregon,97756,44.283326,-121.216724,RVT
Courvelle RV,3629 Interstate 49 South Service Rd,Opelousas,Louisiana,70570,30.533657,-92.104961,RVT
Cousin Gary's RV Center,5460 Westside Rd,Redding,California,96001,40.601778,-122.454973,RVT
Cousin Terrys RV,4532 AZ-95,Fort Mojave,Arizona,86426,35.007773,-114.569324,RVT
Cowell Auto & RV Centre,2918 Walker Rd,Windsor,Ontario,N8W 3R3,42.290053,-82.986487,RVT
"Crabtree RV Center, Inc.",400 Heather Ln,Alma,Arkansas,72921,35.477101,-94.196225,RVT
"Craft's Trading Center, Inc.",10566 S Washington Ave,Marshfield,Wisconsin,54449,44.63843,-90.208401,RVT
Crazy Horse Trailer Sales,3 S Railway St,Okotoks,Alberta,T1S 1B1,50.722037,-113.955862,RVT
CRC RV - Fredericton,2984 Woodstock Rd,Fredericton,New Brunswick,E3C 1P9,45.96419,-66.68003,RVT
CRC RV - Moncton,46713 Homestead Rd,Salisbury,New Brunswick,E1G 4H8,46.085035,-64.992474,RVT
CRC RV - Truro,231 Truro Heights Rd,Truro Heights,Nova Scotia,B6L 1X2,45.3594039,-63.3182284,RVT
Creative RV - California,14740 Ramona Ave,Chino ,California,91710,34.004468,-117.684697,RVT
Crestview RV - Georgetown,5560 North Interstate 35 Frontage Road,Georgetown,Texas,78626,30.657897,-97.617886,RVT
Crestview RV Superstore,16473 I-35 N,Selma,Texas,78154,29.547159,-98.262598,RVT
"Crestwood RV Center, Inc.",181 Marbledale Rd,Tuckahoe,New York,10707,40.960533,-73.822732,RVT
Crisp RV Center,2042 Hwy 17,Chocowinity,North Carolina,27817,35.447982,-77.072002,RVT
Cropper Motors,501 5 Ave,Naicam,Saskatchewan,S0K 2Z0,52.39286,-104.728723,RVT
Crossroads RV,5240 Yellowstone Ave,Chubbuck,Idaho,83202,42.925511,-112.182742,RVT
"Crowder RV Center, Inc.",4533 Bristol Hwy,Johnson City,Tennessee,37601,36.338162,-82.318108,RVT
Cumberland Homes,5900 McFarland Blvd,Northport,Alabama,35476,33.22747,-87.591277,RVT
"Cummins Bridgeway, LLC",21810 Clessie Ct,Township,Michigan,48165,42.501565,-83.616922,RVT
Cunningham Campers & RVs,2200 Addmore Ln,Clarksville,Indiana,47129,38.313141,-85.768453,RVT
Cuno Trailer Sales,110 W Bell St,Montgomery City,Missouri,63361,38.965146,-91.552972,RVT
Curren RV Sales,1365 Pennsylvania Ave,Pine City,New York,14871,42.039595,-76.911364,RVT
Curtis Camper Sales,7050 11th Ave SW,Rochester,Minnesota,55902,43.971218,-92.507094,RVT
Custom Connection,55 W Irving Park Rd,Roselle,Illinois,60172,41.97985,-88.089628,RVT
Cypress RV Sales,7402 Cypress Gardens Blvd,Winter Haven,Florida,33884,27.97848,-81.672447,RVT
D & L's RV Center,3820 US-97,Wenatchee,Washington,98801,47.423594,-120.336633,RVT
D & M Trailers Plus,12315 Northland Dr NE,Cedar Springs,Michigan,49319,43.230088,-85.527902,RVT
D&K RV Sales,1906 180th Ave,Canby,Minnesota,56220,44.732106,-96.295236,RVT
D&M RV sales ,1227 SW 29th St,Oklahoma city ,Oklahoma,73109,35.433138,-97.524548,RVT
Dakota RV,3831 Deadwood Ave #9676,Rapid City,South Dakota,57702,44.048284,-103.420467,RVT
Dale Smith's Camper Sales,1648 PA-36,Brookville,Pennsylvania,15825,41.174822,-79.034223,RVT
Dale's Camping Center,3000 W Pullen Ave,Pine Bluff,Arkansas,71601,34.17938,-91.892483,RVT
Dalton RV,801 E Walnut Ave A,Dalton,Georgia,30721,34.788636,-84.916082,RVT
Dan's Mechanical,1658 Main St,Vancouver,British Columbia,V6A 2W8,49.270849,-123.100735,RVT
Dandy RV Sales,2772 US Hwy 78 E Ste 1,Oxford,Alabama,36207,33.680317,-85.709537,RVT
Darren Bideaux RV,1448 W 2100 S St,Ogden,Utah,84401,41.212012,-112.034564,RVT
Dave Arbogast RV Depot,3500 S Co Rd 25A,Troy,Ohio,45373,40.032528,-84.194575,RVT
Dave Coggins Auto & RV Sales,9865 Nova Scotia Trunk 1,Meteghan,Nova Scotia,B0W 2Z0,44.2643127441406,-66.1162567138672,RVT
Dave's Claremore RV,24655 U.S. Rt. 66,Claremore,Oklahoma,74019,36.284765,-95.603194,RVT
Dave's RV Center,2 Industrial Plaza Rd,Danbury,Connecticut,06810,41.374284,-73.457611,RVT
Davis Motorhomes,1145 E Brooks Rd,Memphis,Tennessee,38116,35.033181,-90.011396,RVT
Day Bros RV of Georgia,5355 Mill Store Rd,Lake Park,Georgia,31636,30.730986,-83.111372,RVT
Dean's RV Superstore,9005 E Skelly Dr,Tulsa,Oklahoma,74129,36.126019,-95.871602,RVT
DeKo RV LLC,203 Hopkins St,Victoria,Texas,77901,28.804947,-96.984711,RVT
Delmarva RV,702 Milford Harrington Hwy,Milford,Delaware,19963,38.943253,-75.362567,RVT
Delta RV,2450 Toste Rd,Tracy,California,95377,37.673944,-121.517227,RVT
Deluxe Auto Caravane Inc.,3105 Av. du Pont S,Alma,Quebec,G8B 5V2,48.530717,-71.596012,RVT
Dennis Auto Sales,801 New Baldwin Rd,New Athens,Illinois,62264,38.315762,-89.900151,RVT
Dennis Trailer Sales,5226 N Grand River Ave,Lansing,Michigan,48906,42.788043,-84.589443,RVT
Dennis' RV Repair,3100 W Russell St,Sioux Falls,South Dakota,57107,43.59762,-96.820415,RVT
Dependable RV Service,18262 Gothard St Suite 2,Huntington Beach,California,92648,33.67901,-118.014603,RVT
"Dewalt's RV, Inc.",2867 Nazareth Rd,Easton,Pennsylvania,18045,40.69345,-75.272796,RVT
Diamond RV,1080 9th St,San Bernardino,California,92410,34.107379,-117.297547,RVT
Diamond RV Center,188 West St,West Hatfield,Massachusetts,01088,42.391709,-72.646494,RVT
"Dick's RV & Sport Shop, Inc.",W 6719,Durand,Wisconsin,54721,44.633744,-92.082731,RVT
"Diesel Machinery, Inc.",4301 N Cliff Ave,Sioux Falls,South Dakota,57104,43.604785,-96.707425,RVT
Dillon's RV City,10310 E Apache Trail,Apache Junction,Arizona,85120,33.402386,-111.567878,RVT
Direct Automotive LLC,4810 US-74,Monroe,North Carolina,28110,35.066044,-80.509089,RVT
Discount RV,14179 US-169,Oologah,Oklahoma,74053,36.430563,-95.731724,RVT
Dixie RV Superstore,513 Muller Ln,Newport News,Virginia,23606,37.064408,-76.521638,RVT
DJ's Auto & RV Sales and Rentals,4738 S 131st Rd,Bolivar,Missouri,65613,37.636902,-93.396427,RVT
"DJ's RV Sales, Service & Parts",3640 US-50,Moundhouse,Nevada,89701,39.129024,-119.725281,RVT
DLM-Distribution,490 Scott St,Lake Crystal,Minnesota,56055,44.128471,-94.23528,RVT
DNK Select Cars & Trucks,530 Maine Ave,Farmingdale,Maine,04344,44.260548,-69.827805,RVT
DNL Recreation,3731 8th St S,Wisconsin Rapids,Wisconsin,54494,44.340837,-89.73492,RVT
Dobson's Camper Sales,150 Old US 68,Campbellsville,Kentucky,42718,37.385228,-85.373081,RVT
Dodge City Homes & RV,6200 S Old Indiana 37,Bloomington,Indiana,47401,39.102306,-86.442835,RVT
Dolney RV Center,1171 S Huron Rd,Kawkawlin,Michigan,48631,43.688645,-83.995895,RVT
Don Mar RV of South Carolina,265 Pudding Swamp Rd,Lynchburg,South Carolina,29080,34.012164,-80.085577,RVT
Don Steves RV Center,29671 N Dixie Ranch Rd,La Habra,California,70445,30.375351,-89.910291,RVT
Don's Cars,301 TX-3 N,League City,Texas,77573,29.503785,-95.0873,RVT
Don's RV Center - Ceres - Modesto,4872 Rohde Rd,Ceres,California,95307,37.554269,-120.951523,RVT
Double J RV Sales,9683 Palm Rd,Chatham,Illinois,62629,39.677477,-89.716922,RVT
Doug's Recreation,116 Cougle Rd,Sussex Corner,New Brunswick,E4E 2S6,45.72019,-65.4674,RVT
Doug's RV Center,111 Dougs Rd,Duncan,Oklahoma,73533,34.505317,-97.865916,RVT
DR Auto Extras,465 Broadway St E,Yorkton,Saskatchewan,S3N 4B2,51.212046,-102.443777,RVT
Drew's RV Tech's,1601 S U.S. Hwy 41,Ruskin,Florida,33570,27.6904,-82.460081,RVT
Drews RV Techs,1601 S U.S. Hwy 41,RUSKIN,Florida,33570,27.6904,-82.460081,RVT
Driftwood RV Center,1975 US-9,Clermont,New Jersey,08210,39.12175,-74.83443,RVT
"Dufour's RV Center, Inc.",650 John Fitch Hwy,Fitchburg,Massachusetts,01420,42.584925,-71.816862,RVT
Duncan RV Repair,3100 Co Rd 6,Elkhart,Indiana,46514,41.722641,-85.976908,RVT
Dune Sport Toy Haulers,8940 E Main St,Mesa,Arizona,85207,33.454586,-111.637972,RVT
Durnell's RV Sales,530 N Main St,Lakeview,Ohio,43331,40.517943,-83.921643,RVT
Dylans RV Center,2190 Delsea Dr,Sewell,New Jersey,08080,39.757432,-75.121872,RVT
E J RV & Auto Sales,3852 US Hwy 63,West Plains,Missouri,65775,36.700074,-91.858053,RVT
Eagle Canyon Sales,1802 E Pikes Peak Ave,Colorado Springs,Colorado,80909,38.853475,-104.775218,RVT
"Eagle Crest Homes, Inc.",2318 Kent Ave,Grand Island,Nebraska,68803,40.956077,-98.414575,RVT
Eagle Ridge RV Center,14694 US-27,Lake Wales,Florida,33859,27.872695,-81.626401,RVT
Eagle RV Center,729 MD-3,Baltimore,Maryland,21054,39.040252,-76.685822,RVT
Earl's Lake Country RV's,2601 S 32nd St,Muskogee,Oklahoma,74401,35.723078,-95.4677,RVT
Earlton RV,332442 ON-11,Earlton,Ontario,P0J 1E0,47.727967,-79.950753,RVT
Easley Camper Sales,4628 Calhoun Memorial Hwy,Easley,South Carolina,29640,34.87771,-82.575421,RVT
East Acres RV,10 Cape Rd,Mendon,Massachusetts,01756,42.09387,-71.544519,RVT
East Bay RV & Motorsports,2348 Kitty Hawk Rd,Livermore,California,94551,37.750502,-121.749055,RVT
East Coast Campers & More,35502 Parker Rd,Frankford,Delaware,19945,38.505064,-75.228872,RVT
East County Motors,13606 Hwy 8 Business,Lakeside,California,92040,32.908915,-116.891975,RVT
East Tennessee Luxury Coach,126 Horne Dr D,Vonore,Tennessee,37885,35.476426,-84.132339,RVT
East Texas RV Sales,27072 US-96,Kirbyville,Texas,75956,30.676367,-93.98312,RVT
Eastgate RV,2801 E Harrison Ave,Corbin,Kentucky,78550,26.255523,-97.667502,RVT
Eastside RV,26288 Groesbeck Hwy,Warren,Michigan,48089,42.468096,-82.993857,RVT
Eastside RVs Inc.,1200 E US HWY 14-16,Gillette,Wyoming,82716,44.464635,-105.695059,RVT
Easy Camping RV,1643 S G Ave,Nevada,Iowa,50201,42.041723,-93.434905,RVT
Echo3,329 Santa Fe Dr,Denver,Colorado,80223,39.695794,-105.003843,RVT
Ed Voyles CDJ,789 Cobb Pkwy SE,Marietta,Georgia,30060,33.926431,-84.541629,RVT
Edmundson RV Sales & Service,14501 US-31,Edinburgh,Indiana,46124,39.370017,-85.92791,RVT
Edward's Garage,4403 42 Ave,Rocky Mountain House,Alberta,T4T 1A6,52.36736,-114.924699,RVT
Ehler's RV,70 Upper Main St,Essex Junction,Vermont,05452,44.538624,-73.050223,RVT
Ehrhardt's Trailer Sales,776 W Oakton St,Des Plaines,Illinois,60018,41.979388,-87.894358,RVT
El Monte RV - Ferndale,5242 Pacific Hwy,Ferndale,Washington,98248,48.864419,-122.619419,RVT
Eldorado RV,711 2A Avenue N,Lethbridge,Alberta,T1H 0E1,49.70165,-112.836726,RVT
Elite RV & Trailers Ltd.,740 Meridian Rd NE,Calgary,Alberta,T2A 2N7,51.05702,-114.001034,RVT
Elite RV Rental,305 Kentucky St,Louisville,Kentucky,40065,38.2165,-85.206928,RVT
Elkhart Sales & Service,27895 Co Rd 10 ste b,Elkhart,Indiana,46514,41.722641,-85.976908,RVT
Elliott's Custom Trailers,3955 Corridor Dr,Warsaw,Indiana,46582,41.280602,-85.854448,RVT
Endless Summer RV's,7633 Devilbiss Bridge Rd,Frederick,Maryland,21701,39.443557,-77.332934,RVT
Enterprise RV,3837 BC-97,Kelowna,British Columbia,V1X 5C3,49.917649,-119.387901,RVT
Escape Trailer Industries,43851 Industrial Way,Chilliwack,British Columbia,V2R 4L2,49.1451615,-122.0101025,RVT
Esquire RV,1285 W 600 S,Vernal,Utah,84078,40.627601,-109.480061,RVT
Etnoyer's RV World,576 2nd St,Highspire,Pennsylvania,17034,40.20861,-76.785533,RVT
Evans RV Center,7671 OH-73,Wilmington ,Ohio,45177,39.460731,-83.844295,RVT
Evergreen Lake Sales,703 Center Rd,Conneaut,Ohio,44030,41.896637,-80.585178,RVT
Evergreen RV Center,1710 N Interstate 35 Frontage Rd,New Braunfels,Texas,78130,29.693556,-98.07285,RVT
Ewald's Airstream of Wisconsin,6269 S 108th St,Franklin,Wisconsin,53132,42.883879,-88.011548,RVT
Ewing RV,1287 E Michigan Ave,Battle Creek,Michigan,49014,42.314556,-85.106213,RVT
Exit 1 RV Center,1210 Prospect St,Fair Haven,Vermont,05743,43.67733,-73.304926,RVT
Explorer RV Rental,152 S Wall St,Port Saint Lucie,Florida,45177,39.460731,-83.844295,RVT
Extreme SportChassis,2,Rdlands,California,92373,34.011953,-117.159699,RVT
EZ RV SUPERCENTER,880 Boones Station Rd,Johnson City,Tennessee,37615,36.402425,-82.45718,RVT
Factory Direct Marine & RV - Ridgeland,401 Sycamore Dr,Ridgeland,South Carolina,29936,32.482042,-80.971987,RVT
Fame RV Center,18568 US Highway 6 And,Saegertown,Pennsylvania,16433,41.737079,-80.140914,RVT
Family Campers,1010 Safari Camp Rd,Lebanon,Tennessee,37090,36.11174,-86.299189,RVT
Family Camping Outlet,1809 W High St,Pottstown,Pennsylvania,19464,40.258928,-75.615861,RVT
"Family Camping Service Center, Inc.",13600 I-27,Amarillo,Texas,79119,35.109084,-102.017887,RVT
Family Fun RV - 82nd Ave,333 SE 82nd Ave,Portland ,Oregon,97216,45.513887,-122.558403,RVT
Family Fun RV - Columbia Blvd,58209 Columbia River Hwy,Portland,Oregon,97051,45.875701,-122.949006,RVT
Family RV - Ontario,1510 Auto Center Dr Suite B,Ontario,California,91761,34.035602,-117.591528,RVT
Family RV - Pomona,1510 Auto Center Dr Suite B,Pomona,California,91761,34.035602,-117.591528,RVT
Family RV Center,5140 NY-31,Newark,New York,14513,43.086308,-77.092116,RVT
"Farber Motors, Inc.",7052 Americana Pkwy,Columbus,Ohio,43068,39.956185,-82.784665,RVT
"Farnsworth Camping Center, Inc.",279 N Market St,Elysburg,Pennsylvania,17824,40.852378,-76.505339,RVT
Fast Toys For Boys,200 Herb Nelson Rd,Davidson,Saskatchewan,S0G 1A0,51.366874,-105.997311,RVT
Featherlite Coaches,1007 Obici Industrial Blvd,Suffolk,Virginia,23434,36.703003,-76.592105,RVT
Ferguson RV World,1249 Talbot St,St. Thomas,Ontario,N5P 1G9,42.778383,-81.150479,RVT
"Ferraro Ford, Inc.",10120 W Main St,North East,Pennsylvania,16428,42.171464,-79.831488,RVT
Field of RV Dreams,45 Kingsview Rd SE,Calgary,Alberta,T4A 0A8,51.333668,-113.920285,RVT
Field of RV Dreams,45 Kingsview Rd SE,Airdrie,Alberta,T4A 0A8,51.333668,-113.920285,RVT
Fife RV Center,3410 Pacific Hwy E,Fife,Washington,98424,47.235341,-122.354192,RVT
"Findlay RV Center, Inc.",4530 Boulder Hwy,Las Vegas,Nevada,89121,36.121526,-115.091277,RVT
"Finnegans' RV Center, Inc.",1777 Gardner St,Beloit,Wisconsin,61080,42.481345,-88.983833,RVT
Fir Grove RV Park,5541 NE 72nd Ave.,Portland,Oregon,97218,45.576236,-122.600873,RVT
Fireweed RV Rentals,3713 S Lathrop St,Fairbanks,Alaska,99701,67.094545,-149.336012,RVT
First Auto Credit,2990 Old Orchard Rd,Jackson,Missouri,63755,37.439458,-89.6408,RVT
Five Star RVs,12202 Brighton Rd,Everett,Washington,80640,39.887453,-104.880987,RVT
Flagg RV - Uxbridge,865 Quaker Hwy,Uxbridge,Massachusetts,01569,42.05593,-71.631232,RVT
Flagg RV - West Boylston,66 W Boylston St,West Boylston,Massachusetts,01583,42.369417,-71.785036,RVT
Flagship RV,Clermont,Clermont,Florida,34715,28.631016,-81.726055,RVT
Flagship RV - Ocala,7677 S,Ocala,Florida,34480,29.102401,-82.096588,RVT
Flint Hills RV,1523 W Ledgerwood Rd,Andover,Kansas,67002,37.700947,-97.107258,RVT
Florence RV Consignment,4390 US-101,Florence,Oregon,97439,44.090182,-124.048338,RVT
Florida Outdoors RV - Okeechobee,4300 US-441,Okeechobee,Florida,34974,27.145973,-80.949686,RVT
Florida Outdoors RV - Sebring,2651 US Hwy 27 S,Sebring,Florida,33870,27.506929,-81.408456,RVT
Florida Outdoors RV - Stuart,1160 SE Federal Hwy,Stuart,Florida,34994,27.200948,-80.257153,RVT
Florida RV Center,8611 N Palafox St,Penascola,Florida,32534,30.528939,-87.281718,RVT
Fogdall RV,7805 Ace Pl,Cedar Falls,Iowa,50613,42.53138,-92.485808,RVT
Foley RV Center,11063 US 49,Gulfport,Mississippi,39503,30.474612,-89.152878,RVT
For Travel For Living Inc ,3470 Hwy 17 N,Kathleen,Florida,33830,27.87343,-81.812659,RVT
Forest City Motorhomes,4292 Dundas St,London,Ontario,N0M 2P0,43.103872,-81.136046,RVT
Forest Lake Auto Truck & Trailer Sales,356 19th St SW,Forest Lake,Minnesota,55025,45.263234,-93.022024,RVT
Forrest Marine & RV Center,426 Middlesex Rd,Tyngsboro,Massachusetts,01879,42.667762,-71.42882,RVT
Forrest Motorhome Specialist,5411 I-35W,Hammond,Louisiana,76009,32.414937,-97.200076,RVT
"Fort Campers and Truck Sales, Inc.",8623 Frankfort Hwy,Fort Myers,Florida,26719,39.482791,-78.774834,RVT
Fort Walton Beach RV Brokers,1740 US-98,Mary Esther,Florida,32569,30.410287,-86.731484,RVT
"Fortman's Auto & RV, Inc.",207 E Water St,Street Kalida,Ohio,45853,40.985266,-84.1985,RVT
Foster's RV & Trailer Sales,920 Adams Rd,Dawson Creek,British Columbia,V1G 5A5,55.739417,-120.224636,RVT
Fountain RV,8345 FL-33,Lakeland,Florida,33809,28.221336,-81.973942,RVT
"Four Seasons Auto & RV, Inc.",30 Green Earth Ave,Johnston,Rhode Island,02919,41.82744,-71.519879,RVT
Four Seasons RV Acres Inc,2502 Mink Rd,Abilene,Kansas,67410,38.956476,-97.21909,RVT
Four Seasons RV Service & Sales,2867 Nazareth Rd,Hagerstown,Maryland,18045,40.69345,-75.272796,RVT
"Four Seasons RV, Inc.",3310 NC-87,Hwy Sanford,North Carolina,27332,35.384704,-79.137215,RVT
Four Seasons Sales,350 Trans-Canada Hwy #1,Virden ,Manitoba,R0M 2C0,49.741586,-100.986663,RVT
Four Wheel Campers,1400 Churchill Downs Ave Suite A,Woodland,California,95776,38.698614,-121.699262,RVT
"Fox Trailers,Inc. ",646 N Pleasant View Rd,Post Falls,Idaho,83854,47.71934,-116.967308,RVT
"Francis Ft. Myers Truck, Auto, & RV Land, Inc.",2850 Colonial Blvd,Fort Myers,Florida,33966,26.591622,-81.830726,RVT
Frank and Sons Auto,1890 Hwy 17,Lake Alfred,Florida,33850,28.122376,-81.73266,RVT
Frank Dunn Trailer Sales,205 S Industrial Dr,Prince Albert,Saskatchewan,S6V 7L7,53.181262,-105.743851,RVT
Franklin's Big Country RV Outlet,6662 I-20,Abilene,Texas,79601,32.576489,-99.665323,RVT
Fraserway RV,536 Kingsview Way SE,Airdrie,Alberta,T4A 0B3,51.333668,-113.920285,RVT
Fraserway RV - Ontario,5362 Simcoe County Rd 27,Ontario,Ontario,L0L 1L0,44.19208,-79.622988,RVT
Fraserway RV Centre Ltd.,9039 Quartz Rd,Whitehorse,Yukon,Y1A 4Z5,60.737444,-135.078993,RVT
Fraserway RV LP,726 Rocky Lake Dr,Bedford,Nova Scotia,B4A 2T7,44.745037,-63.636478,RVT
Fraserway RV LP,30440 South Fraser Way,Abbotsford,British Columbia,V2T 6L4,49.051203,-122.367637,RVT
"Fred's RV Service, Inc.",466 NH-11,Farmington,New Hampshire,03835,43.372559,-71.08326,RVT
Fredson RV,1201 N Harbor Blvd,Santa Ana,California,92703,33.747155,-117.907326,RVT
"Freedom Luxury Coaches, LLC",2720 W Dublin Granville Rd,Columbus,Ohio,43235,40.118363,-83.027626,RVT
Freedom Marine & RV,790 NW 1st Ave,Deerfield Beach,Florida,33441,26.311098,-80.097874,RVT
"Freedom Outdoors, Inc.",185 S Lowder St # 101,Macclenny,Florida,32063,30.247669,-82.112978,RVT
Freedom RV & Marine,19651 E Cataldo Ave,Liberty Lake,Washington,99016,47.597285,-117.121042,RVT
Freedom RV Center,1080 W Terra Ln,O'Fallon,Missouri,63366,38.857443,-90.725492,RVT
Freedom RV Rentals,360 Travelers Rd,Freedom,Pennsylvania,16637,40.341102,-78.467242,RVT
Fremont RV,2405 Cornhusker Dr,South Sioux City,Nebraska,68776,42.467422,-96.44705,RVT
Fretz RV,3479 Bethlehem Pike,Souderton,Pennsylvania,18964,40.30347,-75.337889,RVT
Front Range RV,13388 Circle Dr,Scotch Grove,Iowa,52205,42.119724,-91.286273,RVT
Full Throttle Sports & Lesiure,1025 Brighton Blvd,Saskatoon,Saskatchewan,S7V 0Y4,52.1262746,-106.5533106,RVT
Fun Country RVs & Marine,8800 S Desert Blvd,Anthony,Texas,79821,31.980053,-106.598777,RVT
Fun Time Camper,9702 Pendleton Pike,Indianapolis,Indiana,46236,39.895722,-85.967501,RVT
Fun Town RV Purcell,25513 Johnson Ave,Purcell,Oklahoma,73080,34.99489,-97.479879,RVT
Fun-N-Sun RV - Coopersville,1291 W Randall St,Coopersville,Michigan,49404,43.063438,-85.952185,RVT
Fun-N-Sun RV - Ludington,66 N Dennis Rd,Ludington,Michigan,49431,43.985802,-86.406481,RVT
"Funquest RV Rentals, LLC",8103 E 45th St #100,Indianapolis,Indiana,46226,39.838896,-86.052485,RVT
Funtime RV LLC,9211 N 9th Ave suite b,Phoenix,Arizona,85021,33.559421,-112.092875,RVT
G&T Beaver Inc. dba Beaver Camper,721 Springfield St,Feeding Hills,Massachusetts,01030,42.072925,-72.686972,RVT
GA RV Sales LLC,686 GA-293,Emerson,Georgia,30137,34.126177,-84.761354,RVT
Galbreath Motor Company/Prestige RVs,3075 Pulaski Rd,New Castle,Pennsylvania,16105,41.057828,-80.340829,RVT
Gander RV - Atlanta,2289 Rock Quarry Rd E,Buford,Georgia,30519,34.087437,-83.944991,RVT
Gander RV - Augusta,145 Mason McKnight Jr Pkwy,Augusta,Georgia,30907,33.523809,-82.085688,RVT
Gander RV - Bartow,7400 E State Rd 60,Bartow,Florida,33830,27.87343,-81.812659,RVT
Gander RV - Baxter,14275 Edgewood Dr N #100,Baxter,Minnesota,56425,46.343935,-94.276015,RVT
Gander RV - Dekalb,350 W Lincoln Hwy,Cortland,Illinois,60112,41.924797,-88.690186,RVT
Gander RV - Denver,9870 W 48th Ave,Wheat Ridge,Colorado,80033,39.772675,-105.104801,RVT
Gander RV - Dothan,2961 Ross Clark Cir,Dothan,Alabama,36301,31.140065,-85.398289,RVT
Gander RV - Forest Lake,14640 W Freeway Dr,Forest Lake,Minnesota,55025,45.263234,-93.022024,RVT
Gander RV - Gulf Breeze,6242 Gulf Breeze Pkwy #98,Gulf Breeze,Florida,32563,30.396949,-87.028472,RVT
Gander RV - Huber Heights,8001 Old Troy Pike,Huber Heights,Ohio,45424,39.843141,-84.10963,RVT
Gander RV - Jackson,1523 Vann Dr,Jackson,Tennessee,38305,35.701654,-88.768058,RVT
Gander RV - Madison,6199 E Metro Dr,Deforest,Wisconsin,53532,43.250204,-89.326329,RVT
Gander RV - Marion,2480 Blue Heron Dr,Marion,Illinois,62959,37.718218,-88.910435,RVT
Gander RV - Nashville,2614 Music Valley Dr,Nashville,Tennessee,37214,36.162189,-86.670867,RVT
Gander RV - North Little Rock,6721 Warden Rd,Sherwood,Arkansas,72120,34.902043,-92.240819,RVT
Gander RV - Oklahoma City,4901 S Anderson Rd,Oklahoma City,Oklahoma,73150,35.401238,-97.329876,RVT
Gander RV - Oxford,2772 US Hwy 78 E Ste 1,Anniston,Alabama,36207,33.680317,-85.709537,RVT
Gander RV - Redding,3750 Automall Dr,Anderson,California,96007,40.458029,-122.27783,RVT
Gander RV - Roanoke,8198 Gander Way,Roanoke,Virginia,24019,37.346523,-79.95358,RVT
Gander RV - Rothschild,1560 County Rd XX,Rothschild,Wisconsin,54474,44.873714,-89.61975,RVT
Gander RV - St. Augustine,600 Outlet Mall Blvd,St Augustine,Florida,32084,29.918419,-81.367545,RVT
Gander RV - Statesville,1220 Morland Dr,Statesville,North Carolina,28677,35.738099,-80.926089,RVT
Gander RV - Tyler,151 Market Square Blvd,Tyler,Texas,75703,32.235097,-95.320779,RVT
Gander RV - West Hatfield,188 West Street Route 5,West Hatfield,Massachusetts,01088,42.391709,-72.646494,RVT
Gander RV - Wichita ,3864 S Oak St,Wichita,Kansas,67217,37.618074,-97.362465,RVT
Gardner's RV & Trailer Center - Great Falls,3928 Tri Hill Frontage Rd,Great Falls,Montana,59404,47.631766,-111.32887,RVT
Gardner's RV & Trailer Center - Kalispell,3100 U.S. 93 S,Kalispell,Montana,59901,48.229649,-114.385053,RVT
Garvin's RV,205 Duke Dr,Aiken,South Carolina,29801,33.588993,-81.697037,RVT
Gary's Freeway RV,1168 E 990 S,South Eden,Idaho,83325,42.587877,-114.240846,RVT
Gary's Trailer Sales Inc.,52233 Co Hwy 44,Des Moines,Iowa,56470,47.0275,-95.098576,RVT
Gateway Airstream at Bill Thomas Camper Sales,101 Thomas RV Way,Wentzville ,Missouri,63385,38.796985,-90.857245,RVT
Gateway RV & Marine,1377 W Idaho St,Chehalis,Washington,89801,41.247991,-115.761405,RVT
Gause RV Center,501 Sunnyside Shores Rd,Hiawassee,Georgia,30546,34.898796,-83.696585,RVT
"Gauthiers' RV Center, Inc.",124 N Ambassador Caffery Pkwy,Lafayette,Louisiana,70583,30.261065,-92.123656,RVT
Generation Motors,6360 Holmes Ave,Los Angeles,California,90001,33.974027,-118.249509,RVT
Get Out and Go RV,623 S Dixie Hwy,Hoopeston,Illinois,60942,40.46538,-87.661377,RVT
Get-Away RV,33743 King Rd,Abbotsford,British Columbia,V2S 7M9,49.031249,-122.290421,RVT
Geweke Ford RV,1130 S Cherokee Ln,Lodi,California,95240,38.114388,-121.144658,RVT
Giant Recreation World,1355 Culver Dr NE #1178,Palm bay,Florida,32907,28.020804,-80.681247,RVT
Gibbs Outdoor and Recreation,8362 Hwy 6,Waco,Texas,76712,31.526544,-97.261231,RVT
Gillette's Interstate RV,7210 E Saginaw St,East Lansing,Michigan,48823,42.764051,-84.459938,RVT
Gilliland Trailer Sales,2710 IN-9,Columbus,Indiana,47203,39.230403,-85.83216,RVT
Gimme Shelter Ltd.,635605 ON-10,Shelbourne,Ontario,L9V 0Z7,44.0110846,-80.1200932,RVT
Gist RV MV Sales & Services,2524 Hwy 44 W,Inverness,Florida,34453,28.873782,-82.335157,RVT
Glacier Hill Lakes Inc.,11675 Wapak-Freyburg Rd,Wapakoneta,Ohio,45895,40.577695,-84.154664,RVT
Glenwood RV Centre,502 Cynthia St,Saskatoon,Saskatchewan,S7L 7K7,52.163235,-106.67094,RVT
GNR Camping World,1370 Dugald Rd,Winnipeg,Manitoba,R2J 0H2,49.885755,-97.056834,RVT
Go Play RV Center,18776 State Hwy 155,Flint,Texas,75762,32.218319,-95.413426,RVT
Go Uncle Ben's RV & Marine,5 Energy Blvd,Red Deer,Alberta,T4E 0A8,52.232762,-113.713259,RVT
Golden's RV,710 Rock Creek Canyon Rd Suite 200,Colorado Springs,Colorado,80926,38.634733,-104.903006,RVT
Goldies Trailer Sales LLC,12175 SD-34,Whitewood,South Dakota,57793,44.525368,-103.578762,RVT
Gonnasons Boats & RV,307 Central Ave S,Kent,Washington,98032,47.391942,-122.257192,RVT
Good Time RV,1330 US-90,Dayton,Texas,77535,30.054493,-94.92209,RVT
Good Times Unlimited,165 Wilton Rd,Farmington,Maine,04938,44.661856,-70.103104,RVT
Gooding RV Center,1601 E Expressway 83,Mission,Texas,78572,26.229223,-98.37545,RVT
Goody's Resort & RV Park,Rt. 21222,Flemington,Missouri,65650,37.813994,-93.441928,RVT
Goos RV,26036 466th Ave,Hartford,South Dakota,57033,43.617972,-96.960938,RVT
Grand Am RV,147 Mastic Rd,Mastic Beach,New York,11951,40.763164,-72.830344,RVT
Grande Prairie Honda,13116 100 St,Grande Prairie,Alberta,T8V 4H9,55.196464,-118.795079,RVT
Grayson Motor Company,2264 Rosebud Rd,Grayson,Georgia,30017,33.890533,-83.961879,RVT
Great Alaskan Hol,9800 Old Seward Hwy,Anchorage,Alaska,99515,61.116381,-149.890375,RVT
Great Alaskan Holiday,9800 Old Seward Hwy,Anchorage,Alaska,99515,61.116381,-149.890375,RVT
"Great American RV Center, Inc.",5959 Pacific Hwy E,Fife,Washington,98424,47.235341,-122.354192,RVT
Great Canadian RV (Napanee),15 Commercial Ct,Napanee,Ontario,K7R 4A2,44.260639,-76.960685,RVT
Great Canadian RV (Oshawa),7960 Hwy 7,Oshawa,Ontario,K9J 6X3,44.333924,-78.397627,RVT
Great Escape RV Center,17335 US Hwy 19 N,Clearwater,Florida,33764,27.934474,-82.740109,RVT
Great Escape RV Center,17335 US Hwy 19 N,Tampa,Florida,33764,27.934474,-82.740109,RVT
Great Lakes Recreational,39 Veterans Dr Suite 310,Coopersville,Michigan,49423,42.743806,-86.083703,RVT
Great North RV Inc.,9800 Old Seward Hwy,Edmonton,Alberta,99515,61.116381,-149.890375,RVT
"Great Outdoors Recreation Center, The",1122 County Rte 57,Fulton,New York,13069,43.329276,-76.380655,RVT
"Great Time RV's, Inc.",3850 Burns Rd,PALM BEACH GARDENS,Florida,33410,26.845662,-80.08735,RVT
"Greater Northwest Vacation, Camping & RV Show",10410 Brockton Ln N,Maple Grove,Minnesota,55311,45.106403,-93.497029,RVT
Green Country RV Doctor,14193 US-169,Oologah,Oklahoma,74053,36.430563,-95.731724,RVT
Greeneway RV,8220 State Hwy 13,Wisconsin Rapids,Wisconsin,54494,44.340837,-89.73492,RVT
Greenlawn RV - Chillicothe,7804 US-23,Chillicothe,Ohio,45601,39.31206,-82.957071,RVT
Greenlawn RV - Columbus,575 Greenlawn Ave,Columbus,Ohio,43223,39.928446,-83.034658,RVT
Greenlawn RV - Lockbourne,1390 Duvall Rd,Lockbourne,Ohio,43137,39.80884,-82.987481,RVT
Greenlight RV LLC,810 W O. Ezell Blvd,Spartanburg,South Carolina,29301,34.934028,-82.010697,RVT
Greenwood RV Rentals & Sales,415 Park 800 Dr ste a,Greenwood,Indiana,46143,39.59586,-86.116319,RVT
Greg's RV Place,1421 Island Hwy E,Nanoose Bay,British Columbia,V9P 9A3,49.263679,-124.204112,RVT
Grizzly Mountain Auto & RV LLC,1265 NE 3rd St,Prineville,Oregon,97754,44.15964,-120.585505,RVT
Guarantee RV,34 Commercial Dr,Calgary,Alberta,T3Z 2A7,51.085183,-114.345189,RVT
"Gunter's RV Sales and Service, Inc.",1763 US-64,East Vilonia,Arkansas,72173,35.100101,-92.211144,RVT
Gustine's RV Sales & Service,71 Mott Hill Rd,Hampton,Connecticut,06424,41.560603,-72.502329,RVT
"H & S Mobile RV Service, Inc.",5209 Thackeray Dr,Fayetteville,North Carolina,28306,34.958495,-78.896848,RVT
Hall Motorhome Rental,6680 I-30 Frontage Rd,Royse City,Texas,75189,32.942051,-96.31166,RVT
Halls RV,9184 US-431,Albertville,Alabama,35950,34.24975,-86.261097,RVT
Hampton RV & Trailer Sales,54 Hampton House Rd,Newton,New Jersey,07860,41.056547,-74.819113,RVT
Handy Camping Center,4387 US-421,Wilkesboro,North Carolina,28697,36.134008,-81.165721,RVT
Hank Bright RV,2109 Industrial Park Rd,Rock Falls,Illinois,61071,41.724673,-89.698867,RVT
Hanna Trailer ,7575 S Howell Ave,Oak Creek,Wisconsin,53154,42.878693,-87.898676,RVT
Hanner RV Supercenter,1788 I-20 Frontage Rd,Baird,Texas,79504,32.335802,-99.350571,RVT
Hanson RV,905 6 Ave S,Warman,Saskatchewan,S0K 4S0,52.318635,-106.585146,RVT
Happy Camper RV,Highway S. & 48th St. W #2,Prince Albert,Saskatchewan,S6V 6V4,53.293566,-105.709002,RVT
Happy Camper RV Ltd.,4624 2 Ave,Edson,Alberta,T7E 1C1,53.587836,-116.412613,RVT
"Happy Camper RV Rentals, LLC",7668 El Camino Real Suite # 104-441,Kensington,Connecticut,92009,33.09547,-117.243882,RVT
Happy Camper RV Sales - Boise,4770 W Chinden Blvd,Boise,Idaho,83714,43.73272,-116.288769,RVT
Happy Camper RV Sales - Nampa,5803 Cleveland Blvd,Nampa,Idaho,83607,43.709411,-116.750541,RVT
Happy Campers,21036 US-231,Fountain,Florida,32438,30.501235,-85.424174,RVT
Happy Camping RV,8089 State Rte 3,Vermontville,New York,12989,44.520103,-74.069774,RVT
Happy Daze RV - Gilroy,6290 Monterey Hwy,Gilroy,California,95020,37.018419,-121.554249,RVT
Happy Daze RV - Livermore,5605 Southfront Rd,Livermore,California,94551,37.750502,-121.749055,RVT
Happy Daze RV - Sacramento,1199 E El Camino Ave,Sacramento,California,95815,38.605407,-121.447593,RVT
Happy Trails RV,15211 100 St,Grande Prairie,Alberta,T8V 7C2,55.207684,-118.792659,RVT
Happy Trails RV Center Inc,18256 Campground Rd,Phillipsburg,Missouri,65722,37.582915,-92.805465,RVT
Happy Trails RV Rentals,8421 Knox Bridge Hwy,Mattoon,Illinois,30114,34.247838,-84.524468,RVT
Happy Trails RV Sales,3675 Broad St,Sumter,South Carolina,29154,33.879261,-80.440418,RVT
"Happy Trails RV, Inc.",641 S Main St,Lumberton,Texas,77657,30.227897,-94.197036,RVT
Happy Trails USA RV Supercenter,2315 I-30,Rockwall,Texas,75087,32.943901,-96.452875,RVT
"Harolds RV Center, Inc.",7514 Beth Bath Pike,Pike Bath,Pennsylvania,18014,40.764431,-75.409221,RVT
"Harper Camperland, Inc",1200 10th St,Great Bend,Kansas,67530,38.352059,-98.794484,RVT
Harrison Motor Company,1528 Kennedy Home Rd,Kinston,North Carolina,28504,35.224563,-77.634868,RVT
"Hart City RV Center, LLC",2301 S Nappanee St,Elkhart,Indiana,46517,41.62729,-85.997855,RVT
"Hart Trailer Sales, Inc.",22783 U. S. Hwy 71,Long Prairie,Minnesota,56347,45.96669,-94.872044,RVT
Hart's R V,5200 Harrison Ave,Butte,Montana,59701,46.035043,-112.47572,RVT
"Hartville RV Center, Inc.",540 Prospect Ave S #9403,Hartville,Ohio,44632,40.963232,-81.313031,RVT
"Hasting's Motor Sales, Inc./Dykeman's Camper Place",909 W J St,Hastings,Nebraska,68901,40.59161,-98.372728,RVT
Hatfield RV,50 Troutman Rd,Delaware,Ohio,43015,40.297786,-83.060181,RVT
Haus of Trailers,8285 Highland Rd,White Lake,Michigan,48386,42.660223,-83.47999,RVT
Hawaii Campers,670 Piilani St,Hilo,Hawaii,96720,19.65981,-155.232473,RVT
Hawkeye Boat & RV Sales,2385 Kerper Blvd,Dubuque,Iowa,52001,42.545527,-90.695841,RVT
Hawley's Camping Center,5117 US-301,South Hope Mills,North Carolina,28348,34.914974,-78.92702,RVT
Hayden's RVs,8910 Burge Ave,Richmond,Virginia,23237,37.400878,-77.449054,RVT
Haydocy Airstream & RV,3865 W Broad St,Columbus,Ohio,43228,39.966129,-83.125346,RVT
Hayes RV Center,5009 Judson Rd,Longview,Texas,75605,32.582243,-94.725529,RVT
Haylett RV,891 E Chicago St,Coldwater,Michigan,49036,41.90548,-85.031277,RVT
Hensley RV Sales,5400 US-72,Killen,Alabama,35645,34.903048,-87.500965,RVT
Herman's Trailer Sales,690 E River Rd,Walton,New York,13856,42.171041,-75.183316,RVT
Herold Trailer Sales,1806 W 2nd Ave,Indianola,Iowa,50125,41.335185,-93.584634,RVT
HGR's Truck & Trailer Sales,4519 Marracco Dr,Hope Mills,North Carolina,28348,34.914974,-78.92702,RVT
"Hi-Way Campers, Inc.",992 Norwich Rd,Plainfield,Connecticut,06374,41.681892,-71.910965,RVT
Hickory Enclosed Trailer Sales,3665 Springs Rd NE,Hickory,North Carolina,28601,35.772393,-81.326659,RVT
Hickory Hill Lakes,7103 OH-66,Loramie,Ohio,45845,40.331338,-84.382544,RVT
Hide-Away R.V. Corporation,7839 E 250 S,Pierceton,Indiana,46562,41.208342,-85.684898,RVT
Hiemstra Trailer Sales Ltd.,493 Third St,London,Ontario,N5V 2C1,43.009433,-81.188805,RVT
Highview Truck & RV,1307 220th St,Webster City,Iowa,50595,42.461417,-93.822578,RVT
Highway 31 RV Sales,10521 State Hwy 31 W,Malakoff,Texas,75148,32.126221,-96.02413,RVT
Hill's RV Inc.,1267 S Bradford Rd,Reese,Michigan,48757,43.469859,-83.676311,RVT
"Hillcountry RV, Inc.",1400 US-281,Marble Falls,Texas,78654,30.581216,-98.208732,RVT
Hills RV's,1571 E Main St,Hwy Conway,New Hampshire,03813,44.127402,-71.060836,RVT
Hillsdale Travel Center,104 Broadway,Hillsdale,Michigan,07642,41.007127,-74.045119,RVT
Hilltop Camper & RV - Brainerd,7324 Novotny Rd N,Brainerd,Minnesota,56401,46.322919,-94.12521,RVT
HIlltop Camper & RV - Rochester,1240 Lake Shady Ave S,Rochester,Minnesota,55960,44.140242,-92.535165,RVT
Hilltop Camper & RV - Twin Cities,7810 University Ave NE,Fridley,Minnesota,55432,45.096702,-93.253726,RVT
Hilltop RV Superstore - Escanaba,2401 12th Ave N,Escanaba,Michigan,49829,45.765202,-87.131724,RVT
Hilltop RV Superstore - Ishpeming,600 US Hwy 41,Ishpeming,Michigan,49849,46.432711,-87.756405,RVT
Hit The Road RV,5111 Waring Rd,San Diego,California,92120,32.794714,-117.071764,RVT
Hitch n' Go RV Inc,43 Arnold Sayeau Dr,Delhi,Ontario,N4B 2W9,42.855205,-80.494833,RVT
Hitch RV,127 NJ-73,Turnersville,New Jersey,08009,39.760656,-74.93286,RVT
"Holden Family RV, Inc.",128 Main Rd,Holden,Maine,04429,44.72116,-68.617002,RVT
Holiday RV,10132 US-50,Poncha Springs,Colorado,81242,38.508149,-106.075489,RVT
Holiday RV Super Centre,1800 South Highway Dr SE,Redcliff,Alberta,T0J 2P2,50.075762,-110.78656,RVT
"Holiday RV's, Inc.",100099 Overseas Hwy,Key Largo,Florida,33037,25.228322,-80.395451,RVT
Holiday World - Mesquite,4630 I-30,Mesquite,Texas,75150,32.817399,-96.630416,RVT
Holiday World of Katy,28909 Katy Fwy,Katy,Texas,77494,29.740677,-95.829652,RVT
Holiday World of Las Cruces,1285 Avenida de Mesilla,Las Cruces,New Mexico,88005,32.258348,-106.823126,RVT
Holiday World of League City,1231 Gulf Fwy S,League City,Texas,77573,29.503785,-95.0873,RVT
Homestead RV Center,6700 Belmont Ave,Hubbard,Ohio,44420,41.177714,-80.682148,RVT
Honda Magic,1240 2 St W,Brooks,Alberta,T1R 1P7,50.586761,-111.897154,RVT
Hood RV,3504 Deere Rd SE,Decatur,Alabama,35603,34.535452,-86.971226,RVT
"Hopper RV, Inc.",298 Moeller Rd,Jacksonville,Illinois,62650,39.734542,-90.223047,RVT
Horizon Lussier,1155 Rang de l'Ã‰glise,Marieville,Quebec,J3M 1N9,45.434871,-73.183366,RVT
Horn Auto and RV Sales,15385 Olde Hwy 80,El Cajon,California,92021,32.838798,-116.869956,RVT
Horn Rapids RV,2451 Henderson Loop,Richland,Washington,99354,46.331677,-119.299782,RVT
Houlton Power Sports & RV Center,381 North St,Houlton,Maine,04730,46.191023,-67.860968,RVT
House of Camping,8424 S Harlem Ave,Bridgeview,Illinois,60455,41.742093,-87.808649,RVT
Howard RV Center,6811 Market St,Wilmington,North Carolina,28405,34.263182,-77.86638,RVT
Hub City RV,7357 Industrial Rd,Nanoose Bay,British Columbia,V0R 2H0,49.25425,-124.107714,RVT
Huber Bannister Chevrolet,933 Westminster Ave W,Penticton,British Columbia,V2A 1L1,49.497635,-119.605648,RVT
"Huffy's Trailer Sales, Inc.",2419 PA-88,Finleyville,Pennsylvania,15332,40.240216,-79.993473,RVT
Hughes Camper Sales,19184 Lee Hwy,Abingdon,Virginia,24210,36.768935,-82.027531,RVT
Hughes RV Works,431139 19 Line,Orangeville,Ontario,L9W 7E4,43.916197,-80.103196,RVT
Humphrey RV,2749 US-50,Grand Junction,Colorado,81503,39.029808,-108.434076,RVT
Humphrey RV - Montrose,4088 N Townsend Ave,Montrose,Colorado,81401,38.484153,-107.772919,RVT
Hunt's Auto Sales LLC,165 SE 3rd St,Ontario,Oregon,97914,44.113619,-117.084162,RVT
Hunter RV Center,9889 OK-66,Sapulpa,Oklahoma,74066,35.993142,-96.164294,RVT
Hunter's RV Sales,602 Titus St # 130,Gilmer,Texas,75644,32.791213,-94.999846,RVT
"Hutton's RV Center, Inc.",5376 Hutton Dr,Urbana,Iowa,52345,42.245556,-91.901472,RVT
Hyde's RV & Boats,64 Blue Barns Rd,Rexford,New York,12148,42.827793,-73.848164,RVT
I 44 RV,15151 E Skelly Dr,Tulsa,Oklahoma,74116,36.188756,-95.842573,RVT
"I-49 Trailer & RV, Inc.",7205 LA-1,Boyce,Louisiana,71409,31.310753,-92.689221,RVT
I-5 RV Sales & Service,347 Myrtle St,Sutherlin,Oregon,97479,43.39035,-123.208305,RVT
I-5 Uhlmann RV,1001 SW Interstate Ave,Chehalis,Washington,98532,46.62629,-123.052671,RVT
I90 Motors & RV,8810 Sundance Dr,Billings ,Montana,59101,45.613054,-108.390305,RVT
Ideal RV,4764 AR-5,Mountain Home,Arkansas,72653,36.342381,-92.38543,RVT
Imperial Camper Sales,1156 Hastings Ave,Newport,Minnesota,55055,44.874458,-92.998692,RVT
Imperial RV Center,1727 S Ankeny Blvd,Ankeny,Iowa,50023,41.730271,-93.634978,RVT
Indian Shores RV,7880 Indian Shores Rd,Woodruff,Wisconsin,54568,45.95805,-89.653069,RVT
Indian Valley Camping Center,3400 Bethlehem Pike,Pike Souderton,Pennsylvania,18964,40.30347,-75.337889,RVT
Infinity Motors,490 Peachtree St,Cocoa,Florida,32922,28.372999,-80.742906,RVT
"Integrity RV, Inc.",6516 NY-22,Plattsburgh,New York,12901,44.70419,-73.471392,RVT
"Interlake RV Sales, Inc.",428 Lake Dr,Rhinebeck,New York,12572,41.924885,-73.863664,RVT
Intermountain Coach,3204 E Platte Ave,Colorado Springs,Colorado,80909,38.853475,-104.775218,RVT
Intermountain Motor Homes & RV Camp,1894 N Frontage Rd,Wendell,Idaho,83355,42.757435,-114.722206,RVT
Intermountain Motorhomes,1894 N Frontage Rd,Wendell,Idaho,83355,42.757435,-114.722206,RVT
International RV Wholesalers,2300 S Nappanee St,Elkhart,Indiana,46517,41.62729,-85.997855,RVT
International RV World - Bay City,2717 E Delta Rd,Bay City,Michigan,48706,43.599622,-83.950504,RVT
International RV World - Mt. Pleasant,2717 E Delta Rd,Mount Pleasant,Michigan,48706,43.599622,-83.950504,RVT
International RV World Inc.,2300 S Nappanee St,Elkhart,Indiana,46517,41.62729,-85.997855,RVT
Interstate RV Sales & Service,401 US-51,Poynette,Wisconsin,53955,43.406614,-89.416632,RVT
Islander RV Sales & Rentals Ltd,260 Paddy's Pond Rd,St John's,Newfoundland,A1H 0B5,47.487129,-52.858739,RVT
IWS Motor Coaches,3190 Industrial Way,Mountain Home,Idaho,83647,43.400748,-115.522903,RVT
"J & J Camper Sales, Inc.",1501 IL-5,Moline,Illinois,61244,41.522559,-90.390822,RVT
"J & L RV Rentals, Inc.",172 Red Barn Rd,Columbia Falls,Montana,59912,48.408842,-114.154162,RVT
J & S Services,5430 N Hwy 146,Baytown,Texas,77523,29.789523,-94.859125,RVT
J's Adventures LLC,8837 Magnolia Ave,San Diego,California,92071,32.852358,-116.987842,RVT
"J. D. Sanders, Inc.",12380 NW US Hwy 441,Alachua,Florida,32615,29.819084,-82.486161,RVT
Jack Sisemore Traveland,14501 I-27,Amarillo,Texas,79119,35.109084,-102.017887,RVT
Jack's Campers Sales,1313 W Norway Ave,Mitchell,South Dakota,57301,43.713759,-98.047697,RVT
Jacobs Motorsports,2201 Stephens Dr,Tucker,Georgia,30084,33.854097,-84.216155,RVT
JAG Motorsports ,9810 Courthouse Rd,Spotsylvania,Virginia,22553,38.271202,-77.649295,RVT
Janesville RV Center,1710 U.S. 14 Business,Janesville,Wisconsin,53545,42.738737,-89.040222,RVT
JAX RVS ,3526 Lenox Ave,Jacksonville,Florida,32254,30.340961,-81.734788,RVT
JD's RV Outlet,378 N Minnewawa Ave,Clovis,California,93612,36.814864,-119.710596,RVT
JD's RVs,6684 Whitmore Lake Rd # C,Whitmore Lake,Michigan,48189,42.412336,-83.782854,RVT
Jeff Couch's RV Nation,5555 Kennel Rd,Hamilton,Ohio,45067,39.494819,-84.480997,RVT
"Jeff's RV, Inc.",4415 Megan Ct NW,Marion,Iowa,52405,41.983384,-91.746369,RVT
Jerry's Campers,118 Arnold Blvd,Abilene,Texas,79605,32.434599,-99.781827,RVT
Jerry's RV Trailer Sales,9384 Commercial St,New Minas,Nova Scotia,B4N 3E9,45.0678192,-64.4444585,RVT
JH Wholesale,551 CA-49,Sutter Creek,California,95685,38.434483,-120.761659,RVT
"Jim Dennies, Inc.",6302 Ritchie Hwy,Glen Burnie,Maryland,21061,39.161942,-76.629444,RVT
JIM SHORKEY AUTO GROUP,12900 US-30 Suite 1,N. huntingdon,Pennsylvania,15642,40.318382,-79.723736,RVT
Jim's RV Center,209 Spring St,Sayre,Pennsylvania,18840,41.971552,-76.534965,RVT
Jim's Trailer Sales,11920 Avon Belden Rd,Grafton,Ohio,44044,41.266284,-82.04179,RVT
"Jimco Trailer Sales, Inc.",640 NC-150,Hancock,Maryland,27455,36.187509,-79.817677,RVT
Jimmy Walker Auto & RV Sales,6134 Masonic Dr,Alexandria,Louisiana,71301,31.274156,-92.467107,RVT
Jody's RV,1425 SC-72 221 E,Greenwood,South Carolina,29649,34.238919,-82.145019,RVT
Joe's Marine Inc.,209 Spring St,Sayre,Pennsylvania,18840,41.971552,-76.534965,RVT
Johnnie Walker RV #1,3700 Boulder Hwy,Las Vegas,Nevada,89121,36.121526,-115.091277,RVT
Johnnie Walker RV Center #3,3700 Boulder Hwy,Las Vegas,Nevada,89121,36.121526,-115.091277,RVT
Johnny's RVs,3266 Level Green Rd,Corbin,Kentucky,40701,36.921744,-84.15771,RVT
Johnson Family RV,2798 Carrollton Pike,Woodlawn,Virginia,24381,36.729989,-80.840655,RVT
Johnston RV Country,2311 State Rte 21,Palmyra,New York,14522,43.061423,-77.220399,RVT
Johnston RV Country,784 Ridge Rd,Webster,New York,14580,43.217283,-77.444534,RVT
Jones RV,34 Gypsy Dr,Eighty Four,Pennsylvania,15330,40.179368,-80.089973,RVT
"Joplin's RV Sales, Inc.",4301 S Rangeline Rd,Phoenix,Arizona,64804,37.021691,-94.510899,RVT
JTS RV,7222 S Pere Marquette Hwy Exit 158,Pentwater,Michigan,49449,43.793624,-86.388577,RVT
Juniata Valley RV,285 Industrial Cir,Mifflintown,Pennsylvania,17059,40.589162,-77.391073,RVT
"K & C RV Centers, LLC",16000 W Colfax Ave,Golden,Colorado,80401,39.718726,-105.236031,RVT
"Kadco RV Sales, Service &Rentals",1214 US-130,Robbinsville,New Jersey,08691,40.208731,-74.592097,RVT
Kamper City,5549 Akron Cleveland Rd,Peninsula,Ohio,44264,41.22961,-81.540017,RVT
Kamper Korner LLC,295 State Rd S-38-686,Orangeburg,South Carolina,29115,33.477386,-80.849144,RVT
"Kamper Korner of Cleveland, Inc.",3158 US-129,Cleveland,Georgia,30528,34.621918,-83.79462,RVT
Kamper's Korner,14615 Palmdale Rd,Victorville,California,92392,34.480247,-117.408184,RVT
Kamper's Supply,400 Plaza Dr,Carterville,Illinois,62918,37.789529,-89.088131,RVT
Kansas RV Center,3939 S Ross Ln #4003,Chanute,Kansas,66720,37.64833,-95.45719,RVT
Karolina Koaches Inc,601 Shiloh Rd,Piedmont,South Carolina,29673,34.715864,-82.45552,RVT
Kastco RV,3 Lincoln Ave W,Cranford,New Jersey,07027,40.651249,-74.323137,RVT
"KB RV Center, Inc.",4610 Scribner Rd NW,Bemidji,Minnesota,56601,47.507374,-94.863994,RVT
KC RVs,148 NE Mcquerry Rd,Grain Valley,Missouri,64029,39.005925,-94.216381,RVT
Keepers RV Center,19989 584th Ave,Mankato,Minnesota,56001,44.128125,-93.97899,RVT
Kehoe RV Ltd.,3010 Idylwyld Dr N,Saskatoon,Saskatchewan,S7L 5Y6,52.175053,-106.669748,RVT
Keith Whitaker RV Center,6420 I-35,New Braunfels,Texas,78132,29.758817,-98.191068,RVT
Kelders Trailer Sales Inc.,9921 Lakeshore Rd,Grand Bend ,Ontario,N0M 1T0,43.314967,-81.749506,RVT
Kelowna RV's,1780 Byland Rd,West Kelowna,British Columbia,V1Z 1A9,49.8609342,-119.5890514,RVT
"Ketelsen RV, Inc.",1500 Ketelsen Dr,Marion,Iowa,52233,42.04677,-91.686869,RVT
Kieffer's RV Sales,1404 Benjamin Franklin Hwy,Douglassville,Pennsylvania,19518,40.270211,-75.752511,RVT
King's Campers,224701 Lilac Ave,Wausau,Wisconsin,54401,44.963304,-89.704051,RVT
Kingston RV Centre,548 Gardiners Rd,Kingston,Ontario,K7M 3X9,44.257631,-76.568403,RVT
Kitsmiller RV,1211 N Cedar St,Mason,Michigan,48854,42.581698,-84.451612,RVT
Klein Motors & RVs,1209 S Belt Hwy,St. Joseph,Missouri,64507,39.728509,-94.763541,RVT
Klines Auto World & RV Center,2001 E Thirteen Mile Rd,Warren,Michigan,48092,42.513593,-83.058938,RVT
Knight Dodge Chrysler Jeep,208 Cheadle St W,Swift Current,Saskatchewan,S9H 0B5,50.283393,-107.803329,RVT
Knott's RV Center,11024 Bluffton Rd,Fort Wayne,Indiana,46809,40.998405,-85.205235,RVT
Knoxville Coach and RV,14395 Hickory Creek Rd,Lenoir City,Tennessee,37771,35.840726,-84.321728,RVT
"Koebel Improvements, LLC",602 Vine St,West Bend,Wisconsin,53095,43.38963,-88.158004,RVT
Koppy Motors,320 Fire Monument Rd,Hinckley,Minnesota,55037,46.038859,-92.785172,RVT
Kountry Rhode RV & Auto Center,624 French St,Peshtigo,Wisconsin,54157,45.040575,-87.821437,RVT
Kramer's Kampers,5780 IL-173,Beach Park,Illinois,60099,42.459988,-87.865021,RVT
Kroubetz Lakeside Campers,351 MN-60,Lake Crystal,Minnesota,56055,44.128471,-94.23528,RVT
Kuhl's Trailer Sales,1023 N 500th St,Ingraham,Illinois,62434,38.842047,-88.321795,RVT
Kustom Koach RV Centre,26875 Fraser Hwy,Aldergrove,British Columbia,V4W 3E4,49.0589907,-122.4815208,RVT
KY RV Sales,1200 McCoy Ave,Madisonville,Kentucky,42431,37.334473,-87.481387,RVT
L.J. Patterson Sales & Service Ltd.,766 N Napan Rd,Miramichi,New Brunswick,E1N 4W7,47.01877,-65.405806,RVT
L.M. Cossette Inc.,325 Rue Vachon,Trois-RiviÃ¨res,Quebec,G8T 8P6,46.369223,-72.556243,RVT
"Lafayette Travel Trailer Sales, Inc.",2651 Schuyler Ave,Lafayette,Indiana,47905,40.420015,-86.766044,RVT
Lajeunesse V.R. Inc.,1890 Bd Saint-Antoine,St-JÃ©rome,Quebec,J7Z 7M2,45.770421,-73.973079,RVT
Lake Boyz RV Sales,SK-2,Prince Albert,Saskatchewan,S6V 5R3,53.353527,-105.846188,RVT
Lake Country RV,7717 Lake May Rd NW,Walker,Minnesota,56484,47.093135,-94.468008,RVT
"Lake Country RV Sales and Service, Inc.",964 WI-73 South,Wisconsin Rapids,Wisconsin,54494,44.340837,-89.73492,RVT
Lake Region RV,1002 U.S. Rte 2,Devils Lake,North Dakota,58301,48.141947,-98.871697,RVT
Lake View RV,63020 Sunny Valley Rd,Owen Sound,Ontario,N4K 5N6,44.594929,-80.918103,RVT
Lakeshore Autos,96 S Waverly Rd,Holland,Michigan,49423,42.743806,-86.083703,RVT
Lakeside RV,3207 SC-24,Anderson,South Carolina,29626,34.460802,-82.756514,RVT
Lakeview RV Centre,63020 Sunny Valley Rd,Owen Sound,Ontario,N4K 5N6,44.594929,-80.918103,RVT
Lakota RV,219 Main St,Lakota,North Dakota,58344,48.027839,-98.341509,RVT
Lancaster County RV,122 Prospect Rd,Salunga,Pennsylvania,17538,40.082629,-76.414548,RVT
Land and Sea RV,310 E Steel St,Seymour,Missouri,65746,37.14619,-92.778195,RVT
Land Ark RV,777 Buckhorn Dr,Buena Vista,Colorado,81650,39.751037,-108.113722,RVT
Larry's R.V.,8669 Mason Dr,Newaygo,Michigan,49337,43.423029,-85.718784,RVT
Larry's RV,2987 S Hwy 97,Redmond,Oregon,97756,44.283326,-121.216724,RVT
Larry's RV Center,2501 Lansing Ave,Jackson,Michigan,49202,42.267179,-84.41085,RVT
Larry's Trailer Sales,3757 State Highway 148 North,Zeigler,Illinois,62865,37.972104,-89.080092,RVT
Layzee Acres Park & RV Sales,5516 ON-12,Sebright,Ontario,L3V 6H7,44.58372,-79.349251,RVT
Leach Camper Sales,2727 Cornhusker Hwy,Lincoln,Nebraska,68504,40.854478,-96.660184,RVT
"Leach Camper Sales, Inc.",1629 Veterans Memorial Hwy,Council Bluffs,Iowa,51501,41.227277,-95.878439,RVT
Leale's RV and Fleet Center,2070 S 7th St A,San Jose,California,95112,37.344482,-121.883535,RVT
Lee's Campers,47 33rd St SE,Mason City,Iowa,50401,43.153169,-93.19982,RVT
Lee's Country RV,7211 E St Rd,Batesville,Indiana,47006,39.291996,-85.215884,RVT
Lee's Family Trailer Sales & Service,480 Roosevelt Trail,Windham,Maine,04062,43.794689,-70.405329,RVT
Lee's RV Country,1059 1200 W,Orem,Utah,84057,40.314277,-111.710402,RVT
Legacy Housing LTD,4801 Mark IV Pkwy,Fort Worth,Texas,76106,32.816684,-97.359633,RVT
Legacy Recreation,5490 5th St,St. Clair,Missouri,63304,38.703508,-90.667522,RVT
Lehigh Gorge RV Sales & Campground,4585 State St,White Haven,Pennsylvania,18661,41.076379,-75.740724,RVT
Leisure Days RV Centre - Alexandria,3875 County Rd 34,Alexandria,Ontario,K0C 1A0,45.301001,-74.586118,RVT
Leisure Days RV Centre - Aylmer,2522 Cedar Creek Rd,Gatineau,Quebec,N0B 1E0,43.312125,-80.471713,RVT
Leisure Days RV Centre - Kingston,548 Gardiners Rd,Kingston,Ontario,K7M 3X9,44.257631,-76.568403,RVT
Leisure Days RV Centre - Kitchener,2522 Cedar Creek Rd,Ayr,Ontario,N0B 1E0,43.312125,-80.471713,RVT
Leisure Days RV Centre - Levis,2522 Cedar Creek Rd,Levis,Quebec,N0B 1E0,43.312125,-80.471713,RVT
Leisure Days RV Centre - Moncton,34 Silver Fox Dr,Salisbury,New Brunswick,E4J 3E2,46.037383,-65.041135,RVT
Leisure Days RV Centre - Pembroke,2009 Petawawa Blvd,Pembroke,Ontario,K8A 7H1,45.855503,-77.212306,RVT
Leisure Days RV Centre - Smiths Falls,165 Lombard St,Smiths Falls,Ontario,K7A 5B8,44.91691,-75.927795,RVT
Leisure Days RV Centre - Sudbury,670 Falconbridge Rd,Sudbury,Ontario,P3A 4S4,46.5152365,-80.9265445,RVT
Leisure Days RV Centre - Truro,45 Treaty Trail,Truro,Nova Scotia,B6L 1W3,45.3297185,-63.3042243,RVT
Leisure Days Travel Trailer,1354 E Vienna Rd,Road Clio,Michigan,48420,43.179103,-83.700508,RVT
"Leisure Life RV, Inc.",550 Sparrow Dr,Prospect,Kentucky,40165,37.973087,-85.672012,RVT
Leisure Time RV,1012 S Hopkins Ave,Titusville,Florida,32780,28.533319,-80.792029,RVT
Leisure Time Sales - Moncton,200 Price St,Moncton,New Brunswick,E1A 3R2,46.125187,-64.767196,RVT
Leisure Time Sales - Quispamsis,8 Leisure Dr,Quispamsis,New Brunswick,E2E 0T1,45.385716,-65.980719,RVT
"Leisure Tyme RV, Inc.",5565 W 9 Mile Rd,Pensacola,Florida,32526,30.499226,-87.365573,RVT
"Leisure Tyme RV, Inc.",135 E Miracle Strip Pkwy,Esther,Florida,32569,30.410287,-86.731484,RVT
Leisureland RV Centre Inc,126 Industrial Pl,Penticton,British Columbia,V2A 7C8,49.477849,-119.594027,RVT
Leo's Vacation Center Inc.,729 MD-3,Gambrills,Maryland,21054,39.040252,-76.685822,RVT
"Leonard Truck & Trailer, Inc.",12800 Leonard Pkwy,Jackson,Ohio,44451,41.079368,-80.868193,RVT
Lerch RV,70 Commerce Dr,Milroy,Pennsylvania,17063,40.761026,-77.484947,RVT
"Lewie's RV Center, Inc",7324 Novotny Rd N,Brainerd,Minnesota,56401,46.322919,-94.12521,RVT
Lewis Auto Sales & RV's,4640 Linden Ave,Dayton,Ohio,45432,39.739492,-84.085195,RVT
Lewis RV Center,1600 E Reno Ave,Oklahoma City,Oklahoma,73117,35.474862,-97.462502,RVT
"Lewis Street Trailer Sales, Inc.",9780 I-55 South Frontage Rd,Pasco,Washington,39170,32.111772,-90.330654,RVT
Liberty RV,330 N State Rte 291,Liberty,Missouri,64068,39.258315,-94.389653,RVT
Lifestyle RV,146 E Coury Ave,Mesa,Arizona,85210,33.389733,-111.843505,RVT
Link RV Center - Rice Lake,2700 Decker Dr,Rice Lake,Wisconsin,54868,45.525662,-91.707548,RVT
Little Valley RV Super Center,140 American Camper Rd,Prosperity,West Virginia,25880,37.878948,-81.207573,RVT
Lixxor Auto Sales,1520 El Camino Real,Belmont,California,94002,37.514352,-122.298896,RVT
Lloyd Bridges Traveland,1603 S Main St,Chelsea,Michigan,48118,42.312244,-84.03402,RVT
"Lloyd's I-10 RV Center, Inc.",7415 TX-62,Orange,Texas,77632,30.201442,-93.804542,RVT
Lloyd's Trailer Sales Inc,350 Twin City Hwy,Port Neches,Texas,77651,29.985971,-93.955847,RVT
"Lone Oak, Inc.",360 Norfolk Rd,Canaan,Connecticut,06024,42.012137,-73.274264,RVT
Lone Star RV Center,704 Edwards Dr A,Harker Heights,Texas,76548,31.050856,-97.644625,RVT
Lone Star RV Sales,14150 Gulf Fwy,Houston,Texas,77034,29.61951,-95.191644,RVT
Long View RV Superstores,27 Lawnacre Rd,Dover,Florida,06096,41.92763,-72.659703,RVT
Longs Peak Auto Sales,4730 S College Ave #108,Loveland,Colorado,80525,40.529861,-105.036641,RVT
Look No Further RV's,10905 SE Powell Blvd,Portland,Oregon,97266,45.482967,-122.557619,RVT
Lost Pines RV Rentals,Lost Pines RV Park,Bastrop,Texas,78602,30.12382,-97.32771,RVT
"Louisville RV Center, Inc.",2101 Outer Loop,Louisville,Kentucky,40219,38.137909,-85.692693,RVT
Lowe's RV,3124 N Lovington Hwy,Hobbs,New Mexico,88240,32.703782,-103.485066,RVT
Lundmark Campers,2236 US Hwy 63,Cumberland ,Wisconsin,54829,45.56665,-92.047243,RVT
Luxe Fifth Wheel,7960 Rodeo Trl #430,Mansfield,Texas,76063,32.57074,-97.144837,RVT
Luxe RV Center,21053 Devonshire St #206,Los Angeles,California,91311,34.293338,-118.603118,RVT
Luxury Motorhomes,7350 ON-15,Carleton Place,Ontario,K7C 3P2,45.087647,-76.08133,RVT
Luxury Vehicle Care,2660 SE Mailwell Dr,Milwaukie,Oregon,97222,45.440949,-122.618111,RVT
Lyle Bongard's RV Sales Ltd.,2984 Woodstock Rd,Fredericton,New Brunswick,E3C 1P9,45.96419,-66.68003,RVT
Lynden Sports Center,1016 O'Malley Dr,Coopersville,Michigan,49404,43.063438,-85.952185,RVT
M & M Camping Center,2960 W Jefferson Ave,Trenton,Michigan,48183,42.131459,-83.217792,RVT
M and N Camper Sales,5905 Veterans Memorial Hwy,Scottsville,Kentucky,42164,36.775664,-86.181864,RVT
M&M Camping Center,2960 W Jefferson Ave,Trenton,Michigan,48183,42.131459,-83.217792,RVT
M&P RV LLC,10 Century Ln,Dillsburg,Pennsylvania,17019,40.094022,-77.022058,RVT
M's RV Sales & Service,9691,Berlin,Vermont,05602,44.274953,-72.609475,RVT
M.A.C. Caravane Inc.,1275 Boulevard des Laurentides,Laval,Quebec,H7M 2Y2,45.587064,-73.711076,RVT
M.T. Caravane Inc.,844-A Rue J.-Ambroise-Craig,St-Nicolas,Quebec,G7A 2N2,46.707344,-71.298344,RVT
Mac RV Sales,4075 NE Three Mile Ln,Mcminnville,Oregon,97128,45.211917,-123.282091,RVT
Mack's Camper Sales,403 Robinson Dr,Waco,Texas,76706,31.475671,-97.083854,RVT
Maddox Motor Co. & RV Sales,564 Glover Rd,Sidney,Nebraska,69162,41.129228,-103.016632,RVT
Maddox RV,13900 Telegraph Rd,Taylor,Michigan,48180,42.225283,-83.267691,RVT
Madison RV Supercenter,9311 Madison Blvd,Madison,Alabama,35758,34.711417,-86.74651,RVT
"Magnolia RV Center, Inc.",5410 Chattahoochee Ind Park,Cumming,Georgia,30041,34.204626,-84.100357,RVT
Main Street RV,10934 E Apache Trail,Apache Junction,Arizona,85120,33.402386,-111.567878,RVT
Mainline RV,415 SK-7,Rosetown,Saskatchewan,S0L 2V0,51.559261,-107.985421,RVT
Maitland Shores,657 Port Maitland Rd,Dunnville,Ontario,N1A 2W6,42.861191,-79.602311,RVT
Major's RV Service Center,150 MacArthur Blvd,Bourne,Massachusetts,02532,41.751759,-70.597552,RVT
Maloney's RV & Golf Centre,1382 Topsail Rd,Paradise,Newfoundland,A1L 2C5,47.51155,-52.90565,RVT
Manatee RV,1510 8th Ave W,Palmetto,Florida,34221,27.581094,-82.554803,RVT
Mann's R.V.,52 Barre Paxton Rd,Rutland,Massachusetts,01543,42.388285,-71.969865,RVT
"Mantelli Trailer Sales, Inc.",6865 S Transit Rd,Lockport,New York,14094,43.157758,-78.701995,RVT
Many Trails RV,6850 AZ-69,Prescott Valley,Arizona,86314,34.62599,-112.306211,RVT
Marble RV,67 Lundrigan Dr,Corner Brook,Newfoundland,A2H 6C3,48.968617,-58.040699,RVT
Marietta RV and Outdoor World,200 S 7th St,Marietta,Ohio,45750,39.429949,-81.422175,RVT
Marine World Inc,7979 W Kellogg Dr,Wichita,Kansas,67209,37.651239,-97.428543,RVT
"Marjee Mobile RV Services, LLC",6123 Morningcrest Ct,Missouri City,Texas,77389,30.123469,-95.517064,RVT
Marjon RVs Inc.,21155 Box Springs Rd,Moreno Valley,California,92557,33.97216,-117.258409,RVT
Mark Tuggle RV Center,5410 Chattahoochee Ind Park,Cumming,Georgia,30041,34.204626,-84.100357,RVT
Mark's RV,5935 W 225 N,Greenfield,Indiana,46140,39.801973,-85.772071,RVT
Mark's RV and Marine,9865 Nova Scotia Trunk 1,Churchville,New York,B0W 2Z0,44.2643127441406,-66.1162567138672,RVT
Mark's RV Sales,9865 Nova Scotia Trunk 1,Fort Myers,Florida,B0W 2Z0,44.2643127441406,-66.1162567138672,RVT
"Marlboro Tire & Automotive, Inc.",15204 Marlboro Pike,Upper Marlboro,Maryland,20772,38.780274,-76.76699,RVT
Marlette Chrysler RV,3800 S Van Dyke Rd,Marlette,Michigan,48453,43.348144,-83.032572,RVT
"Marshall RV, Inc.",14805 Michigan Ave,Marshall,Michigan,49068,42.276445,-84.939742,RVT
"Marshall's RV Centers, Inc. Canton",3063 Greensburg Rd,Canton,Texas,44720,40.903454,-81.433282,RVT
"Marshall's RV Centers, Inc. Kemp",9474 US-175,Kemp,Texas,75143,32.366686,-96.245039,RVT
"Mashburn's RV Center, Inc.",4100 Stadium Blvd,Jonesboro,Arkansas,72404,35.773862,-90.778838,RVT
Mastercraft RV Center,5400 Fort Campbell Blvd,Hopkinsville,Kentucky,42240,36.880182,-87.463142,RVT
Masters RV,104 Hwy 246 S,Greenwood,South Carolina,29649,34.238919,-82.145019,RVT
Maurice,1131 N Causeway Blvd #201,Mandeville,Louisiana,70471,30.407038,-90.063421,RVT
Max's Motorhome Center,706 N Center St,Casper,Wyoming,82601,43.05894,-106.439816,RVT
Maxie Price RV,4601 Atlanta Hwy,Loganville,Georgia,30052,33.815151,-83.893561,RVT
May's RV Inc.,1212 N Stemmons Fwy,Lewisville,Texas,75067,33.013546,-97.00016,RVT
Mayes Remarketing,48 N Railroad St,Whiteland,Indiana,46184,39.561936,-86.072222,RVT
Mayflower RV - Malvern,6598 AR-171,Malvern,Arkansas,72104,34.342042,-92.821803,RVT
Mayflower RV - Mayflower,71 Interstate Dr,Mayflower,Arkansas,72106,34.973989,-92.526078,RVT
Mayflower RV - Van Buren,5603 Alma Hwy,Van Buren,Arkansas,72956,35.466396,-94.350067,RVT
MB Thomas RV Sales,275 Lemay Ferry Rd,St. Louis,Missouri,63125,38.518452,-90.293514,RVT
McCants RV,2930 Hwy 61 South,Woodville,Mississippi,39669,31.121117,-91.383123,RVT
McCroskey Auto & RV,3842 TN-394,Bluff City,Tennessee,37618,36.460339,-82.208744,RVT
MCD RV Center,14 Iyanough Rd,W. Yarmouth,Massachusetts,02673,41.655712,-70.247044,RVT
McDowell RV,5860 N Lapeer Rd,North Branch,Michigan,48461,43.193661,-83.206162,RVT
McElroy Recreation Sales,Shelbyville,Shelbyville,Illinois,62565,39.411777,-88.804095,RVT
McGaugh RV Center,2650 Wagon Wheel Rd,Springdale,Arkansas,72762,36.18165,-94.23068,RVT
McGeorge's Rolling Hills RV Supercenter,11525 Sunshade Ln,Ashland,Virginia,23005,37.759696,-77.48187,RVT
McGoverns RV Centre,14525 100 St,Grande Prairie,Alberta,T8V 7C1,55.2074514,-118.7930599,RVT
McKay's RV Center,102 Main Rd,Holden,Maine,04429,44.72116,-68.617002,RVT
McKenzie RV Trailers,2 Cardico Dr,Gormley,Ontario,L4A 2G5,43.9538536,-79.3858133,RVT
McKinley Chevrolet & RV,212 E 4th St,Saint Ansgar,Iowa,50472,43.406746,-92.935316,RVT
McKinnish Camper Corner,4550 N Carson St,Carson City,Nevada,89706,39.222699,-119.701535,RVT
McNaughton Dodge Chrystler,22877 Hagerty Rd,Newbury,Ontario,N0L 1Z0,42.705921,-81.858658,RVT
McPhail's of Harriston,6332 Wellington County Rd 109,Harriston,Ontario,N0G 1Z0,43.912639,-80.87167,RVT
Media Camping Center,1243 W Baltimore Pike,Media,Pennsylvania,19063,39.92046,-75.416182,RVT
Meeks RV Center,25355 N Highway 99 East,Acampo,California,95220,38.200231,-121.235034,RVT
Mekkelsen RV & Trailer Sales,2419 U.S. Rte 2,Montpelier,Vermont,05651,44.282307,-72.489262,RVT
Mellott Brothers Trailer Sales,47 Lancaster Pike,Pike,Pennsylvania,17584,39.954448,-76.259838,RVT
Memory Lane Motors,2608 SE Holgate Blvd,Portland,Oregon,97202,45.482541,-122.643935,RVT
Meridian RV - 100 Mile House,5430 Industrial Flats Rd,100 Mile House,British Columbia,V0K 2E2,51.595788,-121.297816,RVT
Merritt Farm Equipt. Co. & RVs,1875 E Co Rd 2000,Carthage,Illinois,62321,40.409722,-91.095437,RVT
Mesa AZ Auto Sales,11201 E Apache Trail,Mesa,Arizona,85120,33.402386,-111.567878,RVT
Metra RV Center,850 US-87,Billings,Montana,59101,45.613054,-108.390305,RVT
Metro Motors,2727 S Campbell Ave,Springfield,Missouri,65807,37.167533,-93.324773,RVT
Miami Evergaldes KOA,20675 SW 162nd Ave,Miami,Florida,33187,25.595896,-80.506909,RVT
Michael Hohl RV Center,4500 N Carson St,Carson city,Nevada,89706,39.222699,-119.701535,RVT
Mid State Campers,1103 US-40,Vandalia,Illinois,62471,38.946188,-89.130148,RVT
MID STATE RV CENTER,131 Peachtree Pkwy,PO BOX 1330 BYRON,Georgia,31008,32.665346,-83.785924,RVT
"Mid State RV Sales, Inc.",131 Peachtree Pkwy,Nipomo,California,31008,32.665346,-83.785924,RVT
Mid-Coast RV Center,410 Lewiston Rd,Palermo,Maine,04086,43.964977,-69.955624,RVT
Mid-State Camper Sales,1103 US-40,Black Hawk,South Dakota,62471,38.946188,-89.130148,RVT
Middleton RV,3441 US-67,Festus,Missouri,63028,38.137919,-90.392182,RVT
Midland RV Sales,607 S Saginaw Rd,Midland,Michigan,48640,43.582166,-84.337227,RVT
Midway Auto & Marine,1775 US-310,Lovell,Wyoming,82431,44.840242,-108.164383,RVT
Midway Homes & RV,2601 E Highway 169,Grand Rapids,Minnesota,55744,47.234469,-93.50698,RVT
Midwest RV,2101 E Harlan Dr,Terre Haute,Indiana,47802,39.351016,-87.411897,RVT
Midwest RV Sales,13580 Wayzata Blvd,Minnetonka,Minnesota,55305,44.956374,-93.427997,RVT
Mike Jones Motors/RV,1777 OH-125,Hamersville,Ohio,45130,38.909438,-83.998661,RVT
Mike Jones Winnebago,400 Walmart Way,Eastnollee,Georgia,30538,34.500986,-83.263844,RVT
Mike Rosman RV Sales,6255 BC-97,Vernon,British Columbia,V1B 3R4,50.30333,-119.251529,RVT
"Miller Camper and Trailer Sales, Inc.",950 E 800 N,Spanish Fork,Utah,84660,40.121268,-111.695542,RVT
Miller Trailer Sales,293 W Dublin Pike,Perkasie,Pennsylvania,18944,40.389293,-75.234442,RVT
"Millican RV America, Inc.",6550 Co Rd 490,Sylacauga,Alabama,35077,34.021165,-86.832668,RVT
"Mills Motors, Inc.",4381 N Dixie Hwy,Pompano Beach,Florida,33064,26.278502,-80.1153,RVT
Minard's Leisure World,921 Government Rd S,Weyburn,Saskatchewan,S4H 3R3,49.661464,-103.875924,RVT
Minneapolis Trailer Sales,12975 George Weber Dr,Rogers,Minnesota,55374,45.175548,-93.575531,RVT
Minor's RV & Marina,1412 N Franklin Blvd,Nampa,Idaho,83687,43.609971,-116.529134,RVT
Mitchell's RV Center,580 Satterwhite Point Rd,Henderson,North Carolina,27537,36.371801,-78.397878,RVT
MJ Mimbach Trailers,759 Mayhew Lake Rd NE,St. Cloud,Minnesota,56304,45.530416,-94.057176,RVT
Mo Great Dane Trailer Sales,404 S Cool Springs Rd,O'Fallon,Missouri,63366,38.857443,-90.725492,RVT
Mobile Medical,811 County Rd 2076,Newton,Texas,75966,30.827969,-93.714446,RVT
Mobile Trailer Repair Service 1998 Inc.,853 Topsail Rd,Mount Pearl,Newfoundland,A1N 3J6,47.5237518,-52.785265,RVT
Mobilife RV Centre,4166 King St E,Kitchener,Ontario,N2P 2G5,43.423642,-80.411604,RVT
Mobility RV Services LLC,818 IA-9,Grand Island,Florida,50444,43.297226,-93.38363,RVT
Modern Classics,1118 S Newburgh Rd,Westland,Michigan,48186,42.293764,-83.370739,RVT
Modern Trailer Sales,2730 W 53rd St,Anderson,Indiana,46013,40.047934,-85.681768,RVT
Moffitt's RV,1819 SE Marshall St,Boone,Iowa,50036,42.085554,-93.864204,RVT
Mohican RV Center,3036 Co Rd 3A,Loudonville,Ohio,44842,40.649282,-82.224627,RVT
Moix RV Conway,1213 Collier Dr,Conway,Arkansas,72032,35.065559,-92.362675,RVT
Monroe City RV,4091 South,Monroe City,Indiana,47557,38.578834,-87.342777,RVT
Mont-Laurier Sports Inc.,224 Bd des Ruisseaux,Mont-Laurier,Quebec,J9L 0H6,46.5526446,-75.5223514,RVT
Moore's RV,34155 Lorain Rd,North Ridgeville,Ohio,44039,41.386,-82.024711,RVT
Moose Jaw RV & Marine,1400 Lakeview Rd,Moose Jaw,Saskatchewan,S6H 4R3,50.401797,-105.534699,RVT
"Moose RV Rentals, LLC",6724 Wilgrove Mint Hill Rd,China Grove,North Carolina,28227,35.189567,-80.645408,RVT
Motor Home & RV Super Center,2160 Hotel Rd,Auburn,Maine,04210,44.084537,-70.249649,RVT
Motor Home Travel Canada Inc.,14124 Hwy 50,Bolton,Ontario,L7E 3E2,43.8898725,-79.7521117,RVT
Motor Sportsland,4988 W 150 S,Salt Lake City,Utah,84104,40.749441,-111.981537,RVT
Motorcoaching RVs,1101 N Main St,Newcastle,Oklahoma,73065,35.255216,-97.610156,RVT
MotorGroup,1107 Wallace Dr,Delray Beach,Florida,33444,26.458903,-80.079637,RVT
"Motorhome Rentals of Louisiana, LLC",2816 Kingston St,Kenner,Louisiana,70062,29.991693,-90.258179,RVT
Motorhomes of California - Oceanside,920 S Coast Hwy,Oceanside,California,92054,33.195534,-117.354538,RVT
Motorhomes of Texas,2410 NW Stallings Dr,Nacogdoches,Texas,75964,31.631742,-94.740721,RVT
Motorises Leblanc (Laval),1275 Boulevard des Laurentides,Laval,Quebec,H7M 2Y2,45.587064,-73.711076,RVT
"Moturis, Inc.",5300 CO-2,Commerce City,Colorado,80022,39.879646,-104.798722,RVT
"Moturis, Inc. - San Leandro",420 San Leandro Blvd,San Leandro,California,94577,37.713275,-122.16735,RVT
Mountain Family RV,9825 S Virginia St,Reno,Nevada,89511,39.385441,-119.876909,RVT
Mountain Road RV Sales,31 Mountain Rd,Sabattus,Maine,04280,44.116831,-70.062582,RVT
Mountain Top RV & Marine,5028 Sunset Blvd,Columbia,South Carolina,29072,34.001778,-81.27241,RVT
Mountain's Edge RV & Leisure,8101 W Mountains Edge Pkwy,Hinton,Alberta,89178,35.997668,-115.286066,RVT
MRO RV Services Ltd/Coachcraft Ind.,7020 Curragh Ave,Burnaby,British Columbia,V5J 4V9,49.219883,-122.974707,RVT
Mt. Joy RV Sales & Service,17573 Main St,Buchanan,Virginia,24066,37.537053,-79.681003,RVT
"Mt. Pleasant RV Center, Inc.",5365 E Pickard St,Pleasant,Michigan,48858,43.616033,-84.795459,RVT
Murphy's RV Inc.,5401 Old Seward Hwy,Anchorage,Alaska,99518,61.159577,-149.884627,RVT
Muskegon RV,3555 E Apple Ave,Muskegon,Michigan,49442,43.241841,-86.135719,RVT
Musser Bros. Inc.,3125 Rickenbacker Dr,Pasco,Washington,99301,46.379233,-118.953781,RVT
"Nashville Easy Livin' Country, Inc.",1511 Elm Hill Pike,Nashville,Tennessee,37210,36.149263,-86.732969,RVT
"Nashville RV, LLC.",4242 Long Ln,Franklin,Tennessee,37064,35.884862,-86.954138,RVT
Nature Coast RV,9800 N Citrus Ave,Crystal River,Florida,34428,28.956773,-82.647566,RVT
Nautic Marine & RV,625 N Hwy 146,Kemah,Texas,77565,29.535935,-95.026393,RVT
NC Auto,29984 Kelso St,Eugene,Oregon,97402,44.047736,-123.230905,RVT
Ned's Marine & Auto,6326 George Washington Memorial Hwy,Yorktown,Virginia,23692,37.192438,-76.463582,RVT
Neff Brothers RV,4500 Grove Ave Suite 200,Lorain,Ohio,44055,41.434058,-82.134095,RVT
Nelson Automotive LLC,300 Sandpiper Ct,Polk City,Iowa,50226,41.796243,-93.701973,RVT
Nelson's RV's  ,4911 W Chinden Blvd,Boise,Idaho,83714,43.73272,-116.288769,RVT
New Generation RV,5712 392nd Ave,Burlington,Wisconsin,53105,42.663216,-88.280346,RVT
New Horizons Outdoors,11831 Veterans Memorial Hwy,Douglasville,Georgia,30134,33.777518,-84.781392,RVT
New Horizons RV,2401 Lacy Dr,Junction City,Kansas,66441,38.97352,-96.803088,RVT
"New Horizons RV Center, Inc.",2401 Lacy Dr,Flint,Michigan,66441,38.97352,-96.803088,RVT
New Ride RV,926 N Anderson Rd N,Rock Hill,South Carolina,29730,34.889889,-81.017848,RVT
New World RV,7020 Benton Rd,Paducah,Kentucky,42003,37.004848,-88.577941,RVT
New World RV,10717 Indiana Ave,Riverside,California,92503,33.882579,-117.442303,RVT
Newby's RV Sales,4840 Manchester Hwy,McMinnville,Tennessee,37110,35.64509,-85.741252,RVT
Newcastle RV Sales,4718 New Jesup Hwy,Brunswick,Georgia,31520,31.180919,-81.493973,RVT
Newell Coach,3900 N Main St,Miami,Oklahoma,74354,36.886136,-94.882511,RVT
Newport Beach Auto Gallery,185 Placentia Ave,Costa Mesa,California,92627,33.647763,-117.919761,RVT
Newport Boats & RVs,265 Radio Rd ste b,Corona,California,92879,33.882614,-117.528204,RVT
NeXus RV,3400 Reedy Dr,Elkhart,Indiana,46514,41.722641,-85.976908,RVT
NiceCampers.com,3814 S Arkansas Ave,Dardanelle,Arkansas,72802,35.31894,-93.081593,RVT
Nichols RV and Trailer Ranch,2900 Kurt St,Aledo,Texas,32726,28.855051,-81.678843,RVT
Nick's RV Sales & Service,4813 Parkway Dr,Texarkana,Arkansas,71854,33.451415,-93.881829,RVT
Niel's Motor Homes,8646 Sepulveda Blvd,North Hills,California,91343,34.237912,-118.482306,RVT
Nielson RV - West Valley,3870 S Redwood Rd,West Valley City,Utah,84119,40.700258,-111.946425,RVT
Nishna Valley Cycle,2500 E 7th St,Atlantic,Iowa,50022,41.414374,-94.996402,RVT
"Noble RV, Inc",3627 N County Rd 45,Owatonna,Minnesota,55060,44.059126,-93.223482,RVT
"Nolan's RV Center, Inc.",6935 N Federal Blvd,Denver,Colorado,80221,39.817067,-105.011035,RVT
Nomad Auto Sales,1813 N Boulder Hwy,Henderson,Nevada,89011,36.074719,-114.985309,RVT
Nor-Burd RV,5012 BC-16,Terrace,British Columbia,V8G 5S5,54.517065,-128.619349,RVT
Norman Campers,1722 Austell Rd SE,Marietta,Georgia,30008,33.897634,-84.589572,RVT
Norris RV,973 W Gila Bend Hwy,Casa Grande,Arizona,85122,32.917126,-111.744208,RVT
Norris RV Sales,65 Maple St # 65,Longmeadow,Massachusetts,01028,42.062378,-72.498111,RVT
Norsask Ltd.,SK-16,North Battleford,Saskatchewan,S9A 2X6,52.774341,-108.298287,RVT
Norseman RV,4450 E Florida Ave,Hemet,California,92544,33.648169,-116.895308,RVT
North Brevard RV ,2764 US-1,Mims,Florida,32754,28.687109,-80.919193,RVT
"North Country RV, Inc.",14525 MN-65,Ham Lake,Minnesota,55304,45.247605,-93.275036,RVT
"North Texas RV, Inc.",S Sam Rayburn Fwy,Sherman,Texas,75090,33.604131,-96.550405,RVT
"Northeast Motorhome Rentals, Inc.",2019 NJ-35,Edison,New Jersey,08879,40.46641,-74.278625,RVT
Northern Hills Homes & RVs,12173 SD-34,Whitewood,South Dakota,57793,44.525368,-103.578762,RVT
Northern Lights RV Sales,18320 107 Ave NW,Edmonton,Alberta,T5S 2J8,53.553282,-113.646118,RVT
Northern RV,2164 Falconbridge Hwy,Garson,Ontario,P3L 1M2,46.5412137,-80.9037681,RVT
"NORTHSHORE MARINE SUPPLY, INC",815 Uvalde Rd,Houston,Texas,77015,29.76393,-95.173121,RVT
"NORTHSHORE MARINE SUPPLY, INC",815 Uvalde Rd,Houston,Texas,77015,29.76393,-95.173121,RVT
Northtown Motor Homes,10947 Northland Dr NE,Rockford,Michigan,49341,43.124135,-85.490928,RVT
Northwest Campers,609 Barbaree Ln,Byron,Minnesota,55920,44.013768,-92.62201,RVT
Northwest Camping Center,300 Meridian Ave E,Milton,Washington,98354,47.251994,-122.317289,RVT
Northwest RV,5950 W Sunset Ave,Springdale,Arkansas,72762,36.18165,-94.23068,RVT
Northwest RV Center,18919 E Broadway Ave,Edmonton,Alberta,99016,47.597285,-117.121042,RVT
Northwest RV Sales,6492 Portland Rd NE,Salem,Oregon,97305,45.014338,-122.928719,RVT
Northwest Trading Company,3200 S 27th St,Rogers,Arkansas,72758,36.299665,-94.13721,RVT
Northwood RV,409 1st New Hampshire Turnpike,Northwood,New Hampshire,03261,43.211856,-71.223393,RVT
Noteboom RV,27316 SD-115,Harrisburg,South Dakota,57032,43.424192,-96.678132,RVT
NR Motors Recreation & Equipment Sales,810 2 Ave,Prince George,British Columbia,V2L 3A6,53.9156152,-122.7373252,RVT
O'Connells Inc. RV Sales,970 Green Wing Rd,Amboy,Illinois,61310,41.702418,-89.354497,RVT
"O. Valley Trailer Sales, LLC",6247 Ashland Rd suite b,Wooster,Ohio,44691,40.805744,-81.98247,RVT
Oak Lake Campground & RV Sales,52777 Hoffman Dr,Kerrick,Minnesota,55756,46.361182,-92.584556,RVT
"OC Trailers & RVs, Inc.",1412 8th St SE,Orange City,Iowa,51041,43.02608,-96.077893,RVT
Ocean Grove RV Sales,4225 A1A S,St. Augustine,Florida,32080,29.818745,-81.27286,RVT
"Ocean View Trailer Sales, Inc",2555 US-9,Ocean View,New Jersey,08230,39.207372,-74.720215,RVT
Ocean West Performance,26240 Jackson Ave,Temecula,California,92563,33.580016,-117.14736,RVT
OCRV Motorcoaches,23281 La Palma Ave,Anaheim,California,92887,33.885514,-117.730164,RVT
"Olathe Ford RV Center, Inc.",19310 S Gardner Rd,Gardner,Kansas,66030,38.815137,-94.940266,RVT
Olds Leisure Products,5303 46 Ave,Olds,Alberta,T4H 1E8,51.789134,-114.098812,RVT
Olds RV Inc,32580 Queen Elizabeth II Highway #208,Olds,Alberta,T4H 1P2,51.809937,-114.08294,RVT
"Oldtown Camper Sales, Inc.",2875 Old Town Club Rd,Winston Salem,North Carolina,27106,36.14391,-80.323157,RVT
Oliver Travel Trailers,228 Industrial Ave,Hohenwald,Tennessee,38462,35.528171,-87.562943,RVT
Oliver's Campers - LaFayette,2843 US-11,LaFayette,New York,13084,42.880541,-76.124474,RVT
Oliver's Campers - Norwich,6460 NY-12,Norwich,New York,13815,42.547866,-75.530855,RVT
Open Road Recreation,652 Adams St,Regina,Saskatchewan,S4N 6R7,50.4684925,-104.5920634,RVT
Open Road RV - Arlington,16424 Smokey Point Blvd,Arlington,Washington,98223,48.21712,-121.95354,RVT
Open Road RV - Monroe,1175 Village Way,Monroe,Washington,98272,47.848583,-121.894899,RVT
Open Roads RV,1174 Carp Rd,Stittsville,Ontario,K2S 1B9,45.2804774,-75.916142,RVT
Orchard Ford,911 Stremel Rd,Kelowna,British Columbia,V1X 5E6,49.904936,-119.401719,RVT
Oregon Roads RV,620 W 6th Ave,Eugene,Oregon,97402,44.047736,-123.230905,RVT
Oregon RV Outlet,4874 S Monument Dr,Grants Pass,Oregon,97526,42.535682,-123.338285,RVT
Outback Country RV Corp.,53213 Range Rd 231,Sherwood Park,Alberta,T8A 4V2,53.5702148,-113.2709156,RVT
OUTDOOR ESCAPE RV,2091 S Amherst Hwy,Amherst,Virginia,24521,37.633294,-79.100863,RVT
"Outdoor Express, Inc.",128 Recreation Ln,Falling Waters,West Virginia,25419,39.575796,-77.89571,RVT
Outdoor Travel,4888 S Service Rd,Hamilton,Ontario,L3J 1L4,43.2015443,-79.5740935,RVT
Outdoors and More,10661 TX-242,Conroe,Texas,77385,30.186277,-95.410662,RVT
Outfitters RV Rental,9540 Timberline Ct,Three Rivers,Michigan,49337,43.423029,-85.718784,RVT
"Outlaw Adventures, LLC",24049 Rose Blvd,Gulfport,Mississippi,39503,30.474612,-89.152878,RVT
Outlet Recreation - West Fargo,4021 Main Ave,West Fargo,North Dakota,58103,46.85614,-96.822073,RVT
Over Kill Motorsports,1800 Village Dr,Kingsland,Georgia,31548,30.796163,-81.698233,RVT
Owasco RV Centre,570 Rundle Rd,Tampa,Florida,L1E 0L4,43.9486341,-78.7622095,RVT
Owners Auto Sales,9077 Caratoke Hwy,Jarvisburg,North Carolina,27964,36.083046,-75.806214,RVT
P & H Camper Sales,2200 Addmore Ln,New Salisbury,Indiana,47129,38.313141,-85.768453,RVT
P.E.I Home & RV Centre,86 Kensington Rd,Charlottetown,Prince Edward Island,C1A 5J4,46.251494,-63.116142,RVT
P.P.L. Motorhomes,10777 Southwest Fwy,Houston,Texas,77074,29.687947,-95.515725,RVT
"Pacific Travel Center, Inc.",10211 Pacific Ave S,Tacoma,Washington,98444,47.153041,-122.448831,RVT
Pacific Valley RV,3974 Pacific Hwy #99e,Hubbard,Oregon,97032,45.17663,-122.783877,RVT
"Paines, Inc.",190 Plaza Dr,Elk Run Heights,Iowa,50707,42.458164,-92.260032,RVT
"Palm Beach RV, Inc.",5757 N Military Trl,Palm Beach,Florida,33407,26.757692,-80.091172,RVT
Pan Pacific RV - French Camp,252 W Yettner Rd,French Camp,California,95231,37.873793,-121.290146,RVT
Pan Pacific RV - Morgan Hill,16695 Condit Rd,Morgan Hill,California,95037,37.174063,-121.598747,RVT
Pan Pacific RV - Sacramento,1104 El Camino Ave,Sacramento,California,95815,38.605407,-121.447593,RVT
Panterra Luxury Coaches,4142 Blue Star Hwy,Holland,Michigan,49423,42.743806,-86.083703,RVT
Paradise Marine,6940A,Gulf Shores,Alabama,36542,30.269654,-87.750627,RVT
Park And Sell Consignments,4325 E US Hwy 377,Granbury,Texas,76049,32.460255,-97.706784,RVT
Park Street Trailer Sales,#7006,Kentville,Nova Scotia,B4R 1C5,45.063675,-64.474668,RVT
Park-A-Way RV,170 New Day Pkwy,Chubbuck,Idaho,83202,42.925511,-112.182742,RVT
Parker Trading Company,2325 Auto Park Way,Escondido,California,92029,33.0824,-117.127641,RVT
Parklane RV Centre Ltd.,1638 Cary Rd,Kelowna,British Columbia,V1X 2C1,49.890615,-119.420666,RVT
Parkplace RV Sales,21 Executive Dr,London,Kentucky,38555,35.887881,-84.989016,RVT
Parkview RV Centre,5110 56 St,Wetaskiwin,Alberta,T9A 1V9,52.972527,-113.39033,RVT
Parkway RV,S,Deer Park,Washington,99006,47.984122,-117.502192,RVT
Parr's Cars & RV's,602 Oregon Way,Longview,Washington,98632,46.209509,-123.056153,RVT
Parris Motors,8160 State St,Midvale,Utah,84047,40.615219,-111.890729,RVT
Parshallburg Campers,15775 S,Chesaning,Michigan,48616,43.191074,-84.11346,RVT
"Paso West RV, El",1415 Anthony Dr,Anthony,New Mexico,88021,31.951887,-107.016272,RVT
Passion VR Caravane Vaillancourt Inc.,180 Bd Monseigneur-Langlois,Salaberry-de-Valleyf,Quebec,J6S 0A7,45.267409,-74.143086,RVT
Patriot Motors,5969 Omaha Blvd,Colorado springs,Colorado,80915,38.849797,-104.717043,RVT
Patriot Motors & RV,1875 Ross Rd,West Kelowna,British Columbia,V1Z 3G4,49.857624,-119.59318,RVT
Paul Sherry RVs,8645 N County Rd 25A,Piqua,Ohio,45356,40.16284,-84.22821,RVT
"Paw Paw's Camper City, Inc.",19408 AL-59,Summerdale,Alabama,36580,30.478898,-87.703414,RVT
Payless Auto & Camper Sales,4543 E University Dr,Phoenix,Arizona,85034,33.42958,-112.014097,RVT
Peden RV Superstore,10049 Galaran Rd,Sidney,British Columbia,V8L 5X3,48.653273,-123.412388,RVT
Performance Motorcoaches,910 U.S. 62 Frontage Rd,Wolfforth,Texas,79382,33.455287,-102.014055,RVT
Performance RV Inc.,1749 E F St,Oakdale,California,95361,37.787236,-120.759202,RVT
"Perinton RV Rentals, Inc.",125 Macedon Center Rd,Fairport,New York,14502,43.096594,-77.335388,RVT
Pete's RV Center - PA (aka Gayle Kline RV),444 E Main St,Mountville,Pennsylvania,17554,40.040303,-76.424176,RVT
Pete's RV Center - Plainville,171 Washington St,Plainville,Massachusetts,02762,42.0128,-71.336602,RVT
Phillips RV Center,7101 N Saginaw Rd,Mount Morris,Michigan,48458,43.125298,-83.681543,RVT
Phoenix USA RV,3504 Cooper Dr,Elkhart,Indiana,46514,41.722641,-85.976908,RVT
Pickard Trailer Sales,2062 Brookville Rd,Fairfield,Iowa,52556,41.0242,-91.927545,RVT
Pierce RV Supercenter - Kalispell,3138 U.S. Rte 2,Kalispell,Montana,59901,48.229649,-114.385053,RVT
Pik-A-Dilly RV Center,320 Highland Ave,Brandon,Manitoba,R7C 1A9,49.886582,-99.946238,RVT
Pikes Peak Traveland,4815 E Platte Ave,Colorado Springs,Colorado,80915,38.849797,-104.717043,RVT
Pikeville RV,7349 N Mayo Trail,Pikeville,Kentucky,41501,37.514355,-82.508901,RVT
Pin Oak RV Sales,10902 OH-113,Berlin Heights,Ohio,44814,41.324106,-82.47216,RVT
Pine Acres RV,24965 PE-2,Kensington,Prince Edward Island,C0B 1M0,46.43789,-63.63458,RVT
Pine Plaza RV,1701 W Lincoln Ave,Fergus Falls,Minnesota,56537,46.275451,-96.089793,RVT
Platinum Coach and RV,699 TX-121,Lewisville,Texas,75057,33.050725,-96.974623,RVT
Platinum RV,1 Shamrock Rd,Erin,Ontario,N0B 1T0,43.75515,-80.043524,RVT
Pleasantview RV's,13608 BC-97,Hutchinson,Kansas,V0H 1Z0,49.601665,-119.694556,RVT
Pleasureland RV -  Brainerd Budget Lot,17301 MN-371BUS,Brainerd,Minnesota,56401,46.322919,-94.12521,RVT
Pleasureland RV -  Sioux Falls,4705 N Northview Ave,Sioux Falls,South Dakota,57107,43.59762,-96.820415,RVT
Pleasureland RV -  St. Cloud Budget Lot,2055 12th St SE,St. Cloud,Minnesota,56304,45.530416,-94.057176,RVT
Pleasureland RV - Brainerd Surplus Lot ,16599 MN-371,Brainerd,Minnesota,56401,46.322919,-94.12521,RVT
Pleasureland RV - Long Prairie Budget Lot,22783 U. S. Hwy 71,Long Prairie,Minnesota,56347,45.96669,-94.872044,RVT
Pleasureland RV - Ramsey,7900 Riverdale Dr NW,Ramsey,Minnesota,55303,45.288298,-93.431102,RVT
Pleasureland RV - St. Cloud,25064 Augusta Drive,St. Cloud,Minnesota,56301,45.487084,-94.242777,RVT
Plowman's Marine & Camping Center,382 US Highway 51 N,Woodruff,Wisconsin,54568,45.95805,-89.653069,RVT
Pocono RV Sales,489 Bushkill Plaza Ln #9665,Wind Gap,Pennsylvania,18091,40.831388,-75.319795,RVT
Point North RV,3389 US-10,Ludington,Michigan,49431,43.985802,-86.406481,RVT
Portage Toyota & RV,2633 Saskatchewan Ave W,Portage La Prairie,Manitoba,R1N 4A5,49.972295,-98.292826,RVT
Post's Traveland,4330 Westerville Rd,Columbus,Ohio,43231,40.079362,-82.935126,RVT
Potomac Creek RV,44 Potomac Creek Dr,Fredericksburg,Virginia,22405,38.313604,-77.403928,RVT
Powder River RV,7301 SW Frontage Rd #2,Fort Collins,Colorado,80528,40.494596,-105.004639,RVT
Powers RV,216 W Market St,Salinas,California,93901,36.636344,-121.623978,RVT
Prairie Sky RV,2127 20th Ave,Coaldale,Alberta,T1M 1M6,49.831246,-112.600578,RVT
Pratt's RV Center,3668 S Ridge Rd,Perry,Ohio,44081,41.763938,-81.143104,RVT
Preferred Motors & Marine,1351 W Williams Ave,Fallon,Nevada,89406,39.53771,-118.264165,RVT
Premier Coach Services,3423 NW Tullison Rd,Riverside,Missouri,64150,39.172185,-94.632532,RVT
Premier Nissan of San Jose,1120 W Capitol Expy,San Jose,California,95136,37.269128,-121.850992,RVT
"Premium RV, Inc.",600 S Palm St,La Habra,California,90631,33.942708,-117.952483,RVT
Prestman Auto,2865 State St,Salt lake city,Utah,84115,40.714497,-111.892687,RVT
Prevost RV & Marine LTD,5012 BC-16,Terrace,British Columbia,V8G 5S5,54.517065,-128.619349,RVT
Price Right Auto & RV,12909 Old U.S. 27,Dewitt,Michigan,48820,42.863913,-84.592296,RVT
Price-Rite Boat & Camper Sales,3802 NY-52,Youngsville,New York,12791,41.817275,-74.89287,RVT
Primeaux RV,4715 NW Evangeline Thrwy,Carencro,Louisiana,70520,30.330999,-92.033704,RVT
Primo Trailer Sales,995 Moodie Dr S,Ottawa,Ontario,K2R 1H4,45.278969,-75.80847,RVT
Princess Craft RV,3101 N Interstate Hwy 35,Round Rock,Texas,78664,30.501927,-97.647251,RVT
Pro-Motion Motorsports,1551 W Skyline Ave,Ozark,Missouri,65721,36.982818,-93.209226,RVT
Prosser's Premium RV Outlet,13815 Leetsbir Rd,Sturtevant,Wisconsin,53177,42.704212,-87.932874,RVT
Quad Cities Camper Service,5443 3rd Ave,Moline,Illinois,61265,41.482333,-90.493407,RVT
Quality RV,2930 Lawe St,Kaukana,Wisconsin,54130,44.311313,-88.24431,RVT
Quality RV Center,50 S 2000 W,Springville,Utah,84663,40.165628,-111.495076,RVT
Queenstown RV and Marine Center,9533 Baltimore Ave,College Park,Maryland,20740,39.002745,-76.931721,RVT
Quinn's Towing and Rentals,678 S Pere Marquette Hwy,Ludington,Michigan,49431,43.985802,-86.406481,RVT
Quinte RV Centre,980 Ontario County Hwy 2,Trenton,Ontario,K8V 5P5,44.123202,-77.492765,RVT
R & G RVs,6913 N Chestnut St,Ravenna,Ohio,44266,41.16625,-81.208228,RVT
"R & R Camper Center, Ltd.",318 US-12,Litchfield,Minnesota,55355,45.099093,-94.541307,RVT
R&L RV Sales,10789 US-95,Hayden Lake ,Idaho,83835,47.79695,-116.660251,RVT
Racing RV's,6975 Brookville Salem Rd,Brookville,Ohio,45309,39.842723,-84.414704,RVT
"Radabaughs Camping Trailers, Inc",2464 Valley Rd,Marysville,Pennsylvania,17053,40.32504,-77.026474,RVT
Ragtops Motorcars,701 N Dixie Hwy,West Palm Beach,Florida,33460,26.619664,-80.056715,RVT
Rainbow RV Sales,12808 US-20,Pioneer,Ohio,43554,41.658422,-84.563491,RVT
Rainier Auto & Truck,506 W B St,Rainier,Oregon,97048,46.044795,-122.982023,RVT
Rally Auto Mart,9106 SE 82nd Ave,Portland,Oregon,97086,45.445048,-122.528173,RVT
"Rallye Auto Sales,Inc",1010 Old Hwy 99 North Rd,Burlington,Washington,98233,48.500911,-122.345655,RVT
Randy's Trailer Town,6802 Clay School Rd,Collinsville,Illinois,62234,38.683215,-89.982058,RVT
Rangeland RV - Calgary,292184 Crosspointe Rd,Rocky View,Alberta,T4A 0W2,51.284824,-114.001279,RVT
Rangeland RV - Red Deer,295 Burnt Park Dr,Red Deer County,Alberta,T4S 2L4,52.286615,-113.863165,RVT
Ranger Trailer & Coach Sales,125 Theobold Ave,Greensburg,Pennsylvania,15601,40.314981,-79.534803,RVT
Rangitsch Brothers RV Center,2001 W Broadway St,Missoula,Montana,59808,46.971063,-114.111212,RVT
Rankin Enterprises,71 W Palmer St,Franklin,North Carolina,28734,35.189081,-83.41226,RVT
Ray Citte RV,1677 W Riverdale Rd,Roy,Utah,84067,41.17105,-112.048138,RVT
Ray's Marina & R.V. Sales,584 White Mountain Hwy,Milton,New Hampshire,03851,43.437283,-71.025251,RVT
"RCD Sales Company, Ltd.",1990 Hebron Rd,Hebron,Ohio,43056,40.008493,-82.340989,RVT
Recreation Plantation Inc.,19660 Stoney Island Ave,Lynwood,Illinois,60411,41.508774,-87.590314,RVT
Recreation Rental & Sales,3317 Hamilton St unit i,Bismarck,North Dakota,58503,46.90412,-100.750302,RVT
"Recreation World, Inc.",13906 W Colonial Dr,Annapolis,Maryland,34787,28.484923,-81.619305,RVT
Recreational Resort Cottages,4384 I-30,Rockwall,Texas,75087,32.943901,-96.452875,RVT
Referral Auto Group,1444 1st St,Escalon,California,95320,37.825598,-121.005157,RVT
Reliable RV,438 S Ingram Mill Rd,Springfield,Missouri,65802,37.20745,-93.354612,RVT
REN Service & Trailer Sales,31 Vanier St,Campbellton,New Brunswick,E3N 1T8,48.00354,-66.63399,RVT
Rent Me RV America,8533 Old Concord Rd,Charlotte,North Carolina,28213,35.285986,-80.734388,RVT
"Rent' N Roam RV, Inc.",US-20,Shrewsbury,Massachusetts,01545,42.284767,-71.714228,RVT
Rent-N-Travel,970 County Rd 10 NE,Spring Lake Park,Minnesota,55432,45.096702,-93.253726,RVT
Repo.com,6139 Trapp Ave,Burnaby,British Columbia,V3N 2V3,49.1948105,-122.9592065,RVT
Republic RV Sales ,745 TX-173 South,Moore ,Texas,78016,29.17158,-98.967448,RVT
"Restless Wheels, Inc.",8104 Centreville Rd,Manassas,Virginia,20111,38.748968,-77.427873,RVT
Revy RV,6482 Norcross Rd,Duncan,British Columbia,V9L 6L3,48.747143,-123.666081,RVT
Rex & Sons RV,1546 College Rd,Wilmington,North Carolina,28403,34.221692,-77.880633,RVT
RF Motorsports,9990 Hillview Rd,Newcastle,California,95658,38.881183,-121.169014,RVT
RG and Sons Sales,10 Ryans Ln Apt A,Limington,Maine,04049,43.745748,-70.699807,RVT
Rhone's RV,4368 Lycoming Creek Rd,Cogan station,Pennsylvania,17728,41.334774,-77.078567,RVT
Richard's Travel-Land,2565 Main St #112,West Kelowna,British Columbia,V4T 2B4,49.8289357,-119.6324427,RVT
"Richardson's RV Center, Inc.",3051 Myers St,Riverside,California,92503,33.882579,-117.442303,RVT
Richmond RV Center,22593 Co Rd 71,Richmond,Minnesota,56368,45.464545,-94.561477,RVT
Rick Baker's RV Center,320 North St,Green Cove Springs,Florida,32043,29.937041,-81.732588,RVT
Rick's RV Center Inc.,4360 W Jefferson St,Joliet,Illinois,60431,41.509668,-88.180211,RVT
Rick's RV Sales & Service,1571 E Main St,Ville Platte,Louisiana,70586,30.746507,-92.328138,RVT
"Rick's RV Service, LLC",8511 Co Rd 156,Kaufman,Texas,75142,32.568163,-96.250214,RVT
Rick's RVs LLC,4360 W Jefferson St,Jacksonville,Florida,60431,41.509668,-88.180211,RVT
"Ridgeway RV, Inc.",4220 58th St,Holland,Michigan,49423,42.743806,-86.083703,RVT
Right Stop RV Center,5874 Preston Hwy,Lebanon Jct.,Kentucky,40150,37.88023,-85.713277,RVT
"Risco, Inc.",390 Risco Cir,Highlands,New Jersey,92223,33.948255,-116.987839,RVT
Rite Rides,915 N San Jacinto Ave,Cleveland,Texas,77327,30.318169,-94.915716,RVT
River Bend RV and Trailer Sales,744 U.S. Rte 2,St Johnsbury,Vermont,05819,44.404737,-71.983075,RVT
Riverside Arctic Cat,698 Saskatchewan Ave E,Melfort,Saskatchewan,S0E 1A0,52.860598,-104.60092,RVT
Riverside Camping Center,1613 US Hwy 70 East,New Bern,North Carolina,28560,35.126708,-76.977604,RVT
Riverwood RVs,101 Riverwood Ave SE,Mandan,North Dakota,58554,46.742723,-100.9353,RVT
RJ AUTO RV SALES,3288 Cincinnati Dayton Rd,Middletown,Ohio,45044,39.482404,-84.410243,RVT
RnR RV Center,23203 E Knox Ave,Liberty lake,Washington,99019,47.643175,-117.07562,RVT
RnR RV Center - Airway Heights,525 E Francis Ave,Airway Heights,Washington,99208,47.788172,-117.480897,RVT
RnR RV Center - Clarkston,4040 N and South Hwy,Lewiston,Idaho,83501,46.208729,-116.913734,RVT
Road Bear - Denver,7685 Dahlia St,Commerce City,Colorado,80022,39.879646,-104.798722,RVT
Road Bear - Las Vegas,4730 Boulder Hwy,Las Vegas,Nevada,89121,36.121526,-115.091277,RVT
Road Bear - Los Angeles,28404 Roadside Dr,Agoura Hills,California,91301,34.123286,-118.758541,RVT
Road Bear - New York,2019 NJ-35,North Middletown,New Jersey,08879,40.46641,-74.278625,RVT
Road Bear - Orlando,3800 W Colonial Dr suite b,Orlando,Florida,32808,28.58011,-81.4443,RVT
Road Bear - San Francisco,420 San Leandro Blvd,Hayward,California,94577,37.713275,-122.16735,RVT
Robbins Auto and RV,22168 Lawrence 1200,Aurora,Missouri,65605,36.771716,-93.654747,RVT
Robbins RV & Motorsports,1300 NE Lincoln Rd,Idabel,Oklahoma,74745,33.859098,-94.816353,RVT
Roberson RV Center,3780 Turner Rd SE,Salem,Oregon,97302,44.903103,-123.064528,RVT
Rock Island RV,8023 Old Waneta Rd,Trail,British Columbia,V1R 4X1,49.090167,-117.638279,RVT
Rocket City RV,21768 State Hwy 20,Tanner,Alabama,35671,34.683544,-86.935107,RVT
Rocky Mountain RV World,12700 Central Ave SE,Albuquerque,New Mexico,87123,35.067584,-106.470746,RVT
Rocky's RV,1001 Slaton Rd,Walker,Louisiana,79404,33.527702,-101.793717,RVT
Roger's Camping Trailers,8010 Eleventh St,Fremont,California,95304,37.671103,-121.406559,RVT
Rolling Retreats,2615 W 20th St,Elk City,Oklahoma,73644,35.419594,-99.437791,RVT
Rolling Wheels RVs,2314 Lycoming Creek Rd,Williamsport,Pennsylvania,17701,41.345045,-76.857256,RVT
Ron Gist RV & Auto Sales,169 G St,Caledonia,Ohio,43314,40.649151,-82.959413,RVT
Ron Hoover RV & Marine  - Corpus Christi,5029 Columbia St,Corpus Christi,Texas,78416,27.752024,-97.436507,RVT
Ron Hoover RV & Marine - Boerne,29277 IH - 10 West,Boerne,Texas,78006,29.85855,-98.703353,RVT
Ron Hoover RV & Marine - Donna,101 E Expressway 83,Donna,Texas,78537,26.1619,-98.058657,RVT
Ron Hoover RV & Marine - North Houston,12960 Interstate 45 N,Willis,Texas,77378,30.471374,-95.363872,RVT
Ron Hoover RV & Marine - Rockport,1510 W Market St,Rockport,Texas,78382,28.132627,-97.06207,RVT
Ron Hoover RV & Marine - South Houston,1903 Gulf Fwy,La Marque,Texas,77568,29.363162,-94.980107,RVT
Ron Hoover RV & Marine - West Houston,29029 Katy Fwy,Katy,Texas,77494,29.740677,-95.829652,RVT
Roots RV,1559 Wesley Chapel Rd,Mitchell,Indiana,47446,38.747201,-86.518136,RVT
Rose City RV,2228 M-33,Rose City,Michigan,48654,44.457421,-84.137319,RVT
Rose City RV of Tawas,1229 US-23,Tawas City,Michigan,48763,44.25509,-83.614901,RVT
Ross Recreational Sales,691 W Hampden Ave,Englewood,Colorado,80110,39.645936,-105.011368,RVT
Ross Trailer Sales Limited,429 Cobequid Rd,Lower Sackville,Nova Scotia,B4C 4E6,44.7606098,-63.6584304,RVT
Roth RV,23815 W Front St,Deerwood,Minnesota,56444,46.435905,-93.888847,RVT
Roughin' It RV,7370 N Ridge Rd,Madison,Ohio,44057,41.760117,-81.060305,RVT
Roulettes Acadie Trailers Inc.,1293 Rue Principale,Beresford,New Brunswick,E8K 1A1,47.6712294,-65.6899428,RVT
Roulettes E. Turmel,7010 Bd Sainte-Anne,ChÃ¢teau-Richer,Quebec,G0A 1N0,46.99328,-70.986152,RVT
Roulettes M.L.R. Inc.,1274 Royaume Blvd W,Chicoutimi,Quebec,G7H 5B1,48.373031,-71.069254,RVT
Roulotte Real Blouin Enr.,32 Mnt de RiviÃ¨re-Morris,RiviÃ¨re-au-Renard,Quebec,G4X 5M4,48.957701,-64.487038,RVT
Roulottes Chaudiere Inc.,870 Chem. Olivier,St-Nicolas,Quebec,G7A 2N1,46.694215,-71.3090329,RVT
Roulottes De L'Estrie,4990 Bd Industriel,Sherbrooke,Quebec,J1R 0P4,45.395747,-71.970369,RVT
Roulottes Desjardins Inc.,2250 Bd du CurÃ©-Labelle,St-JÃ©rome,Quebec,J7Y 4Y3,45.807155,-74.015174,RVT
Roulottes Gilbert Inc.,21 Bd Industriel,Chateauguay,Quebec,J6J 4Z2,45.345898,-73.693888,RVT
Roulottes Gilles Ouellet Inc.,115 Rte 235,Granby,Quebec,J0E 1E0,45.358702,-72.922095,RVT
Roulottes Langlouis 1996 Inc.,6080 Bd Sainte-Anne,Ange-Gardien,Quebec,G0A 2K0,46.91002,-71.108395,RVT
Roulottes R.G. Gagnon Inc,700 Bd de l'Industrie,St-Paul de Joliette,Quebec,J0K 3E0,45.978648,-73.393966,RVT
Roulottes R.G. Gagnon Inc.,175 Mnt de St Sulpice,L''Assomption,Quebec,J5W 2T3,45.826869,-73.400536,RVT
Roulottes Rive-Sud Inc.,70 Rue Jacques-Nau,LÃ©vis,Quebec,G6V 9J4,46.770385,-71.1716,RVT
Roulottes Ste-Anne,3306 des Entreprises,Terrebonne,Quebec,J6X 4J8,45.715468,-73.714913,RVT
"Rousseau's Recreation Rentals, Inc.",150 Bedford St,Lakeville,Massachusetts,02347,41.834412,-70.957163,RVT
Route 125 RV & Marine,343 Gonic Rd,Rochester,New Hampshire,03839,43.262994,-70.991203,RVT
Route 44 RV Center,8 Harding St,Lakeville,Massachusetts,02347,41.834412,-70.957163,RVT
Rowe Motors LLC,193 Production Ave,Madison,Alabama,35758,34.711417,-86.74651,RVT
Rowley White RV - Flagstaff,4301 E Huntington Dr,Flagstaff,Arizona,86004,35.380939,-111.373463,RVT
Rowley White RV - Idaho ,3790 E Sunnyside Rd,Idaho Falls,Idaho,83406,43.443948,-111.811633,RVT
Rowley White RV - Mesa,8102 E Main St,Mesa,Arizona,85207,33.454586,-111.637972,RVT
Rowley White RV - North Phoenix,9665 N Cave Creek Rd,Phoenix,Arizona,85020,33.567351,-112.053591,RVT
Rowley White RV - West Phoenix,2825 W McDowell Rd,Phoenix,Arizona,85009,33.443097,-112.128136,RVT
Roy's RV Supercenter,3437 Beverly Pike,Elkins,West Virginia,26241,38.932602,-79.788254,RVT
Royal Gorge Truck & RV,3130 E Main St,Canon City,Colorado,81212,38.535754,-105.398394,RVT
RT Auto,2347 FM917,Alvarado,Texas,76063,32.57074,-97.144837,RVT
Rugby Homes & RV Center - Rugby,1040 ND-3 S,Rugby,North Dakota,58368,48.260871,-100.05322,RVT
Rugby Homes & RV Center - Williston,321 Gate Ave,Williston,North Dakota,58801,48.21789,-103.763084,RVT
Ruisi Auto Sales,100 NJ-35,Keyport,New Jersey,07735,40.450109,-74.172274,RVT
Rule RV,213 Rolling Thunder Ln,Staunton,Virginia,24401,38.134387,-79.085564,RVT
Runners RV,2813 23 St N,Cranbrook,British Columbia,V1C 3N9,49.532822,-115.740836,RVT
Ruston RV Centre,1428 Plains Rd W,Burlington,Ontario,L7T 1H6,43.297044,-79.894734,RVT
RV America - Aurora,3640 Chambers Rd,Aurora,Colorado,80011,39.738764,-104.782159,RVT
RV America - Wheatridge,11808 W 44th Ave,Wheatridge,Colorado,80033,39.772675,-105.104801,RVT
RV Barn,6820 Arctic Blvd,Anchorage,Alaska,99518,61.159577,-149.884627,RVT
"RV Brokers, Inc.",1740 US-98,Sacramento,California,32569,30.410287,-86.731484,RVT
RV Canada - Saint John,57 Millennium Dr,Rothesay,New Brunswick,E2E 0P8,45.411266,-65.9465829,RVT
"RV Center, Inc., The",3360 Lincoln Way Rd,Columbia City,Indiana,46725,41.148544,-85.475768,RVT
RV City,8704 100 St,Morinville,Alberta,T8R 1K6,53.785434,-113.635097,RVT
RV Connection - South Location,1794 Bolton Cir,Norcross,Georgia,30071,33.940652,-84.206734,RVT
"RV Connection, Inc.",2202 US-281 BUS,Lawton,Oklahoma,73501,34.557945,-98.290973,RVT
RV Contacts & Auto Sales,71 Douglas Rd,Mount Uniacke,Nova Scotia,B0N 2N0,45.051453,-63.873087,RVT
RV Corral ,1890 State Hwy 99 N,Eugene,Oregon,97402,44.047736,-123.230905,RVT
RV COUNTRY,2501 E Main St,Mesa,Arizona,85213,33.448733,-111.769015,RVT
RV Country - Bullhead City,2155 AZ-95,Bullhead City,Arizona,86442,35.089613,-114.560868,RVT
RV Country - Coburg,90915 Roberts Rd,Coburg,Oregon,97408,44.142995,-123.058241,RVT
RV Country - Fife,5111 20th St E,Fife,Washington,98424,47.235341,-122.354192,RVT
RV Country - Flagstaff,4316 US-89,Flagstaff,Arizona,86004,35.380939,-111.373463,RVT
RV Country - Fresno,3633 S Maple Ave,Fresno,California,93725,36.627211,-119.731888,RVT
RV Country - Laughlin,1725 S Casino Dr,Laughlin,Nevada,89029,35.129221,-114.656524,RVT
RV Country - Mesa,2501 E Main St,Mesa,Arizona,85213,33.448733,-111.769015,RVT
RV Country - Mt. Vernon,511 Suzanne Ln,Mt. Vernon,Washington,98273,48.402754,-122.376148,RVT
RV Fun Rental,3535 Benet Rd,Carlsbad,California,92058,33.343438,-117.31725,RVT
RV General Store,3333 N Meridian Ave,Newcastle,Oklahoma,73065,35.255216,-97.610156,RVT
RV Glamping,4045 N Courtenay Pkwy,Merritt Island,Florida,32953,28.441679,-80.702628,RVT
RV Gold,1570 SE Paloma Ct,Gresham,Oregon,97080,45.478314,-122.390727,RVT
"RV Joe's, LLC",5368 Old Redwood Hwy,Santa Rosa,California,95403,38.503685,-122.754057,RVT
RV Land,23401 I-35,Kyle,Texas,78640,29.999103,-97.828207,RVT
RV Lifestyles,2620 Barlow Trail NE,Calgary,Alberta,T1Y 1A1,51.075479,-114.001414,RVT
RV Lifestyles INC,1795 Dome Rock Rd W,Quartzsite,Arizona,85346,33.635982,-114.145877,RVT
RV Master Techs,12445 W Glendale Ave,Glendale,Arizona,85307,33.539828,-112.314451,RVT
RV Masters,41491 E Florida Ave Ste: A,Hemet,California,92544,33.648169,-116.895308,RVT
"RV New Orleans Motorhome Rentals, Inc.",2601 Old Spanish Trail,Slidell,Louisiana,70461,30.231091,-89.716936,RVT
RV Northwest,18919 E Broadway Ave,Beaverton,Oregon,99016,47.597285,-117.121042,RVT
RV Of Panama City LLC,2241 Baldwin Rd East,Panama City,Florida,32405,30.202068,-85.667403,RVT
RV Outlet Center,10607 E Admiral Pl,Tulsa,Oklahoma,74116,36.188756,-95.842573,RVT
RV Outpost,90995 Roberts Rd,Coburg,Oregon,97408,44.142995,-123.058241,RVT
RV Ranch,25916 FM 2100,Huffman,Texas,77336,30.063168,-95.098858,RVT
"RV Sales and Service, Inc.",2273 Atlanta Hwy,Cumming,Georgia,30040,34.210349,-84.187794,RVT
RV Seller,1700 E Plano Pkwy,Plano,Texas,75074,33.031561,-96.673164,RVT
RV Service & Accessories of Tennessee,28 Interstate Ln,Crossville,Tennessee,38571,36.051604,-85.012804,RVT
RV Solutions,7620 Copley Park Pl,San Diego,California,92111,32.806476,-117.168879,RVT
RV Steals and Deals,26076 US-160,Southfork,Colorado,81154,37.575406,-106.603809,RVT
RV SuperStore,4427 E Dandelion St,Pahrump,Nevada,89048,36.165343,-116.003323,RVT
RV Superstore of Mocksville,462 Interstate Dr,Mocksville,North Carolina,27028,35.922771,-80.580443,RVT
RV Trends,156 E La Cadena Dr #8699,Riverside,California,92507,33.970847,-117.32512,RVT
"RV Vacation Rentals, Inc.",26677 OK-66 Unit B,Claremore,Oklahoma,74019,36.284765,-95.603194,RVT
RV Vacations,2123 Meriden-Waterbury Turnpike,Milldale,Connecticut,06479,41.57477,-72.9119,RVT
RV Way,8700 Brewerton Rd,Cicero,New York,13039,43.172142,-76.056249,RVT
RV Wholesalers,530 N Main St,Lakeview,Ohio,43331,40.517943,-83.921643,RVT
RV World - Fredericton,15 Chaparral Rd,Waasis,New Brunswick,E3B 9Z4,45.767215,-66.74577,RVT
RV World of Hudson,14103 US-19,Hudson,Florida,34667,28.391424,-82.662659,RVT
RV World of Northwest Florida,1915 US-231,Panama City,Florida,32405,30.202068,-85.667403,RVT
RV World Recreation Vehicle Center,5875 Gila Ridge Rd,Yuma,Arizona,85365,33.096439,-114.12534,RVT
RV's & Specialties,21610 Northwest Fwy,Cypress (Houston),Texas,77429,29.998421,-95.66736,RVT
RV's of N.H.,35 Robert Milligan Pkwy,Merrimack,New Hampshire,03054,42.852034,-71.519876,RVT
RV's Plus,5102 Hwy 71 NE,Willmar,Minnesota,56201,45.102185,-95.041816,RVT
RV's R Us,608 Columbia St,Higginsport,Ohio,45131,38.790338,-83.966938,RVT
RV's R Us,11315 66th St N,Largo,Florida,33773,27.882294,-82.75592,RVT
RV's Unlimited,685 Gardiners Rd,Kingston,Ontario,K7M 3Y4,44.245502,-76.56798,RVT
RVs 4 Less,14334 CA-41,Madera,California,93636,36.984885,-119.873914,RVT
RVs Northwest - Spokane,18919 E Broadway Ave,Spokane,Washington,99016,47.597285,-117.121042,RVT
RVs Northwest - Spokane Valley,18919 E Broadway Ave,Spokane Valley,Washington,99016,47.597285,-117.121042,RVT
RVs of Merritt - Scotts Valley,5015 Scotts Valley Dr,Scotts Valley,California,95066,37.067917,-122.013995,RVT
RVs of Sacramento ,9501 E Stockton Blvd,Sacramento,California,95624,38.427507,-121.314899,RVT
RVs of West Texas,1788 I-20,Baird,Texas,79504,32.335802,-99.350571,RVT
RVTECH,5701 Country Lakes Dr #1,Fort Myers,Florida,33905,26.667872,-81.760927,RVT
RVzz,150 E 1160 S,St. George,Utah,84770,37.185988,-113.609694,RVT
RW Associates Inc,14615 NE 13th Ct #B106,Vancouver,Washington,98685,45.715211,-122.693165,RVT
RW Repo Outlet,280 Bissell Pl,San Jacinto,California,92582,33.807607,-117.015163,RVT
Ryan Auto RV,436 Indian Rock Dam Rd #9581,York,Pennsylvania,17403,39.923228,-76.712794,RVT
S & H RV Superstore,625 US-20,Michigan City,Indiana,46360,41.68934,-86.869265,RVT
"S & S Apache Camping Center, Inc.",1820 Terry Rd,Jackson,Mississippi,39204,32.279311,-90.206334,RVT
S & S RV's,140 John Deere Rd,Farina,Illinois,62838,38.883771,-88.739995,RVT
S&S RV's,140 John Deere Rd,Farina,Illinois,62838,38.883771,-88.739995,RVT
Sackville RV Centre,6 Cattail Ridge,Sackville,New Brunswick,E4L 3S1,45.901682,-64.352662,RVT
Safari Condo,821 Rue du Parc,St-FrÃ©dÃ©ric,Quebec,G0N 1P0,46.25956,-71.239746,RVT
Sahara RV,1518 West Scotland Ln,Las Vegas,Nevada,89102,36.14543,-115.186825,RVT
Salem RV Center,387 Clifford Rd,Selingrove,Pennsylvania,17870,40.817323,-76.888636,RVT
Salmon Arm GM,3901 11 Ave NE,Salmon Arm,British Columbia,V1E 2S2,50.692547,-119.250189,RVT
SAMCOE Recreational Vehicles,2122 George Urban Blvd,Depew,New York,14043,42.901971,-78.703418,RVT
San Diego Autosports,8837 Magnolia Ave,Santee,California,92071,32.852358,-116.987842,RVT
San Diego Car Finder,2553 S Santa Fe Ave,Vista,California,92083,33.19784,-117.248203,RVT
SAN DIEGO MOTOR IMPORTS,9245 Jamacha Blvd,Spring Valley,California,91977,32.726237,-116.994318,RVT
San Diego Ultimate RV,15273 Olde Hwy 80 #1,Santee,California,92021,32.838798,-116.869956,RVT
San Pablo RV Center,3131 San Pablo Dam Rd,El Sobrante,California,94803,37.959549,-122.283578,RVT
Sandy's West RV Center,1451 W Miracle Mile,Tucson,Arizona,85705,32.271329,-110.993712,RVT
Santa Rosa RV,4249 Santa Rosa Ave,Santa Rosa,California,95407,38.3933,-122.745048,RVT
Saskatoon RV Superstore,3510 Idylwyld Dr N,Saskatoon,Saskatchewan,S7L 6G3,52.187826,-106.670154,RVT
Saunders RV Rentals,6146 S Howell Ave,Milwaukee,Wisconsin,53207,42.977392,-87.898851,RVT
Savers Park & Sell,2110 S Power Rd,Mesa,Arizona,85209,33.37545,-111.63867,RVT
SCATT Recreation - Salinas,242 Griffin St,Salinas,California,93901,36.636344,-121.623978,RVT
Scenic Traveler RV Centers - Baraboo,E10879 Deer Run Rd,Baraboo,Wisconsin,53913,43.49284,-89.728705,RVT
Scenic Traveler RV Centers - Slinger,3155 Scenic Rd,Slinger,Wisconsin,53086,43.317652,-88.271254,RVT
Schaap's RV Traveland,3100 W Russell St,Sioux Falls,South Dakota,57107,43.59762,-96.820415,RVT
Scholtes Auto World,1215 Sherwood St,Worthington,Minnesota,56187,43.622754,-95.583068,RVT
Schreck RV,4616 PA-66,Apollo,Pennsylvania,15613,40.546577,-79.561663,RVT
Schumacher European Ltd.,18530 N Scottsdale Rd,Phoenix,Arizona,85054,33.678536,-111.941095,RVT
Schuster's Outdoor & RV,210 S Reed St,Beatrice,Nebraska,68310,40.249821,-96.74949,RVT
Schwab's RV World,33 Highway 2,Leduc,Alberta,T9E 8B8,53.265045,-114.023658,RVT
"Schwen Camper Sales, Inc.",2235 Kiser Wagner Rd,Shippenville,Pennsylvania,16254,41.253396,-79.461389,RVT
Scott's RV Sales,1200 El Camino Real,Atascadero,California,93422,35.463544,-120.692911,RVT
Scottie's Certified RV & Auto,315 Moraine Rd NE,Calgary,Alberta,T2A 2L2,51.052376,-113.998856,RVT
"Scotty's Camper Sales, Inc.",1401 E St Peter St,New Iberia,Louisiana,70560,29.921943,-91.878669,RVT
Scougalls RV Centre Ltd.,807 18 St,Fort Macleod,Alberta,T0L 0Z0,49.575885,-113.158687,RVT
Seacoast RV's ,729 Portland Rd,Saco,Maine,04072,43.550411,-70.466341,RVT
See America RV & Boat,3730 Omec Cir,Rancho Cordova,California,95742,38.577783,-121.201788,RVT
See Grins RV,7900 Arroyo Cir,Gilroy,California,95020,37.018419,-121.554249,RVT
Selah Trailer Camper Sales,518 S 1st St,Selah,Washington,98942,46.801335,-120.66481,RVT
Sellers RV,3105 50 Ave,Lloydminister,Saskatchewan,S9V 0N7,53.265648,-110.005829,RVT
"Sellers Trailers and Toys, LLC",3110 Boychuk Ave,Colorado Springs,Colorado,80910,38.812066,-104.77458,RVT
Seltice RV,106 S Idaho,Post Falls,Idaho,83854,47.71934,-116.967308,RVT
Serious Coach Sales & Consignment,378 S Hamilton Ct,Gilbert,Arizona,85233,33.353505,-111.811432,RVT
Service Caravanes R.P. Inc.,8900 Chambly Rd,St-Hubert,Quebec,J3Y 5K2,45.478037,-73.36538,RVT
"Settles Cars, Trucks and RV's",706 Zachary Taylor Hwy,Flint Hill,Virginia,22627,38.757956,-78.144591,RVT
Seven O's RV Sales,7917 Devaul Rd,Kirkville,New York,13082,43.10273,-75.959888,RVT
Seven O's RV Sales,8700 Brewerton Rd,Cicero,New York,13039,43.172142,-76.056249,RVT
"Shady Pines Trailer Sales, Inc.",9956 W 7th St,Texarkana,Texas,75501,33.371831,-94.139813,RVT
Shaw RV,1650 US-1,Youngsville,North Carolina,27596,35.999902,-78.435089,RVT
Sheehan Campers,1313 9th Ave SE,Watertown ,South Dakota,57201,44.936722,-97.092757,RVT
Sherwood RV,540 Brand Rd,Saskatoon,Saskatchewan,S7J 5J3,52.08686,-106.64782,RVT
Shoemaker R.V. Center,955 N Macon St,Bevier,Missouri,63532,39.760888,-92.572883,RVT
Shorewood RV,17600 Ocean Blvd,Anoka,Minnesota,97136,45.630592,-123.920769,RVT
Showtime Trailers,5231 S York Hwy,Grimsley,Tennessee,38565,36.262759,-85.009469,RVT
Signal Trailer Sales,1871 Ross Ave,Everett,Washington,98201,48.006311,-122.210044,RVT
Silvester RV Centre,2701 99 St,North Battleford,Saskatchewan,S9A 3W8,52.887775,-108.289797,RVT
Skaggs RV Country,301 Commerce Dr,Elizabethtown,Kentucky,42701,37.703686,-85.837111,RVT
Ski's Truck & RV Sales,9272 E US Hwy 36,Rockville,Indiana,47872,39.753541,-87.153112,RVT
Skyline RV,10933 Townline Rd,Darien Center,New York,14040,42.890873,-78.376631,RVT
Skyline RV Travel Centre,2325 43 St S,Lethbridge,Alberta,T1K 6Z7,49.670266,-112.779163,RVT
Skyway Rv ,6543 46st n Suite 1105,Pinellas park,Florida,33781,27.838362,-82.714996,RVT
Smallwoods Custom Trailers and Camper Sales,4305 US-45,Jackson,Tennessee,38305,35.701654,-88.768058,RVT
Smart Choice,17650 Northwest Fwy,Jersey Village,Texas,77065,29.926473,-95.60379,RVT
Smith & Fraser Mobile Homes Ltd.,5085 Lower South River Rd,Antigonish,Nova Scotia,B2G 2L8,45.629033,-61.987118,RVT
Smith RV Center,Texas 76234,Decatur,Texas,76234,33.276319,-97.514178,RVT
Smith RV Sales & Service,3500 E Yellowstone Hwy,Evansville,Wyoming,82636,42.913338,-106.158433,RVT
Smith Trailer Sales,446 W Washington St,Monroe,Indiana,46772,40.721508,-84.913716,RVT
Smith's RV,1000 Lake Shore Dr,Okoboji,Iowa,51355,43.389404,-95.136153,RVT
SMP RV,2760 Yellowhead Hwy,Houston,British Columbia,V0J 1Z0,54.39647,-126.63605,RVT
SMYL RV Centre,5115 44 St,St Paul,Alberta,T0A 3A2,53.989756,-111.2735,RVT
Snyder's RV,5632 Virginia Beach Blvd,Salem,Virginia,23462,36.837313,-76.150514,RVT
SoCal RV Rental & Sales,180 N Sherman Ave,Corona,California,92882,33.840451,-117.601961,RVT
Sonoran Truck,1919 W North Ln,Phoenix,Arizona,85021,33.559421,-112.092875,RVT
South 20 RV Centre,81 Main St,Humboldt,Saskatchewan,S0K 2A0,52.201393,-105.134075,RVT
South Coast Marine & RV,760 NE 7th Ave,Dania,Florida,33004,26.057838,-80.137801,RVT
South Hill RV Sales,12414 S Meridian,Puyallup,Washington,98373,47.148479,-122.324136,RVT
South Lake RV,2056 19th St,Rice Lake,Wisconsin,54868,45.525662,-91.707548,RVT
South Pacific Auto & RV Sales,5040 Pacific Blvd SW,Albany,Oregon,97321,44.65345,-123.139526,RVT
South Shore Liquidators,5819 N U.S. Hwy 41,Apollo Beach,Florida,33572,27.761109,-82.40858,RVT
South Thompson RV,2449 Trans-Canada Hwy,Kamloops,British Columbia,V2C 4A9,50.674761,-120.241822,RVT
South Trails RV Center,7406 US Hwy 27 N,Sebring,Florida,33870,27.506929,-81.408456,RVT
South Valley Auto & RV LLC,2818 13400 S,Riverton,Utah,84065,40.49386,-111.943722,RVT
Southern Country RVs,10210 Brighton Ln unit B,Houston,Texas,77031,29.652205,-95.54623,RVT
Southern Leasing and Rentals,3529 S Interstate 10 Service Rd E Ste 100,Metairie,Louisiana,70002,30.012223,-90.162523,RVT
Southern New Hampshire RV,335 NH-125,Brentwood,New Hampshire,03833,42.978415,-70.987522,RVT
Southern Recreation Vehicles,7001 Jefferson Davis Hwy,Richmond,Virginia,23237,37.400878,-77.449054,RVT
Southern RV,324 Industrial Blvd,McDonough,Georgia,30253,33.448926,-84.18357,RVT
Southern RV Center,710 S Jackson St,Ocala,Florida,37388,35.343672,-86.221295,RVT
"Southern RV Super Center, Inc.",324 Industrial Blvd,Bossier City,Louisiana,30253,33.448926,-84.18357,RVT
Southern RV Wholesale,9311 Madison Blvd,Huntsville,Alabama,35758,34.711417,-86.74651,RVT
Southside Chrysler Jeep & RV Centre,2804 50 Ave,Red Deer,Alberta,T4R 1M4,52.2452645,-113.814124,RVT
Southwest RV Center,83386 CA-111,Indio,California,92201,33.710984,-116.204844,RVT
Sparta Chevrolet & Trailers (Cargo),8955 Sparta Ave NW,Sparta,Michigan,49345,43.15534,-85.703948,RVT
Sparta Chevrolet & Trailers (Horse),8955 Sparta Ave NW,Sparta,Michigan,49345,43.15534,-85.703948,RVT
Speedway RV Center,16957 W Main St,Monroe,Washington,98272,47.848583,-121.894899,RVT
Spencer RV Sales & Service,821 Elm Rd,Bremen,Indiana,46506,41.462622,-86.1724,RVT
Spirit RV World,602 Heron Dr,Swedesboro,New Jersey,08085,39.761129,-75.32406,RVT
Sport Rider Outdoors,235 High St,Morgantown,West Virginia,26505,39.649517,-79.945258,RVT
Spring Cypress RV,11721 Spring Cypress Rd,Tomball,Texas,77377,30.061727,-95.681504,RVT
Squatch RV,16222 SE 272nd St,Kent,Washington,98042,47.367737,-122.117029,RVT
Staley Coach,933 A W Old Hickory Blvd,Madison,Tennessee,37115,36.253847,-86.69553,RVT
Starr Trailer Sales,3673 US-219,Brockway,Pennsylvania,15824,41.250833,-78.841186,RVT
"State Line Auto, RV & Marine",1545 Carl Broggi Hwy,Lebanon,Maine,04027,43.399909,-70.912785,RVT
Stearns RV,71 Mechanic St,Bellingham,Massachusetts,02019,42.076682,-71.47449,RVT
Steinbach Holiday RV & Marine,143 MB-12,Steinbach,Manitoba,R5G 1T5,49.538365,-96.68822,RVT
STERLING MOTORS,26765 Madison Ave,MURRIETA,California,92562,33.547613,-117.34404,RVT
Sterling RV,15573 Grand Ave,Lake Elsinore,California,92530,33.649528,-117.376774,RVT
Sterling Trailer Sales,1935 2 Ave,Dunmore,Alberta,T1B 0K3,49.971699,-110.5831642,RVT
Stettler Dodge and RV,4406 44 Ave,Stettler,Alberta,T0C 2L0,52.25344,-112.58839,RVT
Steve And Sons Auto Sales,8607 SE 82nd Ave,Portland,Oregon,97086,45.445048,-122.528173,RVT
Steve Pound Wholesale,2704 N Hayden Island Dr,Portland,Oregon,97217,45.601815,-122.700798,RVT
Steve's Auto Sales,414 W 27th St,Scottsbluff,Nebraska,69361,41.922838,-103.622904,RVT
Steve's RV Center,7364 US-11,Potsdam,New York,13676,44.65496,-74.926222,RVT
Steve's RV Center,29671 N Dixie Ranch Rd,Lacombe,Louisiana,70445,30.375351,-89.910291,RVT
"Stewart's RV, Inc.",854 E 1100 S St,American Fork,Utah,84003,40.471654,-111.68059,RVT
Stivenson Camper Sales,649 Freeport Rd,Butler,Pennsylvania,16002,40.815135,-79.855361,RVT
Stone RV,3821 38 Ave,Whitecourt,Alberta,T7S 0A2,54.11594,-115.64799,RVT
Stone's RV & Home Center,2689 Westville Rd,New Glasgow,Nova Scotia,B2H 5E7,45.574653,-62.628789,RVT
Stoney's RV,11510 E Pike Rd,Cambridge,Ohio,43725,40.044987,-81.58933,RVT
"Stout's RV Sales, Inc.",303 Sheek Rd,Greenwood,Indiana,46143,39.59586,-86.116319,RVT
Sturgeon Woods RV & Marine,1129 Mersea Road C Unit #1,Leamington,Ontario,N8H 3V4,42.010959,-82.572598,RVT
Subaru of Merrillville ,1777 W U.s. 30,Merrillville,Indiana,46410,41.480207,-87.333065,RVT
Suburban RV Center,1878 Ashland Rd,Mansfield,Ohio,44905,40.77808,-82.467189,RVT
Success RV's,510 1 Ave E,Watrous,Saskatchewan,S0K 4T0,51.545987,-105.657294,RVT
Sugar Creek Camper Sales Inc.,11103 N Hillside Rd,Edgerton,Wisconsin,53534,42.860824,-89.09331,RVT
Sullivan Motor Company Inc,1515 W Broadway Rd,Mesa,Arizona,85202,33.379757,-111.875018,RVT
Summit RV,6611 US-60,Ashland,Kentucky,41102,38.427628,-82.730185,RVT
"Sun & Fun, Inc.",4821 US-6 SE,Iowa City,Iowa,52240,41.635728,-91.500622,RVT
"Sun City Trailers, LLC",6310 E Platte Ave,Colorado Springs,Colorado,80915,38.849797,-104.717043,RVT
Sunbelt RV Center Inc.,2909 S Main St,Belton,Texas,76513,31.051688,-97.499909,RVT
Suncoast RV Lake Park,5300 Jewell Futch Rd,Lake Park,Georgia,31636,30.730986,-83.111372,RVT
Sundance RV,50 SE Brewer Rd,Vernal,Utah,98584,47.238866,-123.145661,RVT
Sundown RV Center,2550 Ashby Rd,Atwater,California,95301,37.321233,-120.654395,RVT
Sunridge RV,Highway 16,Radisson,Saskatchewan,S0K 3L0,52.460518,-107.385689,RVT
Sunridge RV,63 Kingsview Rd SE,Airdrie,Alberta,T4A 0A8,51.333668,-113.920285,RVT
Sunset Motors,5566 Root Rd,Spencer,Ohio,44275,41.101859,-82.102593,RVT
Sunset RV Sales,3937 Harrison Pike,Cleveland,Tennessee,37311,35.113133,-84.928186,RVT
Sunshine RV,2995 Maricopa Ave,Lake Havasu City,Arizona,86406,34.423236,-114.109863,RVT
Sunstate RV & Marine,541456 US-1,Callahan,Florida,32011,30.571111,-81.839579,RVT
Suntan RV,20176 Stormont,Summerstown,Ontario,K0C 2E0,45.0897064208984,-74.5685119628906,RVT
Sunwest RV,2800 Cliffe Ave,Courtenay,British Columbia,V9N 2L7,49.750013,-125.010884,RVT
"Superior RV Center, Inc.",930 S Hobart St,Pampa,Texas,79065,35.541234,-100.906572,RVT
Superstition RV,702 S Meridian Rd,Apache Junction,Arizona,85120,33.402386,-111.567878,RVT
Susquehanna Valley RV - Bloomsburg,560 Montour Blvd,Bloomsburg,Pennsylvania,17815,41.020038,-76.420092,RVT
Susquehanna Valley RV - Selinsgrove,2084 US-522,Selinsgrove,Pennsylvania,17870,40.817323,-76.888636,RVT
Sutton RV,2400 W 7th Ave,Eugene,Oregon,97402,44.047736,-123.230905,RVT
Sweet Motors,403 Howard Blvd,Corona,California,07856,40.91608,-74.626689,RVT
Swenson RV & Marine,1700 Revere Dr,Bismarck,North Dakota,58501,46.816035,-100.700296,RVT
"Swenson, Inc.",1945 20th Ave SE,Minot,North Dakota,58701,48.144826,-101.326016,RVT
Sycamore Hill Trailer Sales,2266 Quentin Rd,Lebanon,Pennsylvania,17042,40.294817,-76.424823,RVT
T & S Motors,26653 Main St,Ardmore,Tennessee,38449,35.040439,-86.818172,RVT
"T D Wall, Inc",7192 S 75 E,Huntington,Indiana,46792,40.684316,-85.44333,RVT
T J Distributing,5620 TX-276,Royse City,Texas,75189,32.942051,-96.31166,RVT
Tacoma RV Center,6300 Pacific Hwy E,Fife,Washington,98424,47.235341,-122.354192,RVT
Tag Motors & RV,1601 NY-112,Medford,New York,11763,40.826582,-72.98405,RVT
"Tahiti RV, LLC",7200 S Las Vegas Blvd,Las Vegas,Nevada,89119,36.084721,-115.146129,RVT
TC's RVs,457 Swanton Rd,Saint Albans,Vermont,05478,44.808422,-73.082507,RVT
Team Autoplex,5712 Southwest Fwy,Houston,Texas,77057,29.744081,-95.487974,RVT
Tebben's Campers,47504 271st St,Harrisburg,South Dakota,57032,43.424192,-96.678132,RVT
Ted's RV Land,28501 Hwy 55,Paynesville,Minnesota,56362,45.401875,-94.71212,RVT
Tee Pee Trade & RV Centre ,3737 48 Ave,Camrose,Alberta,T4V 3T4,53.017928,-112.804466,RVT
Tent & Trailer City Hempstead,236 Front St,Hempstead,New York,11550,40.701475,-73.621108,RVT
"Terrell Camping Center, Inc.",7995 NC-150,Terrell,North Carolina,28682,35.588255,-80.965153,RVT
Terry Frazer's RV Center,2000 E Le Claire Rd,Eldridge,Iowa,52748,41.665776,-90.554924,RVT
Terry Labonte RV,7100 Landmark Center Blvd,Greensboro,North Carolina,27407,36.008599,-79.87816,RVT
Terry Vaughn RV - Alvin,25209 Hwy 6,Alvin,Texas,77511,29.380858,-95.241857,RVT
Terry Vaughn RV - Spring,22930 I-45,Spring,Texas,77373,30.062169,-95.383966,RVT
Terry's RV Sales & Service,9825 IN-67,Muncie,Indiana,47320,40.271703,-85.272799,RVT
Texas Country RV,16415 S Access Rd,Canyon Lake,Texas,78133,29.889085,-98.244624,RVT
Texas xtreme RV,25238 FM 2090,Houston,Texas,77372,30.23801,-95.16446,RVT
Thatcher RV Sales,45 S,Center Point,Indiana,47840,39.408055,-87.056514,RVT
The Boat Broker Inc.,1680 Industrial Blvd,Lake Havasu City,Arizona,86403,34.480257,-114.348504,RVT
The Car Show RV Center,3015 N Nevada Ave,Colorado Springs,Colorado,80907,38.878231,-104.827015,RVT
The Carstars Auto & RV Sales,8500 Old Hwy 99 SE,Olympia,Washington,98501,46.974504,-122.875987,RVT
The RV Man,1313 Rv Center Dr,Colton,California,92324,34.02452,-117.289255,RVT
THE RV SPA,2106 W Foothill Blvd,Upland,California,91786,34.105282,-117.662035,RVT
The RV Spot,3881 County Rd 34,Alexandria,Ontario,K0C 1A0,45.301001,-74.586118,RVT
The RV Warehouse,65 Reive Blvd,Cookstown,Ontario,L0L 1L0,44.19208,-79.622988,RVT
The Trail Center,5728 Dorchester Rd,North Charleston,South Carolina,29418,32.909523,-80.094219,RVT
Thetford Autos & V.R.,2021 Bd Frontenac E,Thetford Mines,Quebec,G6G 6P6,46.112205,-71.281155,RVT
Thomas Homes & RV Center Inc.,9900 78 St,Peace River,Alberta,T8S 2A1,56.233046,-117.340656,RVT
Thomas RV & Auto Sales,2410 Taylor Rd,Searcy,Arkansas,72143,35.232983,-91.736474,RVT
Thomas RV Rentals,6724 Wilgrove Mint Hill Rd,Charlotte,North Carolina,28227,35.189567,-80.645408,RVT
Thompson Campers Inc.,8976 OH-14,Streetsboro,Ohio,44241,41.242586,-81.347721,RVT
Thompson Family RV,14040 110th Ave,Davenport,Iowa,52804,41.532458,-90.681249,RVT
Thompson RV Inc,1201 Southgate,Pendleton,Oregon,97801,45.670806,-118.823573,RVT
Three Rivers Marine and RV Center,437 Constitution Blvd,New Brighton,Pennsylvania,15066,40.747074,-80.256143,RVT
Timberlake RV,21330 Timberlake Rd,Lynchburg,Virginia,24502,37.360401,-79.221579,RVT
Timbucktu RV Superstore,1048 Southbridge St,Boylston,Massachusetts,01610,42.247049,-71.808366,RVT
Tip's RV,2811 N Fairfield Rd,Layton,Utah,84041,41.069915,-111.981254,RVT
Tippy Toe Repo.com,1870 SC-9,Longs,South Carolina,29568,33.913616,-78.750292,RVT
TK RVs,7980 US-183 Hwy,Lockhart,Texas,78644,29.871644,-97.676821,RVT
Tom Flood RV Sales,4287 Highway 380 East,Princeton,Texas,75407,33.153143,-96.471422,RVT
Tom Naquin Chevy,2500 W Lexington Ave,Elkhart,Indiana,46514,41.722641,-85.976908,RVT
Tom's Auto and RV,Ramsey Park - Cansayapi Park,Redwood Falls,Minnesota,56283,44.527995,-95.13883,RVT
Tom's Trailers and RV's,12645 State Hwy 8,Titusville,Pennsylvania,16354,41.613725,-79.706464,RVT
Tonie's RV,1102 Tennessee St,Salem,Virginia,24153,37.302506,-80.114325,RVT
Tooele Valley Motorsports,354 E Cimmarron Way,Erda,Utah,84074,40.556201,-112.265744,RVT
Top Value RV,4770 Pacific Hwy,Bellingham,Washington,98226,48.798606,-122.445693,RVT
Topline,3135 S 2050 W,Layton,Utah,84401,41.212012,-112.034564,RVT
Toppers' Camping Center,38002 US-290,Houston,Texas,77484,30.079431,-95.932255,RVT
Total Value RV of Indiana,1301 E. Sanford School Road,Elkhart,Indiana,46514,41.722641,-85.976908,RVT
Totally Toyhaulers,61 S Main St Unit B,Templeton,California,93465,35.538809,-120.739893,RVT
Town & Country Campers,1230 Dawson Rd,Winterville,Georgia,30683,33.946987,-83.25627,RVT
"Town & Country RV, Inc.",3250 W Sunshine St,Springfield,Missouri,65807,37.167533,-93.324773,RVT
TowTally Camping,2425 Cascade Blvd,Redding,California,96003,40.751937,-122.230678,RVT
Toy Hauler Depot,2581 E Central Ave,Fresno,California,93725,36.627211,-119.731888,RVT
Toy Master RV,5 Campbell Rd,Charlottetown,Prince Edward Island,C1E 1Z2,46.292487,-63.174247,RVT
Track Star International,8801 J M Keynes Dr Suite 260,New Hartford,New York,28262,35.322061,-80.739981,RVT
Tracy's RV Centre/Taylor Coach,915 Hwy 6,Millgrove,Ontario,L0R 1V0,43.350695,-79.99339,RVT
Tradewinds RV,7677 US-441,Ocala,Florida,34480,29.102401,-82.096588,RVT
Trailblazer RV,9897 283 Street,Acheson,Alberta,T7X 6J5,53.5465043,-113.7857843,RVT
Trailblazer RV Centre Ltd.,9897 283 Street,Nisku,British Columbia,T7X 6J5,53.5465043,-113.7857843,RVT
Trailer City Inc.,2386 White Hall Blvd,Fairmont ,West Virginia,26554,39.465392,-80.109845,RVT
Trailer Source - Colorado Springs,4011 Sinton Rd,Colorado Springs,Colorado,80907,38.878231,-104.827015,RVT
Trailer Source - Erie,2038 E I-25 Frontage Rd,Erie,Colorado,80516,40.051112,-105.027632,RVT
Trailer Source - Littleton,8056 S Platte Canyon Rd,Littleton,Colorado,80128,39.563846,-105.079066,RVT
Trailer Town,5325 6 St SE,Calgary,Alberta,T2H 1M2,51.006193,-114.049219,RVT
Trailer Town,5325 6 St SE,Calgary,Alberta,T2H 1M2,51.006193,-114.049219,RVT
Trailer World Inc.,800 Three Springs Rd,Bowling Green,Kentucky,42104,36.876864,-86.45119,RVT
Trailica Inc.,1021 Limoges Rd,Limoges,Ontario,K0A 2M0,45.362295,-75.253969,RVT
TrailManor,42021 268th St,Parkston,South Dakota,57366,43.377168,-97.946533,RVT
Trailside RV Center,700 R D Mize Rd,Grain Valley,Missouri,64029,39.005925,-94.216381,RVT
Transcona Trailer Sales,1330 Dugald Rd,Winnipeg,Manitoba,R2J 0H2,49.885755,-97.056834,RVT
Transwest Truck Trailer RV of Denver,1300 W 62nd Ave Suite B,Frederick,Colorado,80221,39.817067,-105.011035,RVT
Transwest Truck Trailer RV of Grand Junction,2236 Sanford Dr,Grand Junction,Colorado,81505,39.255826,-108.534246,RVT
Transwest Truck Trailer RV of Kansas City,17327 S Outer Rd,Belton,Missouri,64012,38.789354,-94.543625,RVT
Transwest Truck Trailer RV of Wathena,17327 S Outer Rd,Wathena,Kansas,64012,38.789354,-94.543625,RVT
"Travel America RV Center, Inc.",685 US-80,Pearl,Mississippi,39208,32.259775,-90.09194,RVT
Travel Trailer Center Inc.,66 Waterway St,Parkersburg,West Virginia,26101,39.240324,-81.575872,RVT
Travel Trailer Center Inc.,10320 Maple Ridge Rd,Middleport,New York,14105,43.199166,-78.483903,RVT
Travel Trailer Sales & Service,2103 Georgetown Rd,Tilton,Illinois,61833,40.099747,-87.64422,RVT
Travel-Mor Trailer Sales,4863 Bank St S,Ottawa,Ontario,K1X 1G6,45.304189,-75.584206,RVT
Traveland RV & Marine,915 S Ely St,Kennewick,Washington,99336,46.21405,-119.175728,RVT
Traveland RV - Airdrie,63 Kingsview Rd SE,Airdrie,Alberta,T4A 0A8,51.333668,-113.920285,RVT
Traveland RV - Kelowna,1460 Byland Rd,West Kelowna,British Columbia,V1Z 1A7,49.8615569,-119.5887533,RVT
Traveland RV - Langley,20529 Langley Bypass,Langley,British Columbia,V3A 5E8,49.103873,-122.64265,RVT
"Travelhome, The RV Marketplace",2866 Mount Lehman Rd,Langley,British Columbia,V4X 2N7,49.05592,-122.381458,RVT
Traveller's Rest Mini Homes,1564 Blue Shank Rd,Kensington,Prince Edward Island,C0B 1M0,46.43789,-63.63458,RVT
Travers RV,18155 Old US Hwy 66,Eureka,Missouri,63025,38.48753,-90.620119,RVT
Travers St. Louis RV,1080 W Terra Ln,O'Fallon,Missouri,63366,38.857443,-90.725492,RVT
"Traylor Motor Homes, Inc",1216 I-45,Palmer,Texas,75152,32.439871,-96.678051,RVT
Tri City RV,4501 Wilder Rd,Bay City,Michigan,48706,43.599622,-83.950504,RVT
Tri-Am RV,5441 NE Jacksonville Rd,Ocala,Florida,34479,29.255724,-82.109112,RVT
Tri-Am RV,Exit 23,Bulls Gap,Tennessee,37711,36.281355,-83.045426,RVT
Tri-Lakes RV Rentals,219 Lyon Lake Rd,Union,Michigan,49068,42.276445,-84.939742,RVT
Triangle RV Centre,10299 McDonald Park Rd,Sidney,British Columbia,V8L 5S8,48.665609,-123.437765,RVT
Triple A RV Center,938 Chevy Way,Medford,Oregon,97504,42.327947,-122.800496,RVT
Triple H Campers,3354 AL-13,Haleyville,Alabama,35565,34.23696,-87.563402,RVT
Tropical RV Sales,3019 US-1,Fort Pierce,Florida,34982,27.373264,-80.308018,RVT
TRX RV,3810 Thatcher Ave,Saskatoon,Saskatchewan,S7R 1A5,52.196297,-106.677659,RVT
TS Recreational Inc.,1682 US-10,Detroit lakes,Minnesota,56501,46.837285,-95.813948,RVT
Tucson Park & Sell RV's,7030 E Old Vail Rd,Tucson,Arizona,85756,32.079259,-110.898921,RVT
Turpin RV Sales & Service,746 Bugscuffle Rd,Alexandria,Louisiana,30546,34.898796,-83.696585,RVT
Twins Truck and Trailer,3605 Thompson Bridge Rd,Gainesville,Georgia,30506,34.346947,-83.895595,RVT
Tyler RV Center,985 E NE Loop 323,Tyler,Texas,75708,32.418412,-95.21307,RVT
Tyssen Camping Trailers,23056 ON-48 Rr1,Sutton,Ontario,L0E 1R0,44.311368,-79.326353,RVT
U and I RV ,2944 N Main St,Logan,Utah,84341,41.775539,-111.806655,RVT
U S Rents-It RV Center,1513 Industrial Dr,Jefferson City,Missouri,65109,38.573883,-92.277794,RVT
U-Neek RV Center,2625 Old Pacific Hwy S,Kelso,Washington,98626,46.172049,-122.773959,RVT
U-Save Car & Truck Rental,2540 Brown Ave,Manchester,New Hampshire,03103,42.950538,-71.446547,RVT
Ultimate RV,8200 West Fwy,White Settlement,Texas,76108,32.787541,-97.52379,RVT
Uncle Ben's RV,5 Energy Blvd,Red Deer,Alberta,T4E 0A8,52.232762,-113.713259,RVT
"Unger Recreational Vehicles, Inc",800 Flaugherty Run Rd,Coraopolis,Pennsylvania,15108,40.500472,-80.201802,RVT
Unique to Chic Auto Sales,220 Byrd St,Orange,Virginia,22960,38.219183,-78.072698,RVT
United Liquidators,1319 Hancock Ave,Gainsville,Georgia,30501,34.319072,-83.814393,RVT
United RV Center,5100 Airport Fwy,Fort Worth,Texas,76117,32.803436,-97.267376,RVT
United RV Centers,607 S 3rd Ave,Chatsworth,Georgia,30705,34.744142,-84.731404,RVT
Universal Marine & RV,2850 7th St NW,Rochester,Minnesota,55901,44.069818,-92.506581,RVT
Unlimited RV,4400 N Cobbler Rd,Independence,Missouri,64058,39.173856,-94.31356,RVT
Utah RV Rental & Sales,2788 W 7800 S,West jordan,Utah,84088,40.595163,-111.960908,RVT
V.I.P Auto Sales,2255 W Main St #6805,Mesa,Arizona,85201,33.433545,-111.8504,RVT
V.R. Expert,973 Bd Saint-Luc,Saint-Jean-Sur Richelieu,Quebec,J2W 1B6,45.374649,-73.353862,RVT
Vacation Trailer Sales,1776 Benzie Hwy,Benzonia,Michigan,49616,44.579933,-86.090298,RVT
Vacation Trailer Sales,1776 Benzie Hwy,Benzonia,Michigan,49616,44.579933,-86.090298,RVT
Valero Century RV Mega Center,2718 PA-66,Delmont,Pennsylvania,15626,40.406993,-79.57616,RVT
Valley Recreation Vehicles,120 Penn Ave,Turtle Creek,Pennsylvania,15145,40.41528,-79.824086,RVT
Valley RV Sales,275 W Cumberland Gap Pkwy,Corbin,Kentucky,40701,36.921744,-84.15771,RVT
Valley RV Supercenter,619 Washington Ave N,Kent,Washington,98032,47.391942,-122.257192,RVT
Valley Traveland Inc.,6201 US-83 BUS,Harlingen,Texas,78552,26.193782,-97.75069,RVT
Van Boxtel RV & Auto,1956 Bond St,Green Bay,Wisconsin,54303,44.538066,-88.048764,RVT
Van's RV Center,417 John Fitch Blvd,Windsor,Connecticut,06074,41.83809,-72.577836,RVT
Vancouver RV Center,10455 NE 53rd St,Vancouver,Washington,98662,45.688497,-122.57785,RVT
Vaughans RV Sales,7384 IA-92,Indianola,Iowa,50125,41.335185,-93.584634,RVT
Vellner Leisure Products,1890 49 Ave,Red Deer,Alberta,T4R 2N7,52.23148,-113.810808,RVT
Vercoe Yacht Sales,515 NE Tomahawk Island Dr #140,Portland,Oregon,97217,45.601815,-122.700798,RVT
Vermont Country Campers,1498 U.S. Rte 2,East Montpelier,Vermont,05651,44.282307,-72.489262,RVT
Vero Beach Chrysler Plymouth Saab & RV,855 S U.S. 1,Vero Beach,Florida,32962,27.587819,-80.382865,RVT
Veurinks' RV Center,7144 Division Ave S,Grand Rapids,Michigan,49548,42.870454,-85.662605,RVT
Vic Roulan Inc.,60 Boulevard Arthabaska Est,Victoriaville,Quebec,G6T 0S7,46.0830119,-71.992766,RVT
Vicars Trailer Sales,9080 Pelham Rd,Taylor,Michigan,48180,42.225283,-83.267691,RVT
Village RV,4150 E Victoria Ave,Regina,Saskatchewan,S4Z 1A5,50.450927,-104.528395,RVT
Vintagecampers.Com,2574 S Strawtown Pike,Peru,Indiana,46970,40.760125,-86.061471,RVT
Vision RV,11330 266 St,Acheson,Alberta,T7X 6E1,53.564374,-113.390871,RVT
Vogel's RVs,2500 N State St,Ukiah,California,95482,39.135023,-123.259338,RVT
Volkert Sales LLC,1115 4th Ave S #1946,Denison,Iowa,51442,42.027498,-95.360635,RVT
VR Emond Plus,1250 Chem. de la CoopÃ©rative,Saint-Nicolas,Quebec,G7A 1A1,46.670941,-71.354834,RVT
VR Emond Plus,1250 Chem. de la CoopÃ©rative,Levis,Quebec,G7A 1A1,46.670941,-71.354834,RVT
VR Rive-Nord,40 Rue Vifan,Lanoraie,Quebec,J0K 1E0,45.956657,-73.221825,RVT
VR Souliere of Baie St-Paul,1588 Boulevard Mgr de Laval,Baie-Saint-Paul,Quebec,G3Z 2X7,47.472408,-70.51881,RVT
VR Souliere of Lanoraie,179 Rue du Parc Industriel,Lanoraie,Quebec,J0K 1E0,45.956657,-73.221825,RVT
VR Souliere of Lavaltrie,42 Rang Saint Francois,Lavaltrie,Quebec,J5T 3K5,45.92753,-73.3199,RVT
VR Souliere of Sherbrooke,9343 Boul Bourque,Sherbrooke,Quebec,J1N 0G2,45.38481,-71.964371,RVT
VR St-Cyr,3465 Rue de l'Industrie,Saint-Mathieu de Beloeil,Quebec,J3G 0R9,45.5959708,-73.1946207,RVT
"W. E. S. Trailer Sales, Inc.",6166 Middle Country Rd,Wading River,New York,11792,40.954997,-72.825588,RVT
"W.T. Family RV Sales & Service, Inc.",117 Wt Family Blvd,Blakeslee,Pennsylvania,18610,41.069339,-75.549469,RVT
Wade's RV,16059 US-75,Glenpool,Oklahoma,74033,35.945975,-96.007444,RVT
Wade's RV Clinic,2440 W 121st St S,Sapulpa,Oklahoma,74033,35.945975,-96.007444,RVT
Wagners Outdoor Express RV ,128 Recreation Ln,Falling waters,West Virginia,25419,39.575796,-77.89571,RVT
Wainalta Motors (1988) Ltd.,2110 15 Ave,Wainwright,Alberta,T9W 1L2,52.845489,-110.848661,RVT
Walker's Four Seasons,441 Commerce Dr,Victor,New York,14564,42.986699,-77.43436,RVT
Walnut Ridge Family Trailer Sales,87 N County Rd 300 W,New Castle,Indiana,47362,39.930459,-85.36958,RVT
Walt Michal's RV Center,44700 N Interstate 94 Service Dr,Belleville,Michigan,48111,42.177312,-83.488444,RVT
Wana RV,1180 N Van Buren St,Shipshewana,Indiana,46565,41.69485,-85.577499,RVT
Ward's Travel Trailers,3830 US-11,Marathon,New York,13045,42.573849,-76.202145,RVT
Wasatch Trailer Sales,720 S Main St,Layton,Utah,84041,41.069915,-111.981254,RVT
Waters RV Storage & Center,10722 Waters RV Dr,Waters,Michigan,49735,44.997939,-84.670317,RVT
Watt's RV Center,22401 88th Ave South,Kent,Washington,98031,47.405479,-122.195772,RVT
Waymire APS,1280 N Senate Ave,Indianapolis,Indiana,46202,39.784102,-86.163477,RVT
Webb's R.V. Center,1206 Hammond St,Bangor,Maine,04401,44.848517,-68.850405,RVT
Weekend RV Center,1458 Clinton Hwy,Clinton,Tennessee,37716,36.097124,-84.175183,RVT
Wehr RV - Mountain Grove,11311 Business,Mountain Grove,Missouri,65711,37.176383,-92.275679,RVT
Wellington Highlands RV,535 Main St N,Mount Forest,Ontario,N0G 2L1,43.983057,-80.740302,RVT
"West Coast RV's, Inc.",1551 W Park Ave,Pomona,California,92373,34.011953,-117.159699,RVT
West Texas RV & Truck Stop,811 S Colorado St,Midland,Texas,79701,31.992384,-102.081464,RVT
Westcoast Mountain Campers,8992 92 St,Richmond (Vancouver),British Columbia,V4G 0A4,49.1345934,-123.0005476,RVT
Westcoast Mountain Campers,Crosspointe Dr,Calgary,Alberta,T4A 0T5,51.282387,-113.987384,RVT
"Western Campers, Inc.",8383 TX-580 Spur,Fort Worth,Texas,76116,32.720723,-97.447033,RVT
Western Recreational Products,5202A Hwy 16 West,Fallis,Alberta,T0E 0V0,53.622416,-114.577644,RVT
Western RV Country - Airdrie,61 East Lake Ramp NE,Airdrie,Alberta,T4A 2K4,51.289226,-113.9952877,RVT
Western RV Country - Grande Prairie,14415 100 St,Grande Prairie,Alberta,T8V 7C1,55.2074514,-118.7930599,RVT
Western RV Country - Leduc,7503 Sparrow Dr,Leduc,Alberta,T9E 0H3,53.301161,-113.543303,RVT
Western RV Country - Lethbridge,232 Stubb Ross Rd,Lethbridge,Alberta,T1K 7N3,49.663205,-112.774866,RVT
Western RV Country - Okotoks,305 Field House Dr E,Okotoks,Alberta,T0L 0A0,50.682042,-113.84573,RVT
Western RV Country - Red Deer,65 Burnt Park Dr,Red Deer,Alberta,T4P 0J7,52.2960364,-113.8290358,RVT
Western Slope Trailers & RV Center,3150 Airport Rd,Rifle,Colorado,81650,39.751037,-108.113722,RVT
Western Trailer & RV,East 1865,Moose Jaw,Saskatchewan,59501,48.689862,-109.78113,RVT
Western Trailer Sales,East 1865,Havre,Montana,59501,48.689862,-109.78113,RVT
Westland Camping Center,1475 S Newburgh Rd,Westland,Michigan,48186,42.293764,-83.370739,RVT
Wetnight RV Sales and Service,4401 N US Hwy 41,Terre Haute,Indiana,47805,39.546274,-87.326483,RVT
Wheel Go Camping,13515 W 159th St,Homer Glen,Illinois,60491,41.602523,-87.962618,RVT
Wheels West RV,21661 Fraser Hwy,Langley,British Columbia,V3A 4H1,49.096714,-122.626866,RVT
Whip's RV Sales,32645 Yucaipa Blvd,Yucaipa,California,92399,34.032301,-117.010574,RVT
Whiskey Mountain RV,5215 E Sugarloaf Cir,Mesa,Arizona,85215,33.511896,-111.579396,RVT
White Horse RV Center - Williamstown,980 N Black Horse Pike,Williamstown,New Jersey,08094,39.650587,-74.959292,RVT
Whited Truck & RV,2160 Hotel Rd,Auburn,Maine,04210,44.084537,-70.249649,RVT
"Wholesale Travel Sales, Inc.",8165 Guide Meridian Rd,Lynden,Washington,98264,48.950253,-122.459792,RVT
Wichita Falls RV Center,2606 Old Jacksboro Hwy,Wichita Falls,Texas,76302,33.864528,-98.491011,RVT
"Wide-World R.V. Center, Inc.",1570 PA-315,Wilkes-Barre,Pennsylvania,18702,41.230476,-75.757441,RVT
Wilcart RV,1570 Highway 315 Blvd,Milan,Ohio,18702,41.230476,-75.757441,RVT
Wild Bill's RV & Outdoor Center,10303 U.S. 250 N,Homer Glen,Illinois,44846,41.319413,-82.605836,RVT
Wild Willy RV's,13515 W 159th St,Dahlonega,Georgia,60491,41.602523,-87.962618,RVT
Wildwood Auto Brokers,5320 Long Branch Rd,Jackson,Michigan,30533,34.56356,-84.020072,RVT
Williams Trailer Center,10500 Durand Ave,Winthrop,Maine,53177,42.704212,-87.932874,RVT
Wilson RV,112 Annabessacook Rd,Mansfield,Ohio,04364,44.309991,-69.963093,RVT
WinBett,8011 Kilbourne Rd,Gananoque,Ontario,43074,40.269531,-82.850655,RVT
Windish RV - Longmont,11225 W 6th Ave,Longmont,Colorado,80215,39.744773,-105.115977,RVT
Windsor RV,10300 E I25 Frontage Rd,Grande Prairie,Alberta,80504,40.163388,-105.030087,RVT
Winnipeg West Automotive Group,12402-100 Street,Headingley,Manitoba,T8V 4H8,55.192556,-118.795007,RVT
"Wisconsin Camping, Inc",24691 Hwy 27,Neenah,Wisconsin,33859,27.872695,-81.626401,RVT
Wisconsin RV World,9042 Campers Way,Deforest,Wisconsin,54956,44.182337,-88.527574,RVT
Wise Trailer Sales,5920 Haase Road,Ebensburg,Pennsylvania,53532,43.250204,-89.326329,RVT
Woldâ€™s RV Sales,211 Jayco Dr,Detroit Lakes,Minnesota,15931,40.50625,-78.757723,RVT
"Wolfe Camper Sales, Inc.",2221 Highway 10 West,Washington,West Virginia,56501,46.837285,-95.813948,RVT
World of Wheels-Des Moines,1520 West Arthur Street,Des Moines,Iowa,P7K 1A5,48.3808665,-89.324941,RVT
"Wright Rental, Inc.",810 S Ankeny Blvd,Edinburg,Illinois,50023,41.730271,-93.634978,RVT
"WSI RV Center, Inc.",5455 Andrew Johnson Hwy E,Afton,Tennessee,37616,36.228473,-82.746798,RVT
Wyoming RV Brokers,4200 W Yellowstone Hwy,Mills,Wyoming,82604,42.857603,-106.770764,RVT
Xtreme Motor Sports & RV,1168 East 990 South,S Eden,Idaho,83325,42.587877,-114.240846,RVT
YellowHammer RV,980 Dandy Ln,Clanton,Alabama,35045,32.799962,-86.676761,RVT
Young RV Sales,101 Oak Grove Rd,Kings Mountain,North Carolina,28086,35.244245,-81.377832,RVT
Youngbloods RV - Mayfield,2132 State Route 45 North,Mayfield,Kentucky,42066,36.732532,-88.639882,RVT
Yucaipa Trailers,31107 Outer Hwy. 10,Redlands,California,92373,34.011953,-117.159699,RVT
