address,city,name,state,zip
2414 N US Hwy 231,Ozark,,New Brunswick,36360
2205 Tin Top Rd,Weatherford,,New Brunswick,76087
1 Padre Blvd,South Padre Island,,New Brunswick,78597
13037 I-35,Sanger,,New Brunswick,76266
602 Gembler Road,San Antonio-1013,,New Brunswick,78219
500 St Michael Drive,Texarkana,,New Brunswick,75503
208 Ferry Road,Cornwall 1H0 Canada,,New Brunswick,C0A 1
198 Forest Hills Lane,Cavendish 1N0 Canada,,New Brunswick,C0A 1
6699 Knickerbocker Road,San Angelo,,New Brunswick,76904
23714 Trans Canada Highway,Borden-Carleton 1X0 Canada,,New Brunswick,C0B 1
745 FM 343 East,Rusk,,New Brunswick,75785
1114 State Route 20,Winthrop,,New Brunswick,98862
3720 Centennial Road,Bismarck-8001,,New Brunswick,58503
651 North Camper Drive,West Wendover,,New Brunswick,89883
2100 Garson Rd,Verdi,,New Brunswick,89439
1545 Targhee Pass Hwy,West Yellowstone,,New Brunswick,59758
133 Aiton Rd,Sussex 2V5 Canada,,New Brunswick,E4G 2
355 Halfmoon Flats Road,West Glacier,,New Brunswick,59936
5121 Highway 93 South,Whitefish,,New Brunswick,59937
102 Lyons Ferry Road,Starbuck,,New Brunswick,99359
3305 Targhee Pass Highway,West Yellowstone,,New Brunswick,59758
15 KOA Road,Three Forks,,New Brunswick,59752
81 Silos Road,Townsend,,New Brunswick,59644
106 West Shore,St Mary,,New Brunswick,59417
3450 Tina Avenue,Missoula,,New Brunswick,59808
200 Irvine Flats Road,Polson,,New Brunswick,59860
7464 US HWY 212,Red Lodge,,New Brunswick,59068
"RR 1, Box 1009",Hardin,,New Brunswick,59034
850 Lincoln Road West,Helena,,New Brunswick,59602
1 Palmer Street,Miles City,,New Brunswick,59301
1500 51st Street South,Great Falls,,New Brunswick,59405
547 Garden Avenue,Billings,,New Brunswick,59101
1601 Kaw Avenue,Butte,,New Brunswick,59701
163 Pine Creek Road,Livingston,,New Brunswick,59047
693 Highway 10,Big Timber,,New Brunswick,59011
1710 State Route 414 (GPS address 1710 KOA Dr),Watkins Glen,,New Brunswick,14891
8001 East Lake Road,Westfield,,New Brunswick,14787
242 Union Church Road,Franklin,,New Brunswick,13775
1250 Pletcher Road,Youngstown,,New Brunswick,14174
2570 Grand Island Blvd.,Grand Island,,New Brunswick,14072
1278 Waterloo-Geneva Rd,Waterloo,,New Brunswick,13165
2711 County Line Road,Medina,,New Brunswick,14103
5591 NYS Route 86,Wilmington,,New Brunswick,12997
6081 State Route 3,Natural Bridge,,New Brunswick,13665
564 Lake Avenue,Lake Luzerne,,New Brunswick,12846
7632 Centerville Road,Houghton,,New Brunswick,14744
119 Freetown Highway,Plattekill,,New Brunswick,12589
4626 State Route 28 North,Herkimer,,New Brunswick,13350
565 Ostrander Road,Richfield Springs,,New Brunswick,13439
5652 Thum Road,Dewittville,,New Brunswick,14728
2751 Millers Bottom Road,New Columbia,,New Brunswick,17856
5374 Canandaigua Farmington Town Line Road,Farmington,,New Brunswick,14425
7531 County Road 13,Bath,,New Brunswick,14810
19366 Little Valley Rd,Saxton,,New Brunswick,16678
7 KOA Road,Washington,,New Brunswick,15301
1659 Embreeville Road,Coatesville,,New Brunswick,19320
1337 Butler Pike,Mercer,,New Brunswick,16137
25164 PA-27,Meadville,,New Brunswick,16335
32 dustin blvd,Bradford,,New Brunswick,16701
1101 Riveredge Rd,Connellsville,,New Brunswick,15425
764 Waltz Mill Road,Ruffs Dale,,New Brunswick,15679
50 Countryside Lane,Honesdale,,New Brunswick,18431
354 Springville Road,New Holland,,New Brunswick,17557
11 Lickdale Rd,Jonestown,,New Brunswick,17038
20 Knox Road,Gettysburg,,New Brunswick,17325
6645 West Road,Mckean,,New Brunswick,16426
1980 Turnpike Road,Elizabethtown,,New Brunswick,17022
227 Hollow Road,East Stroudsburg,,New Brunswick,18302
2481 Jacksonville Road,Bellefonte,,New Brunswick,16823
10000 Aha Macav Parkway,Laughlin-7001,,New Brunswick,89029
5225 Boulder Hwy,Las Vegas,,New Brunswick,89122
95 Coral Reef Road,DuBois,,New Brunswick,15801
1596 South US Highway 93,Ely,,New Brunswick,89301
3730 Idaho Street,Elko,,New Brunswick,89801
6750 KOA Drive,New Tripoli,,New Brunswick,18066
20900 South 4200 Road,Claremore,,New Brunswick,74019
6200 South Choctaw Road,Choctaw,,New Brunswick,73020
117 Timberlane Rd,Clarksboro,,New Brunswick,08020
1900 KOA Power Drive,Sallisaw,,New Brunswick,74955
3650 Enterprise Blvd,Durant,,New Brunswick,74701
Call for directions,Calumet,,New Brunswick,73014
3025 N Barker Rd,Spokane Valley,,New Brunswick,99027
409329 E 1078 Rd,Checotah,,New Brunswick,74426
8801 Saint Thomas Drive,Pasco,,New Brunswick,99301
21167 RT. 66 N,Foss,,New Brunswick,73647
1002 McGowen Road,Newport,,New Brunswick,99156
80 O'Brien Road,Port Angeles,,New Brunswick,98362
167 Schaffran Rd,Castle Rock,,New Brunswick,98611
8717 Line Road,Lynden,,New Brunswick,98264
308 Zelt Strasse,Leavenworth,,New Brunswick,98826
7370 Russell Road,Concrete,,New Brunswick,98237
1753 Granite Rd.,Colfax,,New Brunswick,99111
3070 Highway 1,Upper Sackville 3C9 Canada,,New Brunswick,B4E 3
3779 New Harris Road,New Harris 1T1 Canada,,New Brunswick,B1X 1
32 S. Thorp Hwy.,Ellensburg,,New Brunswick,98926
457 Bay Center Road,Bay Center,,New Brunswick,98527
807 Bill Baggs Road,Yankton,,New Brunswick,57078
6397 North Green Road,Burlington,,New Brunswick,98233
41 W HWY 14,Spearfish,,New Brunswick,57783
1401 East Robur Drive,Sioux Falls,,New Brunswick,57104
675 Streeter Drive,North Sioux City,,New Brunswick,57049
3010 East Highway 44,Rapid City,,New Brunswick,57703
41255 South Dakota Highway 38,Mitchell,,New Brunswick,57301
I-90 Exit 235,Kennebec,,New Brunswick,57544
11484 US-14A,Lead,,New Brunswick,57754
12021 US Highway 16,Custer,,New Brunswick,57730
24201 South Dakota Highway 63,Midland-7302,,New Brunswick,57552
20720 SD Highway 44,Interior,,New Brunswick,57750
12620 Highway 244,Hill City,,New Brunswick,57745
200 Jay St,Oakdale,,New Brunswick,54649
27585 SD Highway 79,Hot Springs,,New Brunswick,57747
South 235A Stand Rock Road,Wisconsin Dells,,New Brunswick,53965
872 E State Rd 59,Milton,,New Brunswick,53563
N9657 State Road 95,Alma Center,,New Brunswick,54611
N5456 Division Rd.,Glenbeulah,,New Brunswick,53023
11544 North US Highway 63,Hayward,,New Brunswick,54843
7777 Mission Road,Cranbrook Canada,,New Brunswick,V1C7E
1238 US Route 5,East Dummerston-9764,,New Brunswick,05346
18 Campground Drive,Bomoseen,,New Brunswick,05732
3025 FM 1781,Rockport,,New Brunswick,78382
9245 Lovers Lane,Brussels,,New Brunswick,54204
2322 Greenhill Rd,Mt Pleasant,,New Brunswick,75455
3700 Woodstock Road,White River Junction,,New Brunswick,05001
250 FM 2021,Lufkin,,New Brunswick,75901
1348 Co Rd 302,Port Lavaca,,New Brunswick,77979
5502 County Road 6300,Lubbock,,New Brunswick,79416
19785 Highway 105 West,Montgomery,,New Brunswick,77356
153 RV Park Rd,Cotulla,,New Brunswick,78014
23700 San Luis Pass Road,Galveston,,New Brunswick,77554
2689 Hero Way,Leander,,New Brunswick,78641
101 Caribbean Dr.,Corpus Christi,,New Brunswick,78418
2400 Goat Creek Road,Kerrville,,New Brunswick,78028
1202 East 3rd Street,Burkburnett,,New Brunswick,76354
13785 State Hwy 19,Canton,,New Brunswick,75103
505 CR 212,Brookeland,,New Brunswick,75931
4851 West Stamford Street,Abilene,,New Brunswick,79603
6029 Blue Bluff Road,Austin,,New Brunswick,78724
2715 S. Cooper,Arlington,,New Brunswick,76015
1100 Folsom Road,Amarillo,,New Brunswick,79108
11650 County Road 99,Lillian,,Mississippi,36549
11091 Atlanta Hwy,Montgomery,,Mississippi,36117
44 County Road 443,Hillsboro,,Mississippi,35643
2661 County Lake Road,Starkville,,West Virginia,39759
3953 KOA Campground Road,Toomsuba,,West Virginia,39364
221 Okatoma River Road,Hattiesburg,,West Virginia,39401
25027 S Interstate,Wakeeney,,West Virginia,67672
4577 W State Road 56,Scottsburg,,West Virginia,47170
7781 Highway 1 North,Shreveport,,West Virginia,71107
1855 North Coldwater Road,Weidman,,West Virginia,48893
3101 Cart Rd,Richmond,,West Virginia,47374
100 South KOA Drive,Wellington,,West Virginia,67152
3603 Lincoln Avenue,Steamboat Springs,,West Virginia,80487
16105 US 50 West,Salida,,West Virginia,81201
559 County Road 3A,Canon City,,West Virginia,81215
684 Chemin Olivier,St Nicolas 2N6 Canada,,West Virginia,G7A 2
5 Shearakin Lane,Rocky Harbour 4N0 Canada,,West Virginia,A0K 4
2000 Lion Country Safari Road,Loxahatchee-3976,,West Virginia,33470
290 Fox Fire Road,Milton,,West Virginia,25541
343 Campground Road,Harpers Ferry,,West Virginia,25425
130 montee Monette,St Philippe de Laprairie 2K0 Canada,,West Virginia,J0L 2
63 Decker Road,Sheridan,,West Virginia,82801
350 Days Drive,Sutton,,West Virginia,26601
86 Foothill Boulevard,Rock Springs,,West Virginia,82901
399 North 2nd Street,Greybull,,West Virginia,82426
1545 State Highway 413,Lyman,,West Virginia,82937
205 E. Highway 71,Rawlins,,West Virginia,82301
225 Welty Street,Dubois,,West Virginia,82513
5561 Greybull Highway,Cody,,West Virginia,82414
1101 Prairie Lane,Bar Nunn,,West Virginia,82601
168 Cold Springs Road (Highway 91),Douglas,,West Virginia,82633
1501 2nd Ave W,Lethbridge Canada,,West Virginia,T1J4S
87 US Highway 16 East,Buffalo,,West Virginia,82834
60 Highway 110,Devils Tower-0100,,West Virginia,82714
162 Spruce River Road,Shuniah 0N6 Canada,,West Virginia,P7A 0
50409 B Highway 16,Hinton 1X3 Canada,,West Virginia,T7V 1
818 Lalande Rd,Sturgeon Falls Canada,,West Virginia,P2B2V
501 Fifth Line East,Sault Ste Marie 6J8 Canada,,West Virginia,P6A 6
398235 28th Ave East,Owen Sound 5N8 Canada,,West Virginia,N4K 5
276 Rankin Lake Road,Seguin 0B2 Canada,,West Virginia,P2A 0
609 Pittston Road,Cardinal 1E0 Canada,,West Virginia,K0E 1
3138 Penetanguishene Road,SPRINGWATER 1Z7 Canada,,West Virginia,L9X 1
2826 Johnston Road,Renfrew 3Z8 Canada,,West Virginia,K7V 3
1477 County Road 2,Mallorytown 1R0 Canada,,West Virginia,K0E 1
15051 Telephone Road,Brighton 1H0 Canada,,West Virginia,K0K 1
2039 Cordukes Road,Kingston 4V4 Canada,,West Virginia,K7L 4
514 1000 Island Parkway,Lansdowne 1L0 Canada,,West Virginia,K0E 1
8625 Lundy's Lane,Niagara Falls 1H5 Canada,,West Virginia,L2H 1
4513 West Main Street,Mims,,West Virginia,32754
251 State Road 939,Sugarloaf Key-0469,,West Virginia,33042
3641 South Byron Butler Pkwy,Perry,,West Virginia,32348
5400 95th Street North,St. Petersburg,,West Virginia,33708
525 West Pope Road,St Augustine,,West Virginia,32080
2525 Frontage Road,Davenport,,West Virginia,33837
1475 South Walnut Street,Starke,,West Virginia,32091
2644 Happy Camper Place,Kissimmee,,West Virginia,34746
3800 W Orange Blossom Trail,Apopka,,West Virginia,32712
17192 US Hwy 27,Moore Haven,,West Virginia,33471
1700 Barefoot Williams Road,Naples,,West Virginia,34113
4276 US Highway 441 South,Okeechobee,,West Virginia,34974
2039 Hamilton Avenue,Jennings,,West Virginia,32053
8700 Gulf Pines Drive,Milton,,West Virginia,32583
3180 S Jenkins Rd,Fort Pierce,,West Virginia,34981
15991 NE 243rd Place Road,Fort McCoy,,West Virginia,32134
5120 Stringfellow Road,St. James City,,West Virginia,33956
3800 SW 142 Avenue,Davie,,West Virginia,33330
5931 Polk Street,Hollywood,,West Virginia,33021
37061 US Hwy 19 N,Palm Harbor,,West Virginia,34684
1821 N. US Hwy 1,Fort Pierce,,West Virginia,34946
588 Jones drive south,St Francois Xavier / winnipeg 1A1 Canada,,West Virginia,St Fr
5500 C.R. 675,Bradenton,,West Virginia,34211
109 Chemin du Lac Sud,St.-Mathieu-de-Rioux Canada,,West Virginia,St.-M
1699 Shefford,Bromont 3N8 Canada,,West Virginia,J2L 3
3181 Richardson Hwy,Valdez,,West Virginia,99686
3425 Sterling Highway(Mile 169),Homer,,West Virginia,99603
"9040 Interstate 25 South @ Exit 74,",Pueblo,,West Virginia,81004
1316 Badger Road,North Pole,,West Virginia,99705
"4131 Interstate 25 North, Exit 108",Pueblo,,West Virginia,81008
31702 Herman Leirer Road,Seward,,West Virginia,99664
575 Colorado Avenue,Limon-2215,,West Virginia,80828
200 N Cedar Avenue,Montrose,,West Virginia,81401
26680 Highway 50,La Junta,,West Virginia,81050
225 CR 23,Ridgway,,West Virginia,81432
4821 E CR RD 70,Wellington,,West Virginia,80549
14010 Judge Orr Road,Peyton,,West Virginia,80831
143 Co Rd 48,Grand Lake,,West Virginia,80447
1910 Lakeside Resort Lane,Fort Collins,,West Virginia,80524
105 County Road 50,Gunnison,,West Virginia,81230
2051 Big Thompson Ave.,Estes Park,,West Virginia,80517
629 River Frontage Road,Silt,,West Virginia,81652
2819 Highway 50,Grand Junction,,West Virginia,81503
605 Lake Gulch Rd Co Rd 6,Central City-0771,,West Virginia,80427
1312 Monroe Street,Strasburg,,West Virginia,80136
2800 E  Hwy 40,Craig,,West Virginia,81625
8100 Bandley Drive,Fountain,,West Virginia,80817
7202 Highway 133,Carbondale,,West Virginia,81623
7820 Kampground Way,North Little Rock,,West Virginia,72118
7037 I-55,Marion,,West Virginia,72364
838 McClendon Road,Hot Springs,,West Virginia,71901
2576 County Road 81,Cripple Creek,,West Virginia,80813
3629 Highway 65N,Harrison,,West Virginia,72601
6900 Juniper Lane,Alamosa,,West Virginia,81101
15020 Highway 187 South,Eureka Springs,,West Virginia,72631
5896 West 200 North,Greenfield,,West Virginia,46140
2882 N.W. Shafer Drive,Monticello,,West Virginia,47960
1625 West Lancaster Street,Bluffton,,West Virginia,46714
1600 Lafayette Road,Crawfordsville,,West Virginia,47933
52867 State Road 13,Middlebury,,West Virginia,46540
5251 West US 20,Angola,,West Virginia,46703
2248 State Road 46 E,Nashville-9250,,West Virginia,47448
441 S Liberty Lane,Jerome,,West Virginia,83338
7234 E State Rd 46,Batesville,,West Virginia,47006
9815 W Pocatello Creek Road,Pocatello,,West Virginia,83201
28501 US Highway 89 North,Montpelier,,West Virginia,83254
4243 Highway 12,Kamiah,,West Virginia,83536
89 North Center Street,Lava Hot Springs,,West Virginia,83246
100 Bristol Park Lane,Lava Hot Springs,,West Virginia,83246
184 Pennwood Street,Meridian,,West Virginia,83642
1109 West Diamond Drive,Salina,,West Virginia,67401
1473 Highway 40,Lawrence,,West Virginia,66044
2424 North 3000 West,Arco,,West Virginia,83213
1114 East US Highway 24,Goodland,,West Virginia,67735
701 Park Street,Dodge City,,West Virginia,67801
768 Cecil Avenue North -,Millersville,,West Virginia,21108
1949 SW 49th,Topeka,,West Virginia,66609
11759 Snug Harbor Lane,Williamsport,,West Virginia,21795
9700 S M-37,Buckley,,West Virginia,49620
W1118 US-2 Highway,St Ignace,,West Virginia,49781
3591 Forest Road,Oscoda,,West Virginia,48750
3500 Strand Road,Muskegon,,West Virginia,49445
566 Trailsend Road,Mackinaw City,,West Virginia,49701
5111 Lapeer Rd.,Kimball,,West Virginia,48074
E10102 State Hwy M28,Wetmore,,West Virginia,49895
11713 West 40th Street,Branch,,West Virginia,49402
3800 W. Federal Hwy,Roscommon,,West Virginia,48653
3864 Breen Road,Emmett,,West Virginia,48022
5101 Campfires Parkway,Gaylord,,West Virginia,49735
6680 Bunton Rd,Ypsilanti,,West Virginia,48197
15600 Tunnicliffe Road,Petersburg,,West Virginia,49270
7072 E. Grange Hall Rd,Holly,,West Virginia,48442
8275 Warner Street,Allendale,,West Virginia,49401
3527 Coloma Road,Benton Harbor,,West Virginia,49022
6510 West 70th Street,Shreveport,,West Virginia,71129
11129 Jefferson Highway,River Ridge,,West Virginia,70123
1825 Saint Mary St.,Scott,,West Virginia,70583
39397 M140 Highway,Covert,,West Virginia,49043
7628 Vincent Road,Denham Springs,,Utah,70726
5800 North Old Highway 91,Hurricane,,Illinois,84737
1550 North 1750 West,Springville,,Illinois,84663
"Milepost 2, Highway 163",Monument Valley,,Illinois,84536
590 West 600 South,Richfield,,Illinois,84701
1330 NW Pacific Coast Highway,Waldport,,Illinois,97394
1400 West North Temple,Salt Lake City,,Illinois,84116
930 North Vernal Avenue,Vernal,,Illinois,84078
14719 Cemetery Road,Wapakoneta,,Illinois,45895
18475 Old US Hwy 66,Eureka,,Illinois,63025
24787 Luckey Road,Perrysburg,,Illinois,43551
6445 Ledge Rd,Thompson,,Illinois,44086
7485 Horton Highway,Greeneville,,Illinois,37745
7415 Market Street,Wilmington,,Illinois,28411
5775 West Farm Road 140,Springfield,,Illinois,65802
1440 Highway 1383,Russell Springs,,Illinois,42642
184 KOA Campground Rd,Mt. Vernon,,Illinois,40456
3157 West Chain of Rocks Road,Granite City,,Illinois,62040
18 Cabin Road,Canaan,,Illinois,04924
5232 65th Avenue SE,Rochester-6313,,Illinois,55904
2311 78th Avenue West,Rock Island,,Illinois,61201
425 East 6000 South Road,Chebanse,,Illinois,60922
10982 US Highway 20 West,Lena,,Illinois,61048
4320 KOA Road,Rochester,,Illinois,62563
8404 South Union Road,Union,,Illinois,60180
1081 US HWY 150 E,Knoxville,,Illinois,61448
200 Koehler St.,Grayville,,Illinois,62844
1500 North DuQuoin Street,Benton,,Illinois,62812
4793 US Highway 62,Calvert City,,Illinois,42029
1248 East 1250th Road,Casey,,Illinois,62420
KOA AVE,Horse Cave,,Illinois,42749
171 East City Dam Road,Corbin,,Illinois,40701
1960 Three Springs Road,Bowling Green,,Illinois,42104
2433 Highway 44 East,Shepherdsville,,Illinois,40165
80 KOA Lane,Argillite,,Illinois,41121
1777 Prizer Point Rd.,Cadiz,,Illinois,42211
295 Sebago Road,Naples,,Illinois,04055
659 North Street,Houlton,,Illinois,04730
82 Big Skye Lane,Durham,,Illinois,04222
32 Leaches Point Rd,Orland,,Illinois,04472
602 Main Road,Holden,,Illinois,04429
4550 La Porte Rd ( Hess Rd),Waterloo,,Illinois,50701
21788 Dogwood Avenue,Onawa-8665,,Illinois,51040
34308 L Avenue,Adel,,Illinois,50003
1601 East 36th Street South,Newton,,Illinois,50208
139 South Road,Westhampton,,Illinois,01027
438 Plymouth Street,Middleboro,,Illinois,02346
3315 West 166th Street,Jordan,,Illinois,55352
10410 Brockton Lane North,Maple Grove,,Illinois,55311
2035 Highway 71 North,Jackson,,Illinois,56143
1381 Kampground Road,Cloquet,,Illinois,55720
21 Flat Rock Bridge Road,Lebanon,,Illinois,04027
84259 County Road 46,Hayward,,Illinois,56043
510 Brightstar Road NW,Bemidji,,Illinois,56601
136 County Road,Bar Harbor,,Illinois,04609
13654 Hwy 64,Lebanon,,Illinois,65536
4171 US-54,Linn Creek,,Illinois,65052
303 NE 3rd Street,Oak Grove,,Illinois,64075
397 Animal Safari Road,Branson,,Illinois,65616
120 Road East 80,Ogallala,,Illinois,69153
14601 Highway 6,Gretna,,Illinois,68028
30 Mallard Drive,Richmond,,Illinois,04357
904 South B Road,Doniphan,,Illinois,68832
4359 Dakota Lane,Joplin,,Illinois,64804
162 KOA Lane,Statesville,,Illinois,28677
1631 Waterlily Road,Coinjock,,Illinois,27923
117 Happy Valley Road,Marble,,Illinois,28905
1565 B Street,New Bern,,Illinois,28560
221 Road East 85,Ogallala,,Illinois,69153
1896 Trox St,Greensboro,,Illinois,27406
92 KOA Campground Road,Cherokee,,Illinois,28719
123 Harmony Mountain Lane,Boone,,Illinois,28607
25099 NC Hwy 12,Rodanthe,,Illinois,27968
2708 Highway 70 East,Swannanoa,,Illinois,28778
465 Kenric Road,Lumberton,,Illinois,28360
18562 NC HWY 481,Enfield,,Illinois,27823
309 Wiggins Road,Candler,,Illinois,28715
8644 Porter Central Rd,Sunbury,,Illinois,43074
187 State Route 303,Streetsboro-5245,,Illinois,44241
6787 Baker 47,Shelby,,Illinois,44875
East Shoreway Drive KOA,Sandusky,,Illinois,44870
33807 Winona Road,Salem,,Illinois,44460
760 Franklin Rd,Lebanon,,Illinois,45036
7796 Wellbaum Road,Brookville,,Illinois,45309
15487 Creed Rd,Lake Milton,,Illinois,44429
4145 Fresno Rd. NW,Carrollton,,Illinois,44615
24688 County Road 10,Coshocton,,Illinois,43812
29150 Pattor Rd,Logan,,Illinois,43138
901 E High Street,Mt. Gilead,,Illinois,43338
3232 Downing Street SW,East Sparta,,Illinois,44626
372 Route 115,Twin Mountain,,Illinois,03595
7652 Pymatuning Lake Road,Williamsfield,,Illinois,44093
4460 Walnut Road,Buckeye Lake,,Illinois,43008
79 First Crown Point Road,Strafford,,Illinois,03884
6918 Bunker Hill Road South,Butler,,Illinois,44822
893 White Mountain Highway - PO Box 484,Tamworth,,Illinois,03886
6299  Quay Road AL,Tucumcari,,Illinois,88401
934 Old Las Vegas Highway,Santa Fe,,Illinois,87505
11824 Highway 180 E,Silver City,,Illinois,88022
1330 South 2nd Street,Raton,,Illinois,87740
1501 Lead Street,Lordsburg,,Illinois,88045
76 County Road a25a,Las Vegas,,Illinois,87701
2154 Route 302,Lisbon,,Illinois,03585
26 Cibola Sands Loop,Grants,,Illinois,87020
1000 East Side Road,Woodstock,,Illinois,03293
"2 Manthei Road, Highway 285",Carlsbad,,Illinois,88220
814 Weinrich Road,Las Cruces,,Illinois,88007
555 South Hill Road,Bernalillo,,Illinois,87004
412 24th Street,Alamogordo,,Illinois,88310
12400 Skyline Road NE,Albuquerque,,Illinois,87123
269 Murray's Chapel Road,Sweetwater,,Illinois,37874
6290 East Antioch Road,Buchanan,,Illinois,38222
240 KOA Lane,Newport,,Illinois,37821
2626 Music Valley Drive,Nashville,,Illinois,37214
8533 State Highway 73,Townsend,,Illinois,37882
2100 Safari Camp Road,Lebanon,,Illinois,37090
3937 Hwy 81 S,Jonesborough,,Illinois,37659
6575 US-70,Crossville,,Illinois,38555
648 Pleasant Grove Road,McDonald,,Illinois,37353
4874 Hooper Highway,Cosby,,Illinois,37722
473 Barrren Hollow Road,Hurricane Mills,,Illinois,37078
3122 Veterans Blvd.,Pigeon Forge,,Illinois,37863
609 Fort McKay,Sutherlin,,Illinois,97479
1375 SE 3RD St.,Pendleton-4101,,Illinois,97801
68632 Hwy 101,North Bend,,Illinois,97459
12297 Blackwell Road,Central Point,,Illinois,97502
5298 Northeast Park Lane,Otis,,Illinois,97368
2435 Southwest Jericho Lane,Culver,,Illinois,97734
425 Rocky Branch Rd,Blountville,,Illinois,37617
3435 Shasta Way,Klamath Falls,,Illinois,97603
841 NE Forest Lane,Cascade Locks,,Illinois,97014
699 Jumpoff Joe Creek Road,Grants Pass,,Illinois,97526
46612 Highway 101 South,Langlois,,Illinois,97450
2610 Birds Point Road,Idleyld Park,,Illinois,97447
1100 Northwest Ridge Road,Hammond,,Illinois,97121
33775 Oakville Road South,Albany,,Illinois,97321
1268 Gordon Road,Summerton,,Illinois,29148
14 Campground Rd  (I-95 @ Exit 33) & US 17,Yemassee,,Illinois,29945
567 Fairview Church Rd,Kinards,,Illinois,29355
613 5th Avenue South,Myrtle Beach,,Illinois,29577
2400 US-25,Travelers Rest,,Illinois,29690
940 Gold Hill Road,Fort Mill,,Illinois,29708
200 Wham Road,Anderson,,Illinois,29625
3157 N Highway 17,Mount Pleasant,,Illinois,29466
9494 U.S. Highway 78,Ladson,,Illinois,29456
3225 South Highway 191,Moab,,Illinois,84532
235 South 1780 East,Green River,,Illinois,84525
320 West Highway 43,Manila,,Illinois,84046
1040 West 3600 South,Perry,,Illinois,84302
1428 N Manderfield Road (Hwy 357),Beaver,,Illinois,84713
410 West 900 South,Fillmore,,Illinois,84631
231 KOA Road,Wytheville,,Illinois,24382
10061 Kings Dominion Blvd,Doswell,,Illinois,23047
1240 General Booth Boulevard,Virginia Beach,,Illinois,23451
485 North Bear Lake Blvd,Garden City,,Illinois,84028
214 Killdeer Lane,Natural Bridge,,Illinois,24578
6252 Elon Rd,Monroe-3012,,Illinois,24574
7400 Brookside Lane,Fredericksburg-8856,,Illinois,22408
47 Fox Trail Loop,Fancy Gap,,Illinois,24328
2940 Sussex Drive,Emporia,,Illinois,23847
145 N. 300 W.,Garden City,,Illinois,84028
3825 Red Hill RD,Charlottesville,,Illinois,22903
32246 Lankford Highway,Cape Charles,,Illinois,23310
12480 Mountain Valley Road,Broadway,,Georgia,22815
2970 Scrubby Bluff Road,Kingsland,,Connecticut,31548
4915 US Highway 17 South,Richmond Hill,,Connecticut,31324
930 Mountain Shadows Drive,Trenton,,Connecticut,30752
4632 Union Road,Tifton,,California,31794
751 Gander Gap Rd,Hiawassee,,California,30546
1619 US Hwy 280 East,Americus,,California,31709
2541 Carey Station Road,Greensboro,,California,30642
330 Hart State Park Rd,Hartwell-4129,,California,30643
414 S. Frontage Road,Forsyth,,California,31029
5473 Mount Olive Road,Commerce,,California,30529
373 Rockhouse Road East,Cordele,,California,31015
271 West Main St,Niantic,,California,06357
700 N Virginia Avenue,Willcox,,California,85643
64812 Harcuvar Drive,Salome-0831,,California,85348
5151 South Country Club Road,Tucson,,California,85706
21305 I-40 Business Loop,Seligman,,California,86337
67 Blackhawk Drive,Blue Ridge,,California,30513
18428 South Picacho Highway,Picacho,,California,85141
7480 Avenue 308,Visalia,,California,93291
7400 Pine Grove Road,Santa Paula,,California,93060
38000 Hwy 79 South,Temecula,,California,92592
60260 State Highway 3,Trinity Center,,California,96091
118 Pendleton Hill Road,North Stonington,,California,06359
1000 Circle Pines Road,Williams,,California,86046
2001 Rossi Road at Hwy 1,Pescadero,,California,94060
4765 Santa Margarita Lake Rd.,Santa Margarita,,California,93453
8710 Prunedale North Road,Salinas,,California,93907
20 Rainsville Road,Petaluma,,California,94952
111 North 2nd Avenue,Chula Vista,,California,91910
70405 Dillon Rd,Desert Hot Springs,,California,92241
4655 Rock Barn Road,Shingle Springs,,California,95682
100 Lake Avenue,Red Bluff,,California,96080
5400 Route 66,Needles,,California,92363
3 Alverda Dr.,Oroville,,California,95966
7905 Sandholdt Road,Moss Landing,,California,95039
7749 KOA Road,Shingletown,,California,96088
900 North Mt Shasta Blvd.,Mt Shasta,,California,96067
1186 San Andreas Road,Watsonville,,California,95076
15627 Highway 178,Weldon,,California,93283
110437 US Highway 395,Coleville,,California,96107
4241 Highway 101 North,Crescent City,,California,95531
1166 Asti Ridge Road,Cloverdale,,California,95425
15565 Black Angus Lane,Hat Creek,,California,96040
14831 Warren Street,Lost Hills,,California,93249
7000 Benbow Drive,Garberville,,California,95542
44300 Kinney Road,Manchester,,California,95459
1331 Shasta Way,Boulevard,,California,91905
35250 Outer Highway 15 North,Yermo,,California,92398
7075 Ontario Road,San Luis Obispo,,California,93405
5025 Wible Rd,Bakersfield,,California,93313
1455 S. San Gorgonio Avenue,Banning,,California,92220
3820 North Roosevelt,Kingman,,California,86409
1540 South Tomahawk Road,Apache Junction,,California,85119
5803 North US Highway 89,Flagstaff,,California,86004
5333 State Highway 64,Williams,,California,86046
180 West Four Feathers Lane,Benson-7952,,California,85602
102 Hermosa Drive,Holbrook,,California,86025
