address,city,name,state,zip
4915 US Highway 17 South,Richmond Hill,Savannah South KOA Holiday,Georgia,31324
2541 Carey Station Road,Greensboro,Lake Oconee / Greensboro KOA Holiday,Georgia,30642
133 Aiton Rd,Sussex 2V5 Canada,Sussex KOA Journey,New Brunswick,E4G 2
930 Mountain Shadows Drive,Trenton,Lookout Mountain / Chattanooga West KOA Holiday,Georgia,30752
4632 Union Road,Tifton,Tifton KOA Journey,Georgia,31794
208 Ferry Road,Cornwall 1H0 Canada,Cornwall / Charlottetown KOA Holiday,Prince Edward Island,C0A 1
7400 Pine Grove Road,Santa Paula,Ventura Ranch KOA Holiday,California,93060
9245 Lovers Lane,Brussels,Door County KOA Holiday,Wisconsin,54204
7480 Avenue 308,Visalia,Visalia / Sequoia National Park KOA Journey,California,93291
2970 Scrubby Bluff Road,Kingsland,Jacksonville North / St. Marys KOA Holiday,Georgia,31548
180 West Four Feathers Lane,Benson-7952,Benson KOA Journey,Arizona,85602
3700 Woodstock Road,White River Junction,Quechee / Pine Valley KOA Holiday,Vermont,05001
1114 State Route 20,Winthrop,Winthrop / N. Cascades National Park KOA Holiday,Washington,98862
18 Campground Drive,Bomoseen,Lake Bomoseen KOA Holiday,Vermont,05732
3720 Centennial Road,Bismarck-8001,Bismarck KOA Journey,North Dakota,58503
807 Bill Baggs Road,Yankton,Yankton / Missouri River KOA Journey,South Dakota,57078
41 W HWY 14,Spearfish,Spearfish / Black Hills KOA Holiday,South Dakota,57783
500 St Michael Drive,Texarkana,Texarkana KOA Journey,Texas,75503
4851 West Stamford Street,Abilene,Abilene KOA Journey,Texas,79603
19366 Little Valley Rd,Saxton,Raystown Lake / Saxton KOA Holiday,Pennsylvania,16678
1659 Embreeville Road,Coatesville,Philadelphia / West Chester KOA Holiday,Pennsylvania,19320
764 Waltz Mill Road,Ruffs Dale,Madison / Pittsburgh S.E. KOA Journey,Pennsylvania,15679
1337 Butler Pike,Mercer,Mercer / Grove City KOA Holiday,Pennsylvania,16137
25164 PA-27,Meadville,Meadville KOA Journey,Pennsylvania,16335
354 Springville Road,New Holland,Lancaster / New Holland KOA Journey,Pennsylvania,17557
32 dustin blvd,Bradford,Kinzua East KOA,Pennsylvania,16701
11 Lickdale Rd,Jonestown,Jonestown / Hershey NE KOA Journey,Pennsylvania,17038
2205 Tin Top Rd,Weatherford,Weatherford / Fort Worth West KOA Journey,Texas,76087
1101 Riveredge Rd,Connellsville,Uniontown KOA Holiday,Pennsylvania,15425
2751 Millers Bottom Road,New Columbia,Williamsport South / Nittany Mtn. KOA Holiday,Pennsylvania,17856
7 KOA Road,Washington,Washington / Pittsburgh SW KOA Journey,Pennsylvania,15301
6645 West Road,Mckean,Erie KOA Holiday,Pennsylvania,16426
20 Knox Road,Gettysburg,Gettysburg / Battlefield KOA Holiday,Pennsylvania,17325
50 Countryside Lane,Honesdale,Honesdale / Pocono KOA Holiday,Pennsylvania,18431
1980 Turnpike Road,Elizabethtown,Elizabethtown / Hershey KOA Holiday,Pennsylvania,17022
2481 Jacksonville Road,Bellefonte,Bellefonte / State College KOA Holiday,Pennsylvania,16823
227 Hollow Road,East Stroudsburg,Delaware Water Gap / Pocono Mountain KOA Holiday,Pennsylvania,18302
1 Padre Blvd,South Padre Island,South Padre Island KOA Holiday,Texas,78597
13037 I-35,Sanger,Sanger / Denton North KOA Journey,Texas,76266
6699 Knickerbocker Road,San Angelo,San Angelo KOA Holiday,Texas,76904
3025 FM 1781,Rockport,Rockport KOA Holiday,Texas,78382
745 FM 343 East,Rusk,Rusk KOA Holiday,Texas,75785
1348 Co Rd 302,Port Lavaca,Port Lavaca / Matagorda Bay KOA Holiday,Texas,77979
2322 Greenhill Rd,Mt Pleasant,Mount Pleasant KOA Journey,Texas,75455
5502 County Road 6300,Lubbock,Lubbock KOA Journey,Texas,79416
2689 Hero Way,Leander,Leander / NW Austin  KOA Holiday,Texas,78641
250 FM 2021,Lufkin,Lufkin KOA Journey,Texas,75901
19785 Highway 105 West,Montgomery,Lake Conroe / Houston North KOA Holiday,Texas,77356
2400 Goat Creek Road,Kerrville,Kerrville KOA Journey,Texas,78028
2715 S. Cooper,Arlington,Dallas / Arlington KOA Holiday,Texas,76015
23700 San Luis Pass Road,Galveston,Galveston Island KOA Holiday,Texas,77554
153 RV Park Rd,Cotulla,Cotulla / Nueces River KOA Journey,Texas,78014
101 Caribbean Dr.,Corpus Christi,Corpus Christi KOA Journey,Texas,78418
13785 State Hwy 19,Canton,Canton KOA Holiday,Texas,75103
505 CR 212,Brookeland,Brookeland / Lake Sam Rayburn KOA Holiday,Texas,75931
1202 East 3rd Street,Burkburnett,Burkburnett / Wichita Falls KOA Journey,Texas,76354
1100 Folsom Road,Amarillo,Amarillo KOA Journey,Texas,79108
6750 KOA Drive,New Tripoli,Allentown KOA Journey,Pennsylvania,18066
95 Coral Reef Road,DuBois,DuBois / Treasure Lake KOA Holiday,Pennsylvania,15801
6029 Blue Bluff Road,Austin,Austin East KOA Holiday,Texas,78724
675 Streeter Drive,North Sioux City,Sioux City North KOA Holiday,South Dakota,57049
3010 East Highway 44,Rapid City,Rapid City / Black Hills KOA Holiday,South Dakota,57703
602 Gembler Road,San Antonio-1013,San Antonio / Alamo KOA Holiday,Texas,78219
12620 Highway 244,Hill City,Mount Rushmore KOA Resort at Palmer Gulch,South Dakota,57745
1401 East Robur Drive,Sioux Falls,Sioux Falls KOA Journey,South Dakota,57104
41255 South Dakota Highway 38,Mitchell,Mitchell KOA Journey,South Dakota,57301
12021 US Highway 16,Custer,Custer / Mount Rushmore / Black Hills KOA Holiday,South Dakota,57730
20720 SD Highway 44,Interior,Badlands / White River KOA Holiday,South Dakota,57750
I-90 Exit 235,Kennebec,Kennebec KOA Journey,South Dakota,57544
20900 South 4200 Road,Claremore,Tulsa NE / Will Rogers Downs  KOA Journey,Oklahoma,74019
24201 South Dakota Highway 63,Midland-7302,Belvidere East / Exit 170 KOA Journey,South Dakota,57552
6200 South Choctaw Road,Choctaw,Oklahoma City East KOA Holiday,Oklahoma,73020
21167 RT. 66 N,Foss,Elk City / Clinton KOA Journey,Oklahoma,73647
1900 KOA Power Drive,Sallisaw,Sallisaw / Fort Smith West KOA Holiday,Oklahoma,74955
3650 Enterprise Blvd,Durant,Durant / Choctaw Casino KOA,Oklahoma,74701
7777 Mission Road,Cranbrook Canada,Cranbrook / St. Eugene KOA Journey,British Columbia,V1C7E
Call for directions,Calumet,El Reno West KOA Journey,Oklahoma,73014
102 Lyons Ferry Road,Starbuck,Starbuck / Lyons Ferry Marina KOA Holiday,Washington,99359
409329 E 1078 Rd,Checotah,Checotah / Lake Eufaula West KOA Holiday,Oklahoma,74426
80 O'Brien Road,Port Angeles,Olympic Peninsula / Port Angeles KOA Journey,Washington,98362
8801 Saint Thomas Drive,Pasco,Pasco / Tri-Cities KOA Journey,Washington,99301
8717 Line Road,Lynden,Lynden / Bellingham KOA Journey,Washington,98264
27585 SD Highway 79,Hot Springs,Hot Springs SD / Black Hills KOA Holiday,South Dakota,57747
3025 N Barker Rd,Spokane Valley,Spokane KOA Journey,Washington,99027
308 Zelt Strasse,Leavenworth,Leavenworth / Pine Village  KOA Holiday,Washington,98826
1002 McGowen Road,Newport,Newport / Little Diamond Lake KOA Holiday,Washington,99156
167 Schaffran Rd,Castle Rock,Longview North / Mount St Helens KOA Journey,Washington,98611
7370 Russell Road,Concrete,Concrete / Grandy Creek KOA Holiday,Washington,98237
11484 US-14A,Lead,Deadwood / Black Hills KOA Holiday,South Dakota,57754
32 S. Thorp Hwy.,Ellensburg,Ellensburg KOA Journey,Washington,98926
6397 North Green Road,Burlington,Burlington / Anacortes KOA Holiday,Washington,98233
457 Bay Center Road,Bay Center,Bay Center / Willapa Bay KOA Journey,Washington,98527
1753 Granite Rd.,Colfax,Boyer Park & Marina / Snake River KOA Holiday,Washington,99111
200 Jay St,Oakdale,Oakdale KOA Journey,Wisconsin,54649
872 E State Rd 59,Milton,Milton KOA Holiday,Wisconsin,53563
N9657 State Road 95,Alma Center,Hixton / Alma Center KOA Holiday,Wisconsin,54611
1238 US Route 5,East Dummerston-9764,Brattleboro North KOA Journey,Vermont,05346
South 235A Stand Rock Road,Wisconsin Dells,Wisconsin Dells KOA Holiday,Wisconsin,53965
N5456 Division Rd.,Glenbeulah,Fond du Lac East / Kettle Moraine KOA Holiday,Wisconsin,53023
11544 North US Highway 63,Hayward,Hayward KOA Holiday,Wisconsin,54843
38000 Hwy 79 South,Temecula,Temecula / Vail Lake KOA,California,92592
4765 Santa Margarita Lake Rd.,Santa Margarita,Santa Margarita KOA Holiday,California,93453
60260 State Highway 3,Trinity Center,Trinity Lake KOA Holiday,California,96091
111 North 2nd Avenue,Chula Vista,San Diego Metro KOA Resort,California,91910
2001 Rossi Road at Hwy 1,Pescadero,Santa Cruz North / Costanoa KOA,California,94060
100 Lake Avenue,Red Bluff,Red Bluff KOA Journey,California,96080
4655 Rock Barn Road,Shingle Springs,Placerville KOA Journey,California,95682
8710 Prunedale North Road,Salinas,Salinas / Monterey KOA,California,93907
20 Rainsville Road,Petaluma,San Francisco North / Petaluma KOA,California,94952
1186 San Andreas Road,Watsonville,Santa Cruz / Monterey Bay KOA Holiday,California,95076
7749 KOA Road,Shingletown,Mt. Lassen / Shingletown KOA Holiday,California,96088
3 Alverda Dr.,Oroville,Oroville / Feather Falls Casino KOA Journey,California,95966
5400 Route 66,Needles,Needles KOA Journey,California,92363
900 North Mt Shasta Blvd.,Mt Shasta,Mount Shasta City KOA Holiday,California,96067
7905 Sandholdt Road,Moss Landing,Moss Landing KOA Express,California,95039
70405 Dillon Rd,Desert Hot Springs,Palm Springs / Joshua Tree KOA,California,92241
14831 Warren Street,Lost Hills,Lost Hills KOA,California,93249
4241 Highway 101 North,Crescent City,Crescent City / Redwoods KOA Holiday,California,95531
15627 Highway 178,Weldon,Lake Isabella / Kern River KOA,California,93283
1166 Asti Ridge Road,Cloverdale,Cloverdale / Healdsburg KOA,California,95425
110437 US Highway 395,Coleville,Coleville / Walker KOA Holiday,California,96107
44300 Kinney Road,Manchester,Manchester Beach / Mendocino Coast KOA Journey,California,95459
15565 Black Angus Lane,Hat Creek,Burney Falls / Hat Creek KOA Holiday,California,96040
35250 Outer Highway 15 North,Yermo,Barstow / Calico KOA Holiday,California,92398
1455 S. San Gorgonio Avenue,Banning,Banning Stagecoach KOA Journey,California,92220
5025 Wible Rd,Bakersfield,Bakersfield KOA Journey,California,93313
1331 Shasta Way,Boulevard,Boulevard / Cleveland National Forest KOA Holiday,California,91905
7000 Benbow Drive,Garberville,Benbow KOA Holiday,California,95542
7075 Ontario Road,San Luis Obispo,Avila / Pismo Beach KOA,California,93405
3779 New Harris Road,New Harris 1T1 Canada,North Sydney / Cabot Trail KOA,Nova Scotia,B1X 1
3070 Highway 1,Upper Sackville 3C9 Canada,Halifax West KOA,Nova Scotia,B4E 3
198 Forest Hills Lane,Cavendish 1N0 Canada,Cavendish KOA Holiday,Prince Edward Island,C0A 1
2414 N US Hwy 231,Ozark,Ozark / Fort Rucker KOA Journey,Alabama,36360
23714 Trans Canada Highway,Borden-Carleton 1X0 Canada,Borden / Summerside KOA Journey,Prince Edward Island,C0B 1
11091 Atlanta Hwy,Montgomery,Montgomery KOA,Alabama,36117
118 Pendleton Hill Road,North Stonington,Mystic KOA Holiday,Connecticut,06359
271 West Main St,Niantic,Niantic / I-95 Exit 72 KOA Journey,Connecticut,06357
44 County Road 443,Hillsboro,Decatur / Wheeler Lake KOA Holiday,Alabama,35643
700 N Virginia Avenue,Willcox,"Willcox / Cochise, AZ KOA Holiday",Arizona,85643
5151 South Country Club Road,Tucson,Tucson / Lazydays KOA Resort,Arizona,85706
11650 County Road 99,Lillian,Gulf Shores / Pensacola West KOA Holiday,Alabama,36549
64812 Harcuvar Drive,Salome-0831,Salome KOA Journey,Arizona,85348
1000 Circle Pines Road,Williams,Williams / Exit 167 / Circle Pines KOA Holiday,Arizona,86046
18428 South Picacho Highway,Picacho,Picacho / Tucson NW KOA Journey,Arizona,85141
3820 North Roosevelt,Kingman,Kingman KOA Journey,Arizona,86409
1540 South Tomahawk Road,Apache Junction,Mesa / Apache Junction KOA Journey,Arizona,85119
21305 I-40 Business Loop,Seligman,Seligman / Route 66 KOA Journey,Arizona,86337
5803 North US Highway 89,Flagstaff,Flagstaff KOA Holiday,Arizona,86004
102 Hermosa Drive,Holbrook,Holbrook / Petrified Forest KOA Journey,Arizona,86025
330 Hart State Park Rd,Hartwell-4129,Hartwell Lakeside KOA Holiday,Georgia,30643
414 S. Frontage Road,Forsyth,Forsyth KOA Journey,Georgia,31029
751 Gander Gap Rd,Hiawassee,Hiawassee KOA Holiday,Georgia,30546
5333 State Highway 64,Williams,Grand Canyon / Williams KOA Journey,Arizona,86046
373 Rockhouse Road East,Cordele,Cordele KOA Journey,Georgia,31015
5473 Mount Olive Road,Commerce,Commerce / Athens KOA Journey,Georgia,30529
67 Blackhawk Drive,Blue Ridge,Blue Ridge / Toccoa River KOA Holiday,Georgia,30513
1619 US Hwy 280 East,Americus,Americus KOA Journey,Georgia,31709
651 North Camper Drive,West Wendover,Wendover KOA Journey,Nevada,89883
2100 Garson Rd,Verdi,Reno KOA Journey at Boomtown,Nevada,89439
117 Timberlane Rd,Clarksboro,Philadelphia South / Clarksboro KOA Holiday,New Jersey,08020
1596 South US Highway 93,Ely,Ely KOA Journey,Nevada,89301
1855 North Coldwater Road,Weidman,Weidman KOA Holiday,Michigan,48893
4577 W State Road 56,Scottsburg,Scottsburg / Raintree Lake KOA Holiday,Indiana,47170
768 Cecil Avenue North -,Millersville,Washington DC / Capitol KOA Holiday,Maryland,21108
10000 Aha Macav Parkway,Laughlin-7001,Laughlin / Avi Casino KOA Journey,Nevada,89029
11759 Snug Harbor Lane,Williamsport,Hagerstown / Antietam Battlefield KOA Holiday,Maryland,21795
3181 Richardson Hwy,Valdez,Valdez KOA Journey,Alaska,99686
5225 Boulder Hwy,Las Vegas,Las Vegas KOA Journey at Sam's Town,Nevada,89122
3101 Cart Rd,Richmond,Richmond KOA Holiday,Indiana,47374
684 Chemin Olivier,St Nicolas 2N6 Canada,Quebec City KOA Holiday,Quebec,G7A 2
130 montee Monette,St Philippe de Laprairie 2K0 Canada,Montreal South KOA Journey,Quebec,J0L 2
5 Shearakin Lane,Rocky Harbour 4N0 Canada,Gros Morne / Norris Point KOA Holiday,Newfoundland and Labrador,A0K 4
1699 Shefford,Bromont 3N8 Canada,Bromont KOA Holiday,Quebec,J2L 3
16105 US 50 West,Salida,Salida / Mt. Shavano KOA Journey,Colorado,81201
4513 West Main Street,Mims,Titusville / Kennedy Space Center KOA Journey,Florida,32754
251 State Road 939,Sugarloaf Key-0469,Sugarloaf Key / Key West KOA Holiday,Florida,33042
1475 South Walnut Street,Starke,Starke / Gainesville N.E. KOA Holiday,Florida,32091
5400 95th Street North,St. Petersburg,St. Petersburg / Madeira Beach KOA Holiday,Florida,33708
3603 Lincoln Avenue,Steamboat Springs,Steamboat Springs KOA Holiday,Colorado,80487
3641 South Byron Butler Pkwy,Perry,Perry KOA Holiday,Florida,32348
559 County Road 3A,Canon City,Royal Gorge / Canon City KOA Holiday,Colorado,81215
525 West Pope Road,St Augustine,St. Augustine Beach KOA Holiday,Florida,32080
3800 W Orange Blossom Trail,Apopka,Orlando NW / Orange Blossom KOA Journey,Florida,32712
2525 Frontage Road,Davenport,Orlando Southwest KOA Holiday,Florida,33837
2000 Lion Country Safari Road,Loxahatchee-3976,West Palm Beach / Lion Country Safari KOA Journey,Florida,33470
1700 Barefoot Williams Road,Naples,Naples / Marco Island KOA Holiday,Florida,34113
2039 Hamilton Avenue,Jennings,Jennings KOA Holiday,Florida,32053
2644 Happy Camper Place,Kissimmee,Orlando / Kissimmee KOA Holiday,Florida,34746
5931 Polk Street,Hollywood,Hollywood KOA,Florida,33021
8700 Gulf Pines Drive,Milton,Milton / Gulf Pines KOA Holiday,Florida,32583
17192 US Hwy 27,Moore Haven,Moore Haven KOA Holiday,Florida,33471
1821 N. US Hwy 1,Fort Pierce,Fort Pierce Downtown KOA Journey,Florida,34946
3180 S Jenkins Rd,Fort Pierce,Fort Pierce West KOA Holiday,Florida,34981
4276 US Highway 441 South,Okeechobee,Okeechobee KOA Resort,Florida,34974
5120 Stringfellow Road,St. James City,Fort Myers / Pine Island KOA Holiday,Florida,33956
3800 SW 142 Avenue,Davie,Davie / Ft. Lauderdale KOA Holiday,Florida,33330
15991 NE 243rd Place Road,Fort McCoy,Fort McCoy / Lake Oklawaha KOA Holiday,Florida,32134
"9040 Interstate 25 South @ Exit 74,",Pueblo,Pueblo South / Colorado City KOA Holiday,Colorado,81004
200 N Cedar Avenue,Montrose,Montrose / Black Canyon Nat'l Park KOA Journey,Colorado,81401
575 Colorado Avenue,Limon-2215,Limon KOA Journey,Colorado,80828
5500 C.R. 675,Bradenton,Bradenton / Hunsader Farms KOA Holiday,Florida,34211
105 County Road 50,Gunnison,Gunnison KOA Journey,Colorado,81230
26680 Highway 50,La Junta,La Junta KOA Journey,Colorado,81050
143 Co Rd 48,Grand Lake,Grand Lake / Rocky Mountain National Park KOA Journey,Colorado,80447
2819 Highway 50,Grand Junction,Grand Junction KOA Holiday,Colorado,81503
"4131 Interstate 25 North, Exit 108",Pueblo,Pueblo KOA Journey,Colorado,81008
225 CR 23,Ridgway,Ouray KOA Holiday,Colorado,81432
4821 E CR RD 70,Wellington,Fort Collins North / Wellington KOA Journey,Colorado,80549
14010 Judge Orr Road,Peyton,Falcon / Colorado Springs NE KOA Holiday,Colorado,80831
2051 Big Thompson Ave.,Estes Park,Estes Park KOA Holiday,Colorado,80517
629 River Frontage Road,Silt,Glenwood Springs West / Colorado River KOA Holiday,Colorado,81652
605 Lake Gulch Rd Co Rd 6,Central City-0771,Denver West / Central City KOA Holiday,Colorado,80427
2800 E  Hwy 40,Craig,Craig KOA Journey,Colorado,81625
162 Spruce River Road,Shuniah 0N6 Canada,Thunder Bay KOA Holiday,Ontario,P7A 0
1312 Monroe Street,Strasburg,Denver East / Strasburg KOA Holiday,Colorado,80136
2576 County Road 81,Cripple Creek,Cripple Creek KOA Holiday,Colorado,80813
1910 Lakeside Resort Lane,Fort Collins,Fort Collins / Lakeside KOA Holiday,Colorado,80524
2826 Johnston Road,Renfrew 3Z8 Canada,Renfrew / Ottawa West KOA Journey,Ontario,K7V 3
276 Rankin Lake Road,Seguin 0B2 Canada,Parry Sound KOA Holiday,Ontario,P2A 0
37061 US Hwy 19 N,Palm Harbor,Clearwater / Lake Tarpon KOA Holiday,Florida,34684
8625 Lundy's Lane,Niagara Falls 1H5 Canada,Niagara Falls KOA Holiday,Ontario,L2H 1
818 Lalande Rd,Sturgeon Falls Canada,Sturgeon Falls KOA Holiday,Ontario,P2B2V
15051 Telephone Road,Brighton 1H0 Canada,Brighton / 401 KOA Holiday,Ontario,K0K 1
609 Pittston Road,Cardinal 1E0 Canada,Cardinal / Ottawa South KOA Holiday,Ontario,K0E 1
3138 Penetanguishene Road,SPRINGWATER 1Z7 Canada,Barrie KOA Holiday,Ontario,L9X 1
501 Fifth Line East,Sault Ste Marie 6J8 Canada,Sault Ste. Marie KOA Holiday,Ontario,P6A 6
2039 Cordukes Road,Kingston 4V4 Canada,1000 Islands / Kingston KOA Holiday,Ontario,K7L 4
1477 County Road 2,Mallorytown 1R0 Canada,1000 Islands / Mallorytown KOA Holiday,Ontario,K0E 1
8100 Bandley Drive,Fountain,Colorado Springs KOA Holiday,Colorado,80817
6900 Juniper Lane,Alamosa,Alamosa / Great Sand Dunes KOA Journey,Colorado,81101
7202 Highway 133,Carbondale,Carbondale / Crystal River KOA Holiday,Colorado,81623
7820 Kampground Way,North Little Rock,Little Rock North / Jct. I-40 KOA Journey,Arkansas,72118
514 1000 Island Parkway,Lansdowne 1L0 Canada,1000 Islands / Ivy Lea KOA Holiday,Ontario,K0E 1
7037 I-55,Marion,Memphis KOA Journey,Arkansas,72364
838 McClendon Road,Hot Springs,Hot Springs National Park KOA Holiday,Arkansas,71901
3629 Highway 65N,Harrison,Harrison KOA Holiday,Arkansas,72601
15020 Highway 187 South,Eureka Springs,Eureka Springs KOA Journey,Arkansas,72631
398235 28th Ave East,Owen Sound 5N8 Canada,Owen Sound KOA Journey,Ontario,N4K 5
31702 Herman Leirer Road,Seward,Seward KOA Journey,Alaska,99664
109 Chemin du Lac Sud,St.-Mathieu-de-Rioux Canada,Bas Saint-Laurent KOA Resort,Quebec,St.-M
9815 W Pocatello Creek Road,Pocatello,Pocatello KOA Journey,Idaho,83201
441 S Liberty Lane,Jerome,Twin Falls / Jerome KOA Holiday,Idaho,83338
28501 US Highway 89 North,Montpelier,Montpelier Creek KOA Journey,Idaho,83254
100 Bristol Park Lane,Lava Hot Springs,Lava Hot Springs East KOA Holiday,Idaho,83246
3425 Sterling Highway(Mile 169),Homer,Homer / Baycrest KOA Holiday,Alaska,99603
1316 Badger Road,North Pole,Fairbanks / Chena River KOA,Alaska,99705
4243 Highway 12,Kamiah,Kamiah / Clearwater River KOA Journey,Idaho,83536
5896 West 200 North,Greenfield,Indianapolis KOA Holiday,Indiana,46140
184 Pennwood Street,Meridian,Boise / Meridian KOA Journey,Idaho,83642
2882 N.W. Shafer Drive,Monticello,Indiana Beach / Monticello KOA Holiday,Indiana,47960
89 North Center Street,Lava Hot Springs,Lava Hot Springs West KOA Holiday,Idaho,83246
2424 North 3000 West,Arco,Craters of the Moon / Arco KOA Journey,Idaho,83213
2248 State Road 46 E,Nashville-9250,Brown County / Nashville KOA Holiday,Indiana,47448
52867 State Road 13,Middlebury,Elkhart Co. / Middlebury KOA Holiday,Indiana,46540
1600 Lafayette Road,Crawfordsville,Crawfordsville KOA Journey,Indiana,47933
1625 West Lancaster Street,Bluffton,Bluffton / Fort Wayne South KOA Journey,Indiana,46714
7234 E State Rd 46,Batesville,Batesville KOA Journey,Indiana,47006
5251 West US 20,Angola,Angola / Hogback Lake KOA Holiday,Indiana,46703
25027 S Interstate,Wakeeney,WaKeeney KOA Journey,Kansas,67672
1949 SW 49th,Topeka,Topeka / Capital City KOA Journey,Kansas,66609
1114 East US Highway 24,Goodland,Goodland KOA Journey,Kansas,67735
100 South KOA Drive,Wellington,Wellington KOA Holiday,Kansas,67152
701 Park Street,Dodge City,Dodge City KOA Journey,Kansas,67801
9700 S M-37,Buckley,Traverse City KOA,Michigan,49620
W1118 US-2 Highway,St Ignace,St. Ignace / Mackinac Island KOA Holiday,Michigan,49781
1109 West Diamond Drive,Salina,Salina KOA Holiday,Kansas,67401
1473 Highway 40,Lawrence,Kansas City West / Lawrence KOA Holiday,Kansas,66044
3591 Forest Road,Oscoda,Oscoda / Tawas KOA Holiday,Michigan,48750
5111 Lapeer Rd.,Kimball,Port Huron KOA Resort,Michigan,48074
E10102 State Hwy M28,Wetmore,Munising / Pictured Rocks KOA Journey,Michigan,49895
15600 Tunnicliffe Road,Petersburg,Monroe Co. / Toledo North KOA Holiday,Michigan,49270
3500 Strand Road,Muskegon,Muskegon KOA,Michigan,49445
566 Trailsend Road,Mackinaw City,Mackinaw City / Mackinac Island KOA Journey,Michigan,49701
5101 Campfires Parkway,Gaylord,Gaylord KOA Holiday,Michigan,49735
7072 E. Grange Hall Rd,Holly,Auburn Hills / Holly KOA,Michigan,48442
39397 M140 Highway,Covert,Covert / South Haven KOA Holiday,Michigan,49043
3800 W. Federal Hwy,Roscommon,Higgins Lake / Roscommon KOA,Michigan,48653
6680 Bunton Rd,Ypsilanti,Detroit / Ann Arbor KOA Holiday,Michigan,48197
11713 West 40th Street,Branch,Ludington East / Pere Marquette River KOA Holiday,Michigan,49402
8275 Warner Street,Allendale,Allendale / West Grand Rapids KOA Holiday,Michigan,49401
3864 Breen Road,Emmett,Emmett KOA Holiday,Michigan,48022
7781 Highway 1 North,Shreveport,Shreveport North / Caddo Lake Area KOA,Louisiana,71107
6510 West 70th Street,Shreveport,Shreveport / Bossier City KOA Journey,Louisiana,71129
3527 Coloma Road,Benton Harbor,Coloma / St. Joseph KOA Holiday,Michigan,49022
1825 Saint Mary St.,Scott,Lafayette KOA Holiday,Louisiana,70583
11129 Jefferson Highway,River Ridge,New Orleans KOA Holiday,Louisiana,70123
3305 Targhee Pass Highway,West Yellowstone,Yellowstone Park / West Gate KOA Holiday,Montana,59758
5121 Highway 93 South,Whitefish,Whitefish / Kalispell North KOA Holiday,Montana,59937
355 Halfmoon Flats Road,West Glacier,West Glacier KOA Resort,Montana,59936
7628 Vincent Road,Denham Springs,Baton Rouge KOA Holiday,Louisiana,70726
7464 US HWY 212,Red Lodge,Red Lodge KOA Journey,Montana,59068
81 Silos Road,Townsend,Townsend / Canyon Ferry Lake KOA Journey,Montana,59644
15 KOA Road,Three Forks,Three Forks KOA Journey,Montana,59752
3450 Tina Avenue,Missoula,Missoula KOA Holiday,Montana,59808
200 Irvine Flats Road,Polson,Polson / Flathead Lake KOA Holiday,Montana,59860
1545 Targhee Pass Hwy,West Yellowstone,Yellowstone Park / Mountainside KOA Journey,Montana,59758
163 Pine Creek Road,Livingston,Livingston / Paradise Valley KOA Holiday,Montana,59047
1601 Kaw Avenue,Butte,Butte KOA Journey,Montana,59701
1500 51st Street South,Great Falls,Great Falls KOA Holiday,Montana,59405
"RR 1, Box 1009",Hardin,Hardin KOA Journey,Montana,59034
106 West Shore,St Mary,St. Mary / East Glacier KOA Holiday,Montana,59417
547 Garden Avenue,Billings,Billings KOA Holiday,Montana,59101
1 Palmer Street,Miles City,Miles City KOA Journey,Montana,59301
693 Highway 10,Big Timber,Big Timber / Greycliff KOA Journey,Montana,59011
850 Lincoln Road West,Helena,Helena North KOA Journey,Montana,59602
2661 County Lake Road,Starkville,Starkville KOA Holiday,Mississippi,39759
3953 KOA Campground Road,Toomsuba,Meridian East / Toomsuba KOA Journey,Mississippi,39364
3730 Idaho Street,Elko,Elko KOA Journey,Nevada,89801
221 Okatoma River Road,Hattiesburg,Hattiesburg / Okatoma River KOA,Mississippi,39401
8001 East Lake Road,Westfield,Westfield / Lake Erie KOA Journey,New York,14787
1710 State Route 414 (GPS address 1710 KOA Dr),Watkins Glen,Watkins Glen / Corning KOA Resort,New York,14891
1250 Pletcher Road,Youngstown,Niagara Falls North / Lewiston KOA Journey,New York,14174
1278 Waterloo-Geneva Rd,Waterloo,Waterloo / Finger Lakes KOA,New York,13165
2570 Grand Island Blvd.,Grand Island,Niagara Falls / Grand Island KOA Holiday,New York,14072
2711 County Line Road,Medina,Medina / Wildwood Lake KOA Holiday,New York,14103
242 Union Church Road,Franklin,Unadilla / I-88 / Oneonta KOA Journey,New York,13775
6081 State Route 3,Natural Bridge,Natural Bridge / Watertown KOA Journey,New York,13665
564 Lake Avenue,Lake Luzerne,Lake George / Saratoga KOA Journey,New York,12846
7632 Centerville Road,Houghton,Houghton / Letchworth KOA Holiday,New York,14744
4626 State Route 28 North,Herkimer,Herkimer Diamond KOA Resort,New York,13350
119 Freetown Highway,Plattekill,New York City North / Newburgh KOA Holiday,New York,12589
5591 NYS Route 86,Wilmington,Lake Placid / Whiteface Mtn. KOA Holiday,New York,12997
7531 County Road 13,Bath,Hammondsport / Bath KOA Resort,New York,14810
5374 Canandaigua Farmington Town Line Road,Farmington,Canandaigua / Rochester KOA Holiday,New York,14425
5652 Thum Road,Dewittville,Chautauqua Lake KOA Holiday,New York,14728
565 Ostrander Road,Richfield Springs,Cooperstown  KOA Journey,New York,13439
1501 2nd Ave W,Lethbridge Canada,Lethbridge KOA,Alberta,T1J4S
588 Jones drive south,St Francois Xavier / winnipeg 1A1 Canada,Winnipeg West KOA Journey,Manitoba,St Fr
50409 B Highway 16,Hinton 1X3 Canada,Hinton / Jasper KOA Holiday,Alberta,T7V 1
343 Campground Road,Harpers Ferry,Harpers Ferry / Civil War Battlefields KOA Holiday,West Virginia,25425
290 Fox Fire Road,Milton,Huntington / Fox Fire KOA Holiday,West Virginia,25541
350 Days Drive,Sutton,Flatwoods KOA Journey,West Virginia,26601
63 Decker Road,Sheridan,Sheridan / Big Horn Mountains KOA Journey,Wyoming,82801
86 Foothill Boulevard,Rock Springs,Rock Springs / Green River KOA Journey,Wyoming,82901
10061 Kings Dominion Blvd,Doswell,Richmond North / Kings Dominion KOA Holiday,Virginia,23047
79 First Crown Point Road,Strafford,Strafford / Lake Winnipesaukee South KOA Holiday,New Hampshire,03884
231 KOA Road,Wytheville,Wytheville KOA Holiday,Virginia,24382
1240 General Booth Boulevard,Virginia Beach,Virginia Beach KOA Holiday,Virginia,23451
372 Route 115,Twin Mountain,Twin Mountain / Mt. Washington KOA Holiday,New Hampshire,03595
5232 65th Avenue SE,Rochester-6313,Rochester / Marion KOA Journey,Minnesota,55904
3315 West 166th Street,Jordan,Minneapolis Southwest KOA Holiday,Minnesota,55352
1381 Kampground Road,Cloquet,Cloquet / Duluth KOA Journey,Minnesota,55720
10410 Brockton Lane North,Maple Grove,Minneapolis Northwest KOA Journey,Minnesota,55311
2035 Highway 71 North,Jackson,Jackson KOA Journey,Minnesota,56143
18475 Old US Hwy 66,Eureka,St. Louis West / Historic Route 66 KOA Holiday,Missouri,63025
438 Plymouth Street,Middleboro,Boston / Cape Cod KOA Holiday,Massachusetts,02346
510 Brightstar Road NW,Bemidji,Bemidji KOA Journey,Minnesota,56601
84259 County Road 46,Hayward,Albert Lea / Austin KOA Journey,Minnesota,56043
5775 West Farm Road 140,Springfield,Springfield / Route 66 KOA Holiday,Missouri,65802
13654 Hwy 64,Lebanon,Lebanon / Bennett Spring KOA Holiday,Missouri,65536
4171 US-54,Linn Creek,Lake of the Ozarks / Linn Creek KOA Holiday,Missouri,65052
139 South Road,Westhampton,Northampton / Springfield KOA Holiday,Massachusetts,01027
303 NE 3rd Street,Oak Grove,Kansas City East / Oak Grove KOA Holiday,Missouri,64075
4359 Dakota Lane,Joplin,Joplin KOA Journey,Missouri,64804
1631 Waterlily Road,Coinjock,Outer Banks West / Currituck Sound KOA Holiday,North Carolina,27923
14719 Cemetery Road,Wapakoneta,Wapakoneta KOA Holiday,Ohio,45895
6445 Ledge Rd,Thompson,Thompson / Grand River Valley KOA Holiday,Ohio,44086
8644 Porter Central Rd,Sunbury,Sunbury / Columbus North KOA Holiday,Ohio,43074
7652 Pymatuning Lake Road,Williamsfield,Andover / Pymatuning Lake KOA Holiday,Ohio,44093
187 State Route 303,Streetsboro-5245,Streetsboro / Cleveland SE KOA Holiday,Ohio,44241
162 KOA Lane,Statesville,Statesville / I-77 KOA Journey,North Carolina,28677
7415 Market Street,Wilmington,Wilmington KOA Holiday,North Carolina,28411
24787 Luckey Road,Perrysburg,Toledo East / Stony Ridge KOA Journey,Ohio,43551
East Shoreway Drive KOA,Sandusky,Sandusky / Bayshore KOA Holiday,Ohio,44870
33807 Winona Road,Salem,Salem / Lisbon KOA Holiday,Ohio,44460
6787 Baker 47,Shelby,Shelby / Mansfield KOA Resort,Ohio,44875
901 E High Street,Mt. Gilead,Mt. Gilead KOA Holiday,Ohio,43338
29150 Pattor Rd,Logan,Logan / Hocking Hills KOA Holiday,Ohio,43138
4145 Fresno Rd. NW,Carrollton,Carrollton KOA Holiday,Ohio,44615
760 Franklin Rd,Lebanon,Lebanon / Cincinnati NE KOA Holiday,Ohio,45036
24688 County Road 10,Coshocton,Coshocton KOA Holiday,Ohio,43812
4460 Walnut Road,Buckeye Lake,Buckeye Lake / Columbus East KOA Holiday,Ohio,43008
3232 Downing Street SW,East Sparta,Canton / East Sparta KOA Holiday,Ohio,44626
6918 Bunker Hill Road South,Butler,Butler / Mohican KOA Journey,Ohio,44822
7796 Wellbaum Road,Brookville,Dayton KOA Holiday,Ohio,45309
15487 Creed Rd,Lake Milton,Lake Milton / Berlin Lake KOA Holiday,Ohio,44429
465 Kenric Road,Lumberton,Lumberton / I-95 KOA Journey,North Carolina,28360
1565 B Street,New Bern,New Bern KOA Holiday,North Carolina,28560
1896 Trox St,Greensboro,Greensboro KOA Journey,North Carolina,27406
18562 NC HWY 481,Enfield,Enfield / Rocky Mount KOA Journey,North Carolina,27823
117 Happy Valley Road,Marble,Murphy / Peace Valley KOA Holiday,North Carolina,28905
92 KOA Campground Road,Cherokee,Cherokee / Great Smokies KOA Holiday,North Carolina,28719
2708 Highway 70 East,Swannanoa,Asheville East KOA Holiday,North Carolina,28778
309 Wiggins Road,Candler,Asheville West KOA Holiday,North Carolina,28715
123 Harmony Mountain Lane,Boone,Boone KOA Holiday,North Carolina,28607
6299  Quay Road AL,Tucumcari,Tucumcari / Route 66 KOA Journey,New Mexico,88401
11824 Highway 180 E,Silver City,Silver City KOA Holiday,New Mexico,88022
1501 Lead Street,Lordsburg,Lordsburg KOA Journey,New Mexico,88045
76 County Road a25a,Las Vegas,"Las Vegas, New Mexico  KOA Journey",New Mexico,87701
1330 South 2nd Street,Raton,Raton KOA Journey,New Mexico,87740
26 Cibola Sands Loop,Grants,Grants KOA Journey,New Mexico,87020
25099 NC Hwy 12,Rodanthe,Cape Hatteras / Outer Banks KOA Resort,North Carolina,27968
"2 Manthei Road, Highway 285",Carlsbad,Carlsbad KOA Holiday,New Mexico,88220
12400 Skyline Road NE,Albuquerque,Albuquerque KOA Journey,New Mexico,87123
934 Old Las Vegas Highway,Santa Fe,Santa Fe KOA Journey,New Mexico,87505
555 South Hill Road,Bernalillo,Albuquerque North / Bernalillo KOA Journey,New Mexico,87004
814 Weinrich Road,Las Cruces,Las Cruces KOA Journey,New Mexico,88007
412 24th Street,Alamogordo,Alamogordo / White Sands KOA Journey,New Mexico,88310
397 Animal Safari Road,Branson,Branson KOA Holiday,Missouri,65616
221 Road East 85,Ogallala,Ogallala / I-80 KOA Journey,Nebraska,69153
14601 Highway 6,Gretna,West Omaha / NE Lincoln KOA Holiday,Nebraska,68028
120 Road East 80,Ogallala,Ogallala / Tri Trails KOA,Nebraska,69153
2154 Route 302,Lisbon,Littleton / Franconia Notch KOA Holiday,New Hampshire,03585
214 Killdeer Lane,Natural Bridge,Natural Bridge / Lexington KOA Holiday,Virginia,24578
904 South B Road,Doniphan,Grand Island KOA Journey,Nebraska,68832
1000 East Side Road,Woodstock,Lincoln / Woodstock KOA Holiday,New Hampshire,03293
6252 Elon Rd,Monroe-3012,Lynchburg  / Blue Ridge Parkway KOA Holiday,Virginia,24574
7400 Brookside Lane,Fredericksburg-8856,Fredericksburg / Washington DC South KOA Holiday,Virginia,22408
47 Fox Trail Loop,Fancy Gap,Fancy Gap / Blue Ridge Parkway KOA Journey,Virginia,24328
2940 Sussex Drive,Emporia,Emporia / I-95 KOA,Virginia,23847
893 White Mountain Highway - PO Box 484,Tamworth,Chocorua KOA Holiday,New Hampshire,03886
12480 Mountain Valley Road,Broadway,Harrisonburg / Shenandoah Valley KOA Holiday,Virginia,22815
2400 US-25,Travelers Rest,Travelers Rest / N Greenville KOA Holiday,South Carolina,29690
14 Campground Rd  (I-95 @ Exit 33) & US 17,Yemassee,Point South / I-95 / Yemassee KOA Holiday,South Carolina,29945
1268 Gordon Road,Summerton,Santee / Santee Lakes KOA Journey,South Carolina,29148
567 Fairview Church Rd,Kinards,Newberry / I-26 / Sumter NF KOA Journey,South Carolina,29355
940 Gold Hill Road,Fort Mill,Charlotte / Fort Mill KOA Journey,South Carolina,29708
3825 Red Hill RD,Charlottesville,Charlottesville KOA Holiday,Virginia,22903
9494 U.S. Highway 78,Ladson,Charleston KOA Holiday,South Carolina,29456
613 5th Avenue South,Myrtle Beach,Myrtle Beach KOA Resort,South Carolina,29577
32246 Lankford Highway,Cape Charles,Cape Charles / Chesapeake Bay KOA Resort,Virginia,23310
1330 NW Pacific Coast Highway,Waldport,Waldport / Newport KOA Journey,Oregon,97394
200 Wham Road,Anderson,Anderson / Lake Hartwell KOA Holiday,South Carolina,29625
3157 N Highway 17,Mount Pleasant,Mount Pleasant / Charleston KOA Holiday,South Carolina,29466
609 Fort McKay,Sutherlin,Sutherlin / Umpqua Valley KOA,Oregon,97479
1375 SE 3RD St.,Pendleton-4101,Pendleton KOA Journey,Oregon,97801
68632 Hwy 101,North Bend,Oregon Dunes KOA Holiday,Oregon,97459
5298 Northeast Park Lane,Otis,Lincoln City KOA Journey,Oregon,97368
2435 Southwest Jericho Lane,Culver,Redmond / Central Oregon KOA Holiday,Oregon,97734
2610 Birds Point Road,Idleyld Park,Lemolo Lake / Crater Lake North KOA Holiday,Oregon,97447
699 Jumpoff Joe Creek Road,Grants Pass,Grants Pass KOA Journey,Oregon,97526
841 NE Forest Lane,Cascade Locks,Cascade Locks / Portland East KOA Holiday,Oregon,97014
12297 Blackwell Road,Central Point,Medford / Gold Hill KOA Journey,Oregon,97502
3435 Shasta Way,Klamath Falls,Klamath Falls KOA Journey,Oregon,97603
46612 Highway 101 South,Langlois,Bandon / Port Orford KOA Journey,Oregon,97450
1100 Northwest Ridge Road,Hammond,Astoria / Warrenton / Seaside KOA Resort,Oregon,97121
5800 North Old Highway 91,Hurricane,St. George / Hurricane KOA Journey,Utah,84737
1550 North 1750 West,Springville,Springville / Provo KOA Holiday,Utah,84663
930 North Vernal Avenue,Vernal,Vernal / Dinosaurland KOA Holiday,Utah,84078
235 South 1780 East,Green River,Green River KOA Journey,Utah,84525
"Milepost 2, Highway 163",Monument Valley,Monument Valley KOA Journey,Utah,84536
410 West 900 South,Fillmore,Fillmore KOA Journey,Utah,84631
320 West Highway 43,Manila,Flaming Gorge / Manila KOA Journey,Utah,84046
3225 South Highway 191,Moab,Moab KOA Holiday,Utah,84532
1040 West 3600 South,Perry,Brigham City / Perry South KOA Journey,Utah,84302
1428 N Manderfield Road (Hwy 357),Beaver,Beaver KOA Journey,Utah,84713
33775 Oakville Road South,Albany,Albany / Corvallis KOA Journey,Oregon,97321
145 N. 300 W.,Garden City,Bear Lake / Trail Side KOA Journey,Utah,84028
485 North Bear Lake Blvd,Garden City,Bear Lake / Marina Side KOA Holiday,Utah,84028
8533 State Highway 73,Townsend,Townsend / Great Smokies KOA Holiday,Tennessee,37882
269 Murray's Chapel Road,Sweetwater,Sweetwater / I-75 / Exit 62 KOA Holiday,Tennessee,37874
590 West 600 South,Richfield,Richfield KOA Holiday,Utah,84701
1400 West North Temple,Salt Lake City,Salt Lake City KOA Holiday,Utah,84116
2100 Safari Camp Road,Lebanon,Nashville East / Lebanon KOA Journey,Tennessee,37090
2626 Music Valley Drive,Nashville,Nashville KOA Resort,Tennessee,37214
240 KOA Lane,Newport,Newport / I-40 / Smoky Mountains KOA Journey,Tennessee,37821
3122 Veterans Blvd.,Pigeon Forge,Pigeon Forge / Gatlinburg KOA Holiday,Tennessee,37863
3937 Hwy 81 S,Jonesborough,Jonesborough / Cherokee NF KOA Journey,Tennessee,37659
6290 East Antioch Road,Buchanan,Paris Landing / Kentucky Lake KOA Holiday,Tennessee,38222
648 Pleasant Grove Road,McDonald,Chattanooga North / Cleveland KOA Journey,Tennessee,37353
473 Barrren Hollow Road,Hurricane Mills,Buffalo / I-40 / Exit 143 KOA Journey,Tennessee,37078
205 E. Highway 71,Rawlins,Rawlins KOA Journey,Wyoming,82301
425 Rocky Branch Rd,Blountville,Bristol / Kingsport KOA Holiday,Tennessee,37617
4874 Hooper Highway,Cosby,Gatlinburg East / Smoky Mountain KOA Holiday,Tennessee,37722
7485 Horton Highway,Greeneville,Baileyton KOA Holiday,Tennessee,37745
6575 US-70,Crossville,Crossville / I-40 KOA Holiday,Tennessee,38555
399 North 2nd Street,Greybull,Greybull KOA Holiday,Wyoming,82426
168 Cold Springs Road (Highway 91),Douglas,Douglas KOA Journey,Wyoming,82633
225 Welty Street,Dubois,Dubois / Wind River KOA Holiday,Wyoming,82513
60 Highway 110,Devils Tower-0100,Devils Tower / Black Hills KOA Journey,Wyoming,82714
1545 State Highway 413,Lyman,Lyman KOA Journey,Wyoming,82937
1101 Prairie Lane,Bar Nunn,Casper KOA Journey,Wyoming,82601
87 US Highway 16 East,Buffalo,Buffalo KOA Journey,Wyoming,82834
5561 Greybull Highway,Cody,Cody KOA Holiday,Wyoming,82414
659 North Street,Houlton,Houlton / Canadian Border KOA Journey,Maine,04730
295 Sebago Road,Naples,Naples KOA Holiday,Maine,04055
21 Flat Rock Bridge Road,Lebanon,Lebanon KOA Holiday on Salmon Falls River,Maine,04027
18 Cabin Road,Canaan,Skowhegan / Kennebec Valley KOA Journey,Maine,04924
136 County Road,Bar Harbor,Bar Harbor / Oceanside KOA Holiday,Maine,04609
82 Big Skye Lane,Durham,Freeport / Durham KOA Holiday,Maine,04222
30 Mallard Drive,Richmond,Augusta / Gardiner KOA Journey,Maine,04357
32 Leaches Point Rd,Orland,Bucksport / Fort Knox KOA Holiday,Maine,04472
4550 La Porte Rd ( Hess Rd),Waterloo,Waterloo / Lost Island Waterpark KOA Resort,Iowa,50701
602 Main Road,Holden,Bangor / Holden KOA Holiday,Maine,04429
21788 Dogwood Avenue,Onawa-8665,Onawa / Blue Lake KOA Holiday,Iowa,51040
34308 L Avenue,Adel,Des Moines West KOA Holiday,Iowa,50003
3157 West Chain of Rocks Road,Granite City,St. Louis N.E. / I-270 / Granite City  KOA Journey,Illinois,62040
4320 KOA Road,Rochester,Springfield KOA Journey,Illinois,62563
2311 78th Avenue West,Rock Island,Rock Island / Quad Cities KOA Holiday,Illinois,61201
1440 Highway 1383,Russell Springs,Russell Springs KOA Journey,Kentucky,42642
4793 US Highway 62,Calvert City,Paducah / I-24 / Kentucky Lake KOA Journey,Kentucky,42029
1601 East 36th Street South,Newton,Newton / Des Moines East KOA Journey,Iowa,50208
184 KOA Campground Rd,Mt. Vernon,Renfro Valley KOA Holiday,Kentucky,40456
425 East 6000 South Road,Chebanse,Kankakee South KOA Holiday,Illinois,60922
200 Koehler St.,Grayville,Grayville / I-64 KOA Holiday,Illinois,62844
1081 US HWY 150 E,Knoxville,Galesburg East / Knoxville KOA Journey,Illinois,61448
10982 US Highway 20 West,Lena,Lena KOA Holiday,Illinois,61048
1500 North DuQuoin Street,Benton,Benton KOA Journey,Illinois,62812
1777 Prizer Point Rd.,Cadiz,Kentucky Lakes / Prizer Point KOA,Kentucky,42211
KOA AVE,Horse Cave,Horse Cave KOA Holiday,Kentucky,42749
171 East City Dam Road,Corbin,Corbin / Laurel Lake KOA Journey,Kentucky,40701
1248 East 1250th Road,Casey,Casey KOA Journey,Illinois,62420
8404 South Union Road,Union,Chicago Northwest KOA Holiday,Illinois,60180
1960 Three Springs Road,Bowling Green,Bowling Green KOA Holiday,Kentucky,42104
2433 Highway 44 East,Shepherdsville,Louisville South KOA Holiday,Kentucky,40165
80 KOA Lane,Argillite,Ashland / Huntington West KOA Holiday,Kentucky,41121
